{
"type": "FeatureCollection",
"name": "banks_v3",
"crs": { "type": "name", "properties": { "name": "urn:ogc:def:crs:OGC:1.3:CRS84" } },
"features": [
{ "type": "Feature", "properties": { "Financial Institution": "Nepal Investment Mega Bank ", "Class": "A", "Branch / Location Details": "Timure Branch (Pasang Lhamu Highway)", "Municipality / Region": "Gosaikunda-2, Rasuwa", "Coordinates (Lat, Long)": "28.25342173252407, 85.36615001864067", "Latitude": 28.25342173, "Longitude": 85.36615002000001, "Verification": "OK", "Condition": "flooded" }, "geometry": { "type": "Point", "coordinates": [ 85.36615002, 28.25342173 ] } },
{ "type": "Feature", "properties": { "Financial Institution": "Nepal Investment Mega Bank ", "Class": "A", "Branch / Location Details": "Syabrubesi Branch (Syabrubesi Bazar)", "Municipality / Region": "Gosaikunda-5, Rasuwa", "Coordinates (Lat, Long)": "28.161293958157543, 85.33623895591057", "Latitude": 28.16129396, "Longitude": 85.33623896, "Verification": "OK", "Condition": "flooded" }, "geometry": { "type": "Point", "coordinates": [ 85.33623896, 28.16129396 ] } },
{ "type": "Feature", "properties": { "Financial Institution": "Nepal Investment Mega Bank ", "Class": "A", "Branch / Location Details": "Mailung Extension Counter", "Municipality / Region": "Kalika RM-1, Rasuwa", "Coordinates (Lat, Long)": "28.066661823644598, 85.20617524855153", "Latitude": 28.06666182, "Longitude": 85.20617525, "Verification": "OK", "Condition": "flooded" }, "geometry": { "type": "Point", "coordinates": [ 85.20617525, 28.06666182 ] } },
{ "type": "Feature", "properties": { "Financial Institution": "Nepal Investment Mega Bank ", "Class": "A", "Branch / Location Details": "Battar Branch (Battar Bazaar)", "Municipality / Region": "Bidur-2, Nuwakot", "Coordinates (Lat, Long)": "27.897355653461947, 85.14656031204659", "Latitude": 27.89735565, "Longitude": 85.14656031, "Verification": "OK", "Condition": "non flooded" }, "geometry": { "type": "Point", "coordinates": [ 85.14656031, 27.89735565 ] } },
{ "type": "Feature", "properties": { "Financial Institution": "Nepal Investment Mega Bank ", "Class": "A", "Branch / Location Details": "Malekhu Branch (Jhagare)", "Municipality / Region": "Benighat Rorang-7, Dhading", "Coordinates (Lat, Long)": "27.811121706992402, 84.83324336754482", "Latitude": 27.81112171, "Longitude": 84.83324337000001, "Verification": "OK", "Condition": "flooded" }, "geometry": { "type": "Point", "coordinates": [ 84.83324337, 27.81112171 ] } },
{ "type": "Feature", "properties": { "Financial Institution": "Nepal Investment Mega Bank", "Class": "A", "Branch / Location Details": "Dhunche Extension Counter", "Municipality / Region": "Gosaikunda-6, Rasuwa", "Coordinates (Lat, Long)": "28.112962204054913, 85.2952929484166", "Latitude": 28.1129622, "Longitude": 85.29529295, "Verification": "No exact location", "Condition": "non flooded" }, "geometry": { "type": "Point", "coordinates": [ 85.29529295, 28.1129622 ] } },
{ "type": "Feature", "properties": { "Financial Institution": "Sanima Bank Limited", "Class": "A", "Branch / Location Details": "Timure Branch (Pasang Lhamu Highway)", "Municipality / Region": "Gosaikunda-2, Rasuwa", "Coordinates (Lat, Long)": "28.252168483316044, 85.36606281357206", "Latitude": 28.25216848, "Longitude": 85.36606281, "Verification": "OK", "Condition": "flooded" }, "geometry": { "type": "Point", "coordinates": [ 85.36606281, 28.25216848 ] } },
{ "type": "Feature", "properties": { "Financial Institution": "Sanima Bank Limited", "Class": "A", "Branch / Location Details": "Bidur-3 Branch (Battar)", "Municipality / Region": "Bidur-3, Nuwakot", "Coordinates (Lat, Long)": "27.91530953352295, 85.14278905356436", "Latitude": 27.91530953, "Longitude": 85.14278905, "Verification": "OK", "Condition": "non flooded" }, "geometry": { "type": "Point", "coordinates": [ 85.14278905, 27.91530953 ] } },
{ "type": "Feature", "properties": { "Financial Institution": "Sanima Bank Limited", "Class": "A", "Branch / Location Details": "Belkotgadhi Branch", "Municipality / Region": "Belkotgadhi-9, Nuwakot", "Coordinates (Lat, Long)": null, "Latitude": null, "Longitude": null, "Verification": "No exact location", "Condition": "probably flooded" }, "geometry": null },
{ "type": "Feature", "properties": { "Financial Institution": "Sanima Bank Limited", "Class": "A", "Branch / Location Details": "Malekhu Branch", "Municipality / Region": "Benighat Rorang-3, Dhading", "Coordinates (Lat, Long)": "27.814004586245446, 84.82846212376637", "Latitude": 27.81400459, "Longitude": 84.82846212, "Verification": "OK", "Condition": "flooded" }, "geometry": { "type": "Point", "coordinates": [ 84.82846212, 27.81400459 ] } },
{ "type": "Feature", "properties": { "Financial Institution": "NMB Bank Limited", "Class": "A", "Branch / Location Details": "Timure Branch (Pasang Lhamu Highway)", "Municipality / Region": "Gosaikunda-2, Rasuwa", "Coordinates (Lat, Long)": "28.25340081994647, 85.36617158424917", "Latitude": 28.25340082, "Longitude": 85.36617158, "Verification": "OK", "Condition": "flooded" }, "geometry": { "type": "Point", "coordinates": [ 85.36617158, 28.25340082 ] } },
{ "type": "Feature", "properties": { "Financial Institution": "NMB Bank Limited", "Class": "A", "Branch / Location Details": "Dhunche Branch", "Municipality / Region": "Dhunche-6, Rasuwa", "Coordinates (Lat, Long)": "28.11183836823243, 85.29718921064533", "Latitude": 28.11183837, "Longitude": 85.29718921, "Verification": "OK", "Condition": "non flooded" }, "geometry": { "type": "Point", "coordinates": [ 85.29718921, 28.11183837 ] } },
{ "type": "Feature", "properties": { "Financial Institution": "NMB Bank Limited", "Class": "A", "Branch / Location Details": "Battar Branch", "Municipality / Region": "Bidur Municipality, Nuwakot", "Coordinates (Lat, Long)": "27.904226500081833, 85.14627139456883", "Latitude": 27.9042265, "Longitude": 85.14627139, "Verification": "OK", "Condition": "non flooded" }, "geometry": { "type": "Point", "coordinates": [ 85.14627139, 27.9042265 ] } },
{ "type": "Feature", "properties": { "Financial Institution": "NMB Bank Limited", "Class": "A", "Branch / Location Details": "Galchi Branch (Barate Chowk-7)", "Municipality / Region": "Galchhi, Dhading", "Coordinates (Lat, Long)": "27.797693928088286, 84.99966582188881", "Latitude": 27.79769393, "Longitude": 84.99966582, "Verification": "OK", "Condition": "non flooded" }, "geometry": { "type": "Point", "coordinates": [ 84.99966582, 27.79769393 ] } },
{ "type": "Feature", "properties": { "Financial Institution": "Kumari Bank Limited", "Class": "A", "Branch / Location Details": "Timure Branch", "Municipality / Region": "Gosaikunda-2, Rasuwa", "Coordinates (Lat, Long)": "28.2537° N, 85.3664° E", "Latitude": 28.2537, "Longitude": 85.3664, "Verification": "No exact location", "Condition": "flooded" }, "geometry": { "type": "Point", "coordinates": [ 85.3664, 28.2537 ] } },
{ "type": "Feature", "properties": { "Financial Institution": "Kumari Bank Limited", "Class": "A", "Branch / Location Details": "Battar Branch", "Municipality / Region": "Bidur Municipality, Nuwakot", "Coordinates (Lat, Long)": null, "Latitude": null, "Longitude": null, "Verification": "No exact location", "Condition": "non flooded" }, "geometry": null },
{ "type": "Feature", "properties": { "Financial Institution": "Kumari Bank Limited", "Class": "A", "Branch / Location Details": "Malekhu Branch (Baikunthapuri)", "Municipality / Region": "Benighat Rorang, Dhading", "Coordinates (Lat, Long)": "27.813979208451805, 84.82797240811529", "Latitude": 27.81397921, "Longitude": 84.82797241, "Verification": "OK", "Condition": "flooded" }, "geometry": { "type": "Point", "coordinates": [ 84.82797241, 27.81397921 ] } },
{ "type": "Feature", "properties": { "Financial Institution": "Kumari Bank Limited", "Class": "A", "Branch / Location Details": "Chaurandi Branch", "Municipality / Region": null, "Coordinates (Lat, Long)": "27.802022380681155, 84.74062483598405", "Latitude": 27.80202238, "Longitude": 84.74062484, "Verification": "OK", "Condition": "flooded" }, "geometry": { "type": "Point", "coordinates": [ 84.74062484, 27.80202238 ] } },
{ "type": "Feature", "properties": { "Financial Institution": "Laxmi Sunrise Bank", "Class": "A", "Branch / Location Details": "Timure Branch", "Municipality / Region": "Gosaikunda-2, Rasuwa", "Coordinates (Lat, Long)": "28.2537° N, 85.3664° E", "Latitude": 28.2537, "Longitude": 85.3664, "Verification": "No exact location", "Condition": "flooded" }, "geometry": { "type": "Point", "coordinates": [ 85.3664, 28.2537 ] } },
{ "type": "Feature", "properties": { "Financial Institution": "Laxmi Sunrise Bank Limited", "Class": "A", "Branch / Location Details": "Battar Branch", "Municipality / Region": "Bidur-2, Nuwakot", "Coordinates (Lat, Long)": "27.902544189135707, 85.14192951505794", "Latitude": 27.90254419, "Longitude": 85.14192952000001, "Verification": "OK", "Condition": "non flooded" }, "geometry": { "type": "Point", "coordinates": [ 85.14192952, 27.90254419 ] } },
{ "type": "Feature", "properties": { "Financial Institution": "Machhapuchchhre Bank Limited", "Class": "A", "Branch / Location Details": "Timure Branch", "Municipality / Region": "Gosaikunda-2, Rasuwa", "Coordinates (Lat, Long)": "28.2537° N, 85.3664° E", "Latitude": 28.2537, "Longitude": 85.3664, "Verification": "No exact location", "Condition": "non flooded" }, "geometry": { "type": "Point", "coordinates": [ 85.3664, 28.2537 ] } },
{ "type": "Feature", "properties": { "Financial Institution": "Machhapuchchhre Bank Limited", "Class": "A", "Branch / Location Details": "Trishuli Branch (Bataar Bazaar)", "Municipality / Region": "Bidur-4, Nuwakot", "Coordinates (Lat, Long)": "27.904235826742845, 85.14554973603123", "Latitude": 27.90423583, "Longitude": 85.14554974000001, "Verification": "OK", "Condition": "non flooded" }, "geometry": { "type": "Point", "coordinates": [ 85.14554974, 27.90423583 ] } },
{ "type": "Feature", "properties": { "Financial Institution": "Machhapuchchhre Bank Limited", "Class": "A", "Branch / Location Details": "Benighat Branch", "Municipality / Region": "Benighat Rorang-3, Dhading", "Coordinates (Lat, Long)": "27.81063979206013, 84.77937720000003", "Latitude": 27.81063979, "Longitude": 84.7793772, "Verification": "OK", "Condition": "non flooded" }, "geometry": { "type": "Point", "coordinates": [ 84.7793772, 27.81063979 ] } },
{ "type": "Feature", "properties": { "Financial Institution": "Machhapuchchhre Bank Limited", "Class": "A", "Branch / Location Details": "Gajuri Branch", "Municipality / Region": "Gajuri-1, Dhading", "Coordinates (Lat, Long)": "27.804760068037655, 84.87903495645136", "Latitude": 27.80476007, "Longitude": 84.87903496, "Verification": "OK", "Condition": "non flooded" }, "geometry": { "type": "Point", "coordinates": [ 84.87903496, 27.80476007 ] } },
{ "type": "Feature", "properties": { "Financial Institution": "Nabil Bank Limited", "Class": "A", "Branch / Location Details": "Timure Branch", "Municipality / Region": "Gosaikunda-2, Rasuwa", "Coordinates (Lat, Long)": "28.255098882039267, 85.36667585164774", "Latitude": 28.25509888, "Longitude": 85.36667585, "Verification": "OK", "Condition": "flooded" }, "geometry": { "type": "Point", "coordinates": [ 85.36667585, 28.25509888 ] } },
{ "type": "Feature", "properties": { "Financial Institution": "Nabil Bank Limited", "Class": "A", "Branch / Location Details": "Dhunche Branch", "Municipality / Region": "Dhunche-6, Rasuwa", "Coordinates (Lat, Long)": "28.111682623039485, 85.29741052834567", "Latitude": 28.11168262, "Longitude": 85.29741053, "Verification": "OK", "Condition": "non flooded" }, "geometry": { "type": "Point", "coordinates": [ 85.29741053, 28.11168262 ] } },
{ "type": "Feature", "properties": { "Financial Institution": "Nabil Bank Limited", "Class": "A", "Branch / Location Details": "Battar Branch (Battar Bazaar)", "Municipality / Region": "Bidur-2, Nuwakot", "Coordinates (Lat, Long)": "27.89660769278912, 85.14668424412027", "Latitude": 27.89660769, "Longitude": 85.14668424, "Verification": "OK", "Condition": "non flooded" }, "geometry": { "type": "Point", "coordinates": [ 85.14668424, 27.89660769 ] } },
{ "type": "Feature", "properties": { "Financial Institution": "Nabil Bank Limited", "Class": "A", "Branch / Location Details": "Gajuri Branch", "Municipality / Region": "Gajuri-1, Dhading", "Coordinates (Lat, Long)": "27.804626726318514, 84.87712073853174", "Latitude": 27.80462673, "Longitude": 84.87712074, "Verification": "OK", "Condition": "non flooded" }, "geometry": { "type": "Point", "coordinates": [ 84.87712074, 27.80462673 ] } },
{ "type": "Feature", "properties": { "Financial Institution": "Nepal Bank Limited", "Class": "A", "Branch / Location Details": "Dhunche Branch", "Municipality / Region": "Gosaikunda-6, Rasuwa", "Coordinates (Lat, Long)": "28.1129914128673, 85.29529290209345", "Latitude": 28.11299141, "Longitude": 85.2952929, "Verification": "OK", "Condition": "non flooded" }, "geometry": { "type": "Point", "coordinates": [ 85.2952929, 28.11299141 ] } },
{ "type": "Feature", "properties": { "Financial Institution": "Nepal Bank Limited", "Class": "A", "Branch / Location Details": "Battar Branch (Battar Bazaar)", "Municipality / Region": "Bidur-2, Nuwakot", "Coordinates (Lat, Long)": "27.916212136618086, 85.1416321873584", "Latitude": 27.91621214, "Longitude": 85.14163219, "Verification": "OK", "Condition": "non flooded" }, "geometry": { "type": "Point", "coordinates": [ 85.14163219, 27.91621214 ] } },
{ "type": "Feature", "properties": { "Financial Institution": "Global IME Bank Limited", "Class": "A", "Branch / Location Details": "Timure Branch", "Municipality / Region": "Gosaikunda-2, Rasuwa", "Coordinates (Lat, Long)": "28.25275188361133, 85.36610564718298", "Latitude": 28.25275188, "Longitude": 85.36610565, "Verification": "OK", "Condition": "flooded" }, "geometry": { "type": "Point", "coordinates": [ 85.36610565, 28.25275188 ] } },
{ "type": "Feature", "properties": { "Financial Institution": "Global IME Bank Limited", "Class": "A", "Branch / Location Details": "Dhunche Branch", "Municipality / Region": "Gosaikunda RM, Rasuwa", "Coordinates (Lat, Long)": "28.11279449726022, 85.2956350406634", "Latitude": 28.1127945, "Longitude": 85.29563504, "Verification": "OK", "Condition": "non flooded" }, "geometry": { "type": "Point", "coordinates": [ 85.29563504, 28.1127945 ] } },
{ "type": "Feature", "properties": { "Financial Institution": "Global IME Bank Limited", "Class": "A", "Branch / Location Details": "Kalikasthan Branch", "Municipality / Region": "Kalika-2, Rasuwa", "Coordinates (Lat, Long)": "28.001892187765204, 85.21325230329035", "Latitude": 28.00189219, "Longitude": 85.2132523, "Verification": "OK", "Condition": "non flooded" }, "geometry": { "type": "Point", "coordinates": [ 85.2132523, 28.00189219 ] } },
{ "type": "Feature", "properties": { "Financial Institution": "Global IME Bank Limited", "Class": "A", "Branch / Location Details": "Baireni Branch", "Municipality / Region": "Galchhi-9, Dhading", "Coordinates (Lat, Long)": "27.801278790771224, 84.99032837716601", "Latitude": 27.80127879, "Longitude": 84.99032838, "Verification": "OK", "Condition": "non flooded" }, "geometry": { "type": "Point", "coordinates": [ 84.99032838, 27.80127879 ] } },
{ "type": "Feature", "properties": { "Financial Institution": "Global IME Bank Limited", "Class": "A", "Branch / Location Details": "Trishuli Branch", "Municipality / Region": "Bidur-1, Nuwakot", "Coordinates (Lat, Long)": "27.912605539105353, 85.14317663180059", "Latitude": 27.91260554, "Longitude": 85.14317663, "Verification": "OK", "Condition": "non flooded" }, "geometry": { "type": "Point", "coordinates": [ 85.14317663, 27.91260554 ] } },
{ "type": "Feature", "properties": { "Financial Institution": "Prabhu Bank Limited", "Class": "A", "Branch / Location Details": "Timure Branch", "Municipality / Region": "Gosaikunda-2, Rasuwa", "Coordinates (Lat, Long)": "28.2537° N, 85.3664° E", "Latitude": 28.2537, "Longitude": 85.3664, "Verification": "No exact location", "Condition": "flooded" }, "geometry": { "type": "Point", "coordinates": [ 85.3664, 28.2537 ] } },
{ "type": "Feature", "properties": { "Financial Institution": "Prabhu Bank Limited", "Class": "A", "Branch / Location Details": "Syabrubesi Branch", "Municipality / Region": "Gosaikunda-5, Rasuwa", "Coordinates (Lat, Long)": "28.162243633076557, 85.33643339935337", "Latitude": 28.16224363, "Longitude": 85.3364334, "Verification": "OK", "Condition": "flooded" }, "geometry": { "type": "Point", "coordinates": [ 85.3364334, 28.16224363 ] } },
{ "type": "Feature", "properties": { "Financial Institution": "Prabhu Bank Limited", "Class": "A", "Branch / Location Details": "Battar Branch", "Municipality / Region": "Bidur Municipality, Nuwakot", "Coordinates (Lat, Long)": "27.903360005062982, 85.14561225571325", "Latitude": 27.90336001, "Longitude": 85.14561226, "Verification": "OK", "Condition": "non flooded" }, "geometry": { "type": "Point", "coordinates": [ 85.14561226, 27.90336001 ] } },
{ "type": "Feature", "properties": { "Financial Institution": "Prabhu Bank Limited", "Class": "A", "Branch / Location Details": "Belkotgadhi Branch", "Municipality / Region": "Belkotgadhi-7, Nuwakot", "Coordinates (Lat, Long)": null, "Latitude": null, "Longitude": null, "Verification": "No exact location", "Condition": "probably flooded" }, "geometry": null },
{ "type": "Feature", "properties": { "Financial Institution": "Prabhu Bank Limited", "Class": "A", "Branch / Location Details": "Benighat Rorang Branch", "Municipality / Region": "Benighat Rorang-8, Dhading", "Coordinates (Lat, Long)": null, "Latitude": null, "Longitude": null, "Verification": "No exact location", "Condition": "flooded" }, "geometry": null },
{ "type": "Feature", "properties": { "Financial Institution": "Prabhu Bank Limited", "Class": "A", "Branch / Location Details": "Gajuri Branch", "Municipality / Region": "Gajuri-1, Dhading", "Coordinates (Lat, Long)": "27.805120584724058, 84.88047420553357", "Latitude": 27.80512058, "Longitude": 84.88047421, "Verification": "OK", "Condition": "non flooded" }, "geometry": { "type": "Point", "coordinates": [ 84.88047421, 27.80512058 ] } },
{ "type": "Feature", "properties": { "Financial Institution": "NIC ASIA Bank Limited", "Class": "A", "Branch / Location Details": "Syabrubesi Branch", "Municipality / Region": "Gosaikunda-5, Rasuwa", "Coordinates (Lat, Long)": "28.16070315801004, 85.33646576791611", "Latitude": 28.16070316, "Longitude": 85.33646577, "Verification": "OK", "Condition": "flooded" }, "geometry": { "type": "Point", "coordinates": [ 85.33646577, 28.16070316 ] } },
{ "type": "Feature", "properties": { "Financial Institution": "NIC ASIA Bank Limited", "Class": "A", "Branch / Location Details": "Betrawati Branch", "Municipality / Region": "Bidur-10, Nuwakot", "Coordinates (Lat, Long)": "27.97401751698509, 85.1862663069047", "Latitude": 27.97401752, "Longitude": 85.18626631, "Verification": "OK", "Condition": "flooded" }, "geometry": { "type": "Point", "coordinates": [ 85.18626631, 27.97401752 ] } },
{ "type": "Feature", "properties": { "Financial Institution": "NIC ASIA Bank Limited", "Class": "A", "Branch / Location Details": "Galchhi Branch", "Municipality / Region": "Galchhi-7, Dhading", "Coordinates (Lat, Long)": "27.804870646119348, 84.88036903036573", "Latitude": 27.80487065, "Longitude": 84.88036903, "Verification": "OK", "Condition": "non flooded" }, "geometry": { "type": "Point", "coordinates": [ 84.88036903, 27.80487065 ] } },
{ "type": "Feature", "properties": { "Financial Institution": "Rastriya Banijya Bank Limited", "Class": "A", "Branch / Location Details": "Kalikasthan Branch", "Municipality / Region": "Kalika RM, Rasuwa", "Coordinates (Lat, Long)": "28.0000° N, 85.2100° E", "Latitude": 28.0, "Longitude": 85.21, "Verification": "No exact location", "Condition": "non flooded" }, "geometry": { "type": "Point", "coordinates": [ 85.21, 28.0 ] } },
{ "type": "Feature", "properties": { "Financial Institution": "Rastriya Banijya Bank Limited", "Class": "A", "Branch / Location Details": "Gajuri Branch", "Municipality / Region": "Gajuri, Dhading", "Coordinates (Lat, Long)": null, "Latitude": null, "Longitude": null, "Verification": "No exact location", "Condition": "non flooded" }, "geometry": null },
{ "type": "Feature", "properties": { "Financial Institution": "Rastriya Banijya Bank Limited", "Class": "A", "Branch / Location Details": "Malekhu Branch", "Municipality / Region": "Benighat Rorang-3, Dhading", "Coordinates (Lat, Long)": "27.814074681895224, 84.82843382508855", "Latitude": 27.81407468, "Longitude": 84.82843383, "Verification": "No exact location", "Condition": "flooded" }, "geometry": { "type": "Point", "coordinates": [ 84.82843383, 27.81407468 ] } },
{ "type": "Feature", "properties": { "Financial Institution": "Rastriya Banijya Bank Limited", "Class": "A", "Branch / Location Details": "Dhunche Branch", "Municipality / Region": "Gosaikunda-6, Rasuwa", "Coordinates (Lat, Long)": "28.1115° N, 85.2956° E", "Latitude": 28.1115, "Longitude": 85.2956, "Verification": "No exact location", "Condition": "non flooded" }, "geometry": { "type": "Point", "coordinates": [ 85.2956, 28.1115 ] } },
{ "type": "Feature", "properties": { "Financial Institution": "Rastriya Banijya Bank Limited", "Class": "A", "Branch / Location Details": "Trishuli Branch", "Municipality / Region": "Bidur-1, Nuwakot", "Coordinates (Lat, Long)": "27.91118838668933, 85.14411044052486", "Latitude": 27.91118839, "Longitude": 85.14411044000001, "Verification": "OK", "Condition": "non flooded" }, "geometry": { "type": "Point", "coordinates": [ 85.14411044, 27.91118839 ] } },
{ "type": "Feature", "properties": { "Financial Institution": "Rastriya Banijya Bank Limited", "Class": "A", "Branch / Location Details": "Jogimara Branch", "Municipality / Region": "Majhimtar", "Coordinates (Lat, Long)": "27.805151908654587, 84.70478267952768", "Latitude": 27.80515191, "Longitude": 84.70478268, "Verification": "OK", "Condition": "flooded" }, "geometry": { "type": "Point", "coordinates": [ 84.70478268, 27.80515191 ] } },
{ "type": "Feature", "properties": { "Financial Institution": "Himalayan Bank Limited", "Class": "A", "Branch / Location Details": "Trishuli Branch", "Municipality / Region": "Bidur, Nuwakot", "Coordinates (Lat, Long)": "27.89852726780316, 85.14707075394634", "Latitude": 27.89852727, "Longitude": 85.14707075, "Verification": "OK", "Condition": "non flooded" }, "geometry": { "type": "Point", "coordinates": [ 85.14707075, 27.89852727 ] } },
{ "type": "Feature", "properties": { "Financial Institution": "Himalayan Bank Limited", "Class": "A", "Branch / Location Details": "Betrawati Branch", "Municipality / Region": "Betrawati, Rasuwa", "Coordinates (Lat, Long)": null, "Latitude": null, "Longitude": null, "Verification": "No exact location", "Condition": "probably flooded" }, "geometry": null },
{ "type": "Feature", "properties": { "Financial Institution": "Himalayan Bank Limited ", "Class": "A", "Branch / Location Details": "Tarkeshwor Branch", "Municipality / Region": "Dangsing-1, Tarkeshwor RM, Nuwakot", "Coordinates (Lat, Long)": null, "Latitude": null, "Longitude": null, "Verification": "No exact location", "Condition": "flooded" }, "geometry": null },
{ "type": "Feature", "properties": { "Financial Institution": "Nepal SBI Bank Limited", "Class": "A", "Branch / Location Details": "Battar Branch", "Municipality / Region": "Bidur-3, Nuwakot", "Coordinates (Lat, Long)": "27.900535997903226, 85.14623957479735", "Latitude": 27.900536, "Longitude": 85.14623957000001, "Verification": "OK", "Condition": "non flooded" }, "geometry": { "type": "Point", "coordinates": [ 85.14623957, 27.900536 ] } },
{ "type": "Feature", "properties": { "Financial Institution": "Citizens Bank International Limited", "Class": "A", "Branch / Location Details": "Devighat Branch", "Municipality / Region": "Bidur-5, Devighat, Nuwakot", "Coordinates (Lat, Long)": null, "Latitude": null, "Longitude": null, "Verification": "No exact location", "Condition": "flooded" }, "geometry": null },
{ "type": "Feature", "properties": { "Financial Institution": "Citizens Bank International Limited", "Class": "A", "Branch / Location Details": "Gajuri Branch", "Municipality / Region": "Gajuri-1, Dhading", "Coordinates (Lat, Long)": "27.805026704822524, 84.87636170991567", "Latitude": 27.8050267, "Longitude": 84.87636171, "Verification": "OK", "Condition": "non flooded" }, "geometry": { "type": "Point", "coordinates": [ 84.87636171, 27.8050267 ] } },
{ "type": "Feature", "properties": { "Financial Institution": "Agriculture Development Bank Limited", "Class": "A", "Branch / Location Details": "Dhunche Branch", "Municipality / Region": "Dhunche, Rasuwa", "Coordinates (Lat, Long)": "28.1115° N, 85.2956° E", "Latitude": 28.1115, "Longitude": 85.2956, "Verification": "OK", "Condition": "non flooded" }, "geometry": { "type": "Point", "coordinates": [ 85.2956, 28.1115 ] } },
{ "type": "Feature", "properties": { "Financial Institution": "Agriculture Development Bank Limited", "Class": "A", "Branch / Location Details": "Trishuli Branch", "Municipality / Region": "Bidur-2, Nuwakot", "Coordinates (Lat, Long)": null, "Latitude": null, "Longitude": null, "Verification": "No exact location", "Condition": "non flooded" }, "geometry": null },
{ "type": "Feature", "properties": { "Financial Institution": "Agriculture Development Bank Limited", "Class": "A", "Branch / Location Details": "Gajuri Branch", "Municipality / Region": null, "Coordinates (Lat, Long)": "27.80449816148666, 84.87611139196781", "Latitude": 27.80449816, "Longitude": 84.87611139000001, "Verification": "OK", "Condition": "non flooded" }, "geometry": { "type": "Point", "coordinates": [ 84.87611139, 27.80449816 ] } },
{ "type": "Feature", "properties": { "Financial Institution": "Prime Commercial Bank Limited", "Class": "A", "Branch / Location Details": "Kalika Branch", "Municipality / Region": "Kalika-2, Rasuwa", "Coordinates (Lat, Long)": "28.0030972401876, 85.21267547254212", "Latitude": 28.00309724, "Longitude": 85.21267547, "Verification": "No exact location", "Condition": "non flooded" }, "geometry": { "type": "Point", "coordinates": [ 85.21267547, 28.00309724 ] } },
{ "type": "Feature", "properties": { "Financial Institution": "Prime Commercial Bank Limited", "Class": "A", "Branch / Location Details": "Battar Branch", "Municipality / Region": "Bidur-2, Nuwakot", "Coordinates (Lat, Long)": "27.89832783061521, 85.146129716193", "Latitude": 27.89832783, "Longitude": 85.14612972, "Verification": "OK", "Condition": "non flooded" }, "geometry": { "type": "Point", "coordinates": [ 85.14612972, 27.89832783 ] } },
{ "type": "Feature", "properties": { "Financial Institution": "Prime Commercial Bank Limited", "Class": "A", "Branch / Location Details": "Kalikasthan Branch", "Municipality / Region": "Kalika-2, Rasuwa", "Coordinates (Lat, Long)": "28.001898856006207, 85.21298945248661", "Latitude": 28.00189886, "Longitude": 85.21298945, "Verification": "OK", "Condition": "non flooded" }, "geometry": { "type": "Point", "coordinates": [ 85.21298945, 28.00189886 ] } },
{ "type": "Feature", "properties": { "Financial Institution": "Jyoti Bikash Bank Limited", "Class": "B", "Branch / Location Details": "Trishuli Branch", "Municipality / Region": "Bidur, Nuwakot", "Coordinates (Lat, Long)": "27.89849371493983, 85.14669281309806", "Latitude": 27.89849371, "Longitude": 85.14669281, "Verification": "OK", "Condition": "non flooded" }, "geometry": { "type": "Point", "coordinates": [ 85.14669281, 27.89849371 ] } },
{ "type": "Feature", "properties": { "Financial Institution": "Jyoti Bikash Bank Limited", "Class": "B", "Branch / Location Details": "Ratmate Branch", "Municipality / Region": "Belkotgadhi-7, Nuwakot", "Coordinates (Lat, Long)": "27.852315635044402, 85.04091825917469", "Latitude": 27.85231564, "Longitude": 85.04091826, "Verification": "OK", "Condition": "flooded" }, "geometry": { "type": "Point", "coordinates": [ 85.04091826, 27.85231564 ] } },
{ "type": "Feature", "properties": { "Financial Institution": "Jyoti Bikash Bank Limited", "Class": "B", "Branch / Location Details": "Galchhi Branch", "Municipality / Region": "Galchhi-7, Dhading", "Coordinates (Lat, Long)": null, "Latitude": null, "Longitude": null, "Verification": "No exact location", "Condition": "non flooded" }, "geometry": null },
{ "type": "Feature", "properties": { "Financial Institution": "Garima Bikas Bank Limited", "Class": "B", "Branch / Location Details": "Battar Branch", "Municipality / Region": "Bidur-2, Nuwakot", "Coordinates (Lat, Long)": null, "Latitude": null, "Longitude": null, "Verification": "No exact location", "Condition": "non flooded" }, "geometry": null },
{ "type": "Feature", "properties": { "Financial Institution": "Garima Bikas Bank Limited", "Class": "B", "Branch / Location Details": "Malekhu Branch", "Municipality / Region": "Benighat Rorang-3, Dhading", "Coordinates (Lat, Long)": null, "Latitude": null, "Longitude": null, "Verification": "OK", "Condition": "flooded" }, "geometry": null },
{ "type": "Feature", "properties": { "Financial Institution": "Muktinath Bikas Bank Ltd.", "Class": "B", "Branch / Location Details": "Trishuli Branch", "Municipality / Region": "Bidur, Nuwakot", "Coordinates (Lat, Long)": "27.897425415330865, 85.14621230374513", "Latitude": 27.89742542, "Longitude": 85.1462123, "Verification": "OK", "Condition": "non flooded" }, "geometry": { "type": "Point", "coordinates": [ 85.1462123, 27.89742542 ] } },
{ "type": "Feature", "properties": { "Financial Institution": "Muktinath Bikas Bank Ltd.", "Class": "B", "Branch / Location Details": "Aadamghat Branch", "Municipality / Region": "Gajuri-6, Adamghat, Dhading", "Coordinates (Lat, Long)": "27.80693723655279, 84.94324347321172", "Latitude": 27.80693724, "Longitude": 84.94324347, "Verification": "No exact location", "Condition": "non flooded" }, "geometry": { "type": "Point", "coordinates": [ 84.94324347, 27.80693724 ] } },
{ "type": "Feature", "properties": { "Financial Institution": "Muktinath Bikas Bank Ltd.", "Class": "B", "Branch / Location Details": "Benighat Branch", "Municipality / Region": null, "Coordinates (Lat, Long)": "27.810921246004128, 84.78022571573679", "Latitude": 27.81092125, "Longitude": 84.78022572, "Verification": null, "Condition": "flooded" }, "geometry": { "type": "Point", "coordinates": [ 84.78022572, 27.81092125 ] } },
{ "type": "Feature", "properties": { "Financial Institution": "Lumbini Bikas Bank Limited", "Class": "B", "Branch / Location Details": "Kalikasthan Branch", "Municipality / Region": "Kalika RM, Rasuwa", "Coordinates (Lat, Long)": "28.002266852398392, 85.21305171265878", "Latitude": 28.00226685, "Longitude": 85.21305171, "Verification": "OK", "Condition": "non flooded" }, "geometry": { "type": "Point", "coordinates": [ 85.21305171, 28.00226685 ] } },
{ "type": "Feature", "properties": { "Financial Institution": "Lumbini Bikas Bank Limited", "Class": "B", "Branch / Location Details": "Devighat Branch", "Municipality / Region": "Bidur-5, Devighat, Nuwakot", "Coordinates (Lat, Long)": "27.860435414699126, 85.10953053587941", "Latitude": 27.86043541, "Longitude": 85.10953054, "Verification": null, "Condition": "flooded" }, "geometry": { "type": "Point", "coordinates": [ 85.10953054, 27.86043541 ] } },
{ "type": "Feature", "properties": { "Financial Institution": "Shangri-la Development Bank", "Class": "B", "Branch / Location Details": "Trishuli Branch", "Municipality / Region": "Bidur, Nuwakot", "Coordinates (Lat, Long)": "27.897074292684596, 85.14668378197878", "Latitude": 27.89707429, "Longitude": 85.14668378, "Verification": "OK", "Condition": "non flooded" }, "geometry": { "type": "Point", "coordinates": [ 85.14668378, 27.89707429 ] } },
{ "type": "Feature", "properties": { "Financial Institution": "Shangri-la Development Bank", "Class": "B", "Branch / Location Details": "Malekhu Branch", "Municipality / Region": "Benighat Rorang-3, Dhading", "Coordinates (Lat, Long)": "27.81368539282707, 84.8310207821269", "Latitude": 27.81368539, "Longitude": 84.83102078, "Verification": "OK", "Condition": "flooded" }, "geometry": { "type": "Point", "coordinates": [ 84.83102078, 27.81368539 ] } },
{ "type": "Feature", "properties": { "Financial Institution": "Kamana Sewa Bikas Bank Limited", "Class": "D", "Branch / Location Details": "Galchi Branch ", "Municipality / Region": "Galchhi, Dhading", "Coordinates (Lat, Long)": "27.79629368386119, 84.99986679152879", "Latitude": 27.79629368, "Longitude": 84.99986679, "Verification": "OK", "Condition": "non flooded" }, "geometry": { "type": "Point", "coordinates": [ 84.99986679, 27.79629368 ] } },
{ "type": "Feature", "properties": { "Financial Institution": "ICFC Finance Limited", "Class": "C", "Branch / Location Details": "Kalika Branch", "Municipality / Region": "Kalika-2, Rasuwa", "Coordinates (Lat, Long)": "27.996713035683374, 85.20395404276475", "Latitude": 27.99671304, "Longitude": 85.20395404, "Verification": "OK", "Condition": "non flooded" }, "geometry": { "type": "Point", "coordinates": [ 85.20395404, 27.99671304 ] } },
{ "type": "Feature", "properties": { "Financial Institution": "Deprosc Laghubitta Bittiya Sanstha Ltd.", "Class": "D", "Branch / Location Details": "Bidur Branch", "Municipality / Region": "Bidur, Nuwakot", "Coordinates (Lat, Long)": "27.912192554141768, 85.14453494867966", "Latitude": 27.91219255, "Longitude": 85.14453495, "Verification": "OK", "Condition": "non flooded" }, "geometry": { "type": "Point", "coordinates": [ 85.14453495, 27.91219255 ] } },
{ "type": "Feature", "properties": { "Financial Institution": "Deprosc Laghubitta Bittiya Sanstha Ltd.", "Class": "D", "Branch / Location Details": "Belkotgadhi Area Branch", "Municipality / Region": "Belkotgadhi, Nuwakot", "Coordinates (Lat, Long)": null, "Latitude": null, "Longitude": null, "Verification": "OK", "Condition": "probably flooded" }, "geometry": null },
{ "type": "Feature", "properties": { "Financial Institution": "Deprosc Laghubitta Bittiya Sanstha Ltd.", "Class": "D", "Branch / Location Details": "Kalika Branch", "Municipality / Region": "Kalika-2, Rasuwa", "Coordinates (Lat, Long)": "27.99709055931892, 85.20537980960461", "Latitude": 27.99709056, "Longitude": 85.20537981, "Verification": "OK", "Condition": "non flooded" }, "geometry": { "type": "Point", "coordinates": [ 85.20537981, 27.99709056 ] } },
{ "type": "Feature", "properties": { "Financial Institution": "NADEP Laghubitta Bittiya Sanstha", "Class": "D", "Branch / Location Details": "Battar Branch", "Municipality / Region": "Battar Bazaar, Nuwakot", "Coordinates (Lat, Long)": "27.80781802598396, 84.88208892322625", "Latitude": 27.80781803, "Longitude": 84.88208892, "Verification": "OK", "Condition": "non flooded" }, "geometry": { "type": "Point", "coordinates": [ 84.88208892, 27.80781803 ] } },
{ "type": "Feature", "properties": { "Financial Institution": "Asha Laghubitta Bittiya Sanstha Ltd.", "Class": "D", "Branch / Location Details": "Devighat Branch", "Municipality / Region": "Bidur-7, Devighat, Nuwakot", "Coordinates (Lat, Long)": "27.8599° N, 85.1106° E", "Latitude": 27.8599, "Longitude": 85.1106, "Verification": "No exact location", "Condition": "flooded" }, "geometry": { "type": "Point", "coordinates": [ 85.1106, 27.8599 ] } },
{ "type": "Feature", "properties": { "Financial Institution": "Asha Laghubitta Bittiya Sanstha Ltd.", "Class": "D", "Branch / Location Details": "Galchhi Branch", "Municipality / Region": "Baireni-8, Galchhi, Dhading", "Coordinates (Lat, Long)": "27.8120° N, 85.0050° E", "Latitude": 27.812, "Longitude": 85.005, "Verification": "No exact location", "Condition": "non flooded" }, "geometry": { "type": "Point", "coordinates": [ 85.005, 27.812 ] } },
{ "type": "Feature", "properties": { "Financial Institution": "NMB Laghubitta Bittiya Sanstha Ltd.", "Class": "D", "Branch / Location Details": "Dhunche Branch", "Municipality / Region": null, "Coordinates (Lat, Long)": "28.112425847945726, 85.29689570776428", "Latitude": 28.11242585, "Longitude": 85.29689571, "Verification": null, "Condition": "non flooded" }, "geometry": { "type": "Point", "coordinates": [ 85.29689571, 28.11242585 ] } },
{ "type": "Feature", "properties": { "Financial Institution": "NMB Laghubitta Bittiya Sanstha Ltd.", "Class": "D", "Branch / Location Details": "Kumpur Branch", "Municipality / Region": "Kumpur, Dhading", "Coordinates (Lat, Long)": "27.80748144182982, 84.8695412431602", "Latitude": 27.80748144, "Longitude": 84.86954124, "Verification": "OK", "Condition": "flooded" }, "geometry": { "type": "Point", "coordinates": [ 84.86954124, 27.80748144 ] } },
{ "type": "Feature", "properties": { "Financial Institution": "NMB Laghubitta Bittiya Sanstha Ltd.", "Class": "D", "Branch / Location Details": "Betrawati Branch", "Municipality / Region": "Bidur-10, Nuwakot", "Coordinates (Lat, Long)": "27.975195698441336, 85.18516338736521", "Latitude": 27.9751957, "Longitude": 85.18516339, "Verification": "OK", "Condition": "flooded" }, "geometry": { "type": "Point", "coordinates": [ 85.18516339, 27.9751957 ] } },
{ "type": "Feature", "properties": { "Financial Institution": "Global IME Laghubitta Bittiya Sanstha Ltd", "Class": "D", "Branch / Location Details": "Dhunche Branch", "Municipality / Region": "Gosaikunda-6, Rasuwa", "Coordinates (Lat, Long)": "28.112880446629593, 85.29558005533724", "Latitude": 28.11288045, "Longitude": 85.29558006000001, "Verification": "OK", "Condition": "non flooded" }, "geometry": { "type": "Point", "coordinates": [ 85.29558006, 28.11288045 ] } },
{ "type": "Feature", "properties": { "Financial Institution": "Global IME Laghubitta Bittiya Sanstha Ltd", "Class": "D", "Branch / Location Details": "Syabrubesi Branch", "Municipality / Region": "Gosaikunda RM, Rasuwa", "Coordinates (Lat, Long)": null, "Latitude": null, "Longitude": null, "Verification": "No exact location", "Condition": "flooded" }, "geometry": null },
{ "type": "Feature", "properties": { "Financial Institution": "Swabalamban Laghubitta Bittiya Sanstha", "Class": "D", "Branch / Location Details": "Dhunche Branch", "Municipality / Region": "Dhunche, Rasuwa", "Coordinates (Lat, Long)": "28.1115° N, 85.2956° E", "Latitude": 28.1115, "Longitude": 85.2956, "Verification": "No exact location", "Condition": "non flooded" }, "geometry": { "type": "Point", "coordinates": [ 85.2956, 28.1115 ] } },
{ "type": "Feature", "properties": { "Financial Institution": "Sana Kisan Bikas Laghubitta Bittiya Sanstha Ltd", "Class": "D", "Branch / Location Details": "Kalleri Local Branch", "Municipality / Region": "Kalleri / Kyorenitar, Dhading", "Coordinates (Lat, Long)": null, "Latitude": null, "Longitude": null, "Verification": "No exact location", "Condition": "probably flooded" }, "geometry": null },
{ "type": "Feature", "properties": { "Financial Institution": "Sana Kisan Bikas Laghubitta Bittiya Sanstha Ltd", "Class": "D", "Branch / Location Details": "Gajuri Branch", "Municipality / Region": null, "Coordinates (Lat, Long)": "27.804791003382267, 84.87584492447493", "Latitude": 27.804791, "Longitude": 84.87584492000001, "Verification": "OK", "Condition": "non flooded" }, "geometry": { "type": "Point", "coordinates": [ 84.87584492, 27.804791 ] } },
{ "type": "Feature", "properties": { "Financial Institution": "Chhimek Laghubitta Bittiya Sanstha Limited", "Class": "D", "Branch / Location Details": "Dhaibung / Betrawati Branch", "Municipality / Region": "Bidur, Nuwakot", "Coordinates (Lat, Long)": "27.8993901172927, 85.14646993949681", "Latitude": 27.89939012, "Longitude": 85.14646994, "Verification": "OK", "Condition": "non flooded" }, "geometry": { "type": "Point", "coordinates": [ 85.14646994, 27.89939012 ] } },
{ "type": "Feature", "properties": { "Financial Institution": "Swarojgar Laghubitta Bittya Sanstha Limited", "Class": "D", "Branch / Location Details": "Malekhu Branch", "Municipality / Region": "Benighat Rorang, Dhading", "Coordinates (Lat, Long)": "27.8170° N, 84.8260° E", "Latitude": 27.817, "Longitude": 84.826, "Verification": "No exact location", "Condition": "flooded" }, "geometry": { "type": "Point", "coordinates": [ 84.826, 27.817 ] } },
{ "type": "Feature", "properties": { "Financial Institution": "Womi Laghubitta Bittiya Sanstha Limited", "Class": "D", "Branch / Location Details": "Benighat Branch", "Municipality / Region": "Benighat Rorang-5, Dhading", "Coordinates (Lat, Long)": null, "Latitude": null, "Longitude": null, "Verification": "No exact location", "Condition": "flooded" }, "geometry": null },
{ "type": "Feature", "properties": { "Financial Institution": "Sampada Laghubitta Bittiya Sanstha Limited", "Class": "D", "Branch / Location Details": "Charaudi Branch", "Municipality / Region": "Benighat Rorang-7, Dhading", "Coordinates (Lat, Long)": null, "Latitude": null, "Longitude": null, "Verification": "No exact location", "Condition": "probably flooded" }, "geometry": null },
{ "type": "Feature", "properties": { "Financial Institution": "National Laghubitta Bittiya Sanstha Ltd.", "Class": "D", "Branch / Location Details": "Majhimtaar Branch", "Municipality / Region": "Majhimtar, Dhading", "Coordinates (Lat, Long)": null, "Latitude": null, "Longitude": null, "Verification": "No exact location", "Condition": "probably flooded" }, "geometry": null },
{ "type": "Feature", "properties": { "Financial Institution": "Rupindevi Saving & Credit Co-operative Ltd.", "Class": "N/A", "Branch / Location Details": "Bidur Branch", "Municipality / Region": null, "Coordinates (Lat, Long)": "27.925341125740193, 85.14530370470511", "Latitude": 27.92534113, "Longitude": 85.1453037, "Verification": null, "Condition": "flooded" }, "geometry": { "type": "Point", "coordinates": [ 85.1453037, 27.92534113 ] } },
{ "type": "Feature", "properties": { "Financial Institution": "Saarathi Saving & Credit Cooperative Society Ltd.", "Class": "N/A", "Branch / Location Details": "Bidur Branch", "Municipality / Region": null, "Coordinates (Lat, Long)": "27.927457467951182, 85.14261632678856", "Latitude": 27.92745747, "Longitude": 85.14261633, "Verification": null, "Condition": "flooded" }, "geometry": { "type": "Point", "coordinates": [ 85.14261633, 27.92745747 ] } },
{ "type": "Feature", "properties": { "Financial Institution": "Trishuli Saving and Credit Cooperative Limited", "Class": "N/A", "Branch / Location Details": "Bidur Branch", "Municipality / Region": null, "Coordinates (Lat, Long)": "27.92228517336959, 85.14826573494055", "Latitude": 27.92228517, "Longitude": 85.14826573000001, "Verification": null, "Condition": "flooded" }, "geometry": { "type": "Point", "coordinates": [ 85.14826573, 27.92228517 ] } },
{ "type": "Feature", "properties": { "Financial Institution": "Shree Battar Sahakari Sanstha limited", "Class": "N/A", "Branch / Location Details": "Batar Branch", "Municipality / Region": null, "Coordinates (Lat, Long)": "27.897020272922273, 85.14611334981389", "Latitude": 27.89702027, "Longitude": 85.14611335, "Verification": null, "Condition": "non flooded" }, "geometry": { "type": "Point", "coordinates": [ 85.14611335, 27.89702027 ] } },
{ "type": "Feature", "properties": { "Financial Institution": "Shree Krishna Saving And Credit co-operative Limited", "Class": "N/A", "Branch / Location Details": "Batar Branch", "Municipality / Region": null, "Coordinates (Lat, Long)": "27.896801611730755, 85.14264957048526", "Latitude": 27.89680161, "Longitude": 85.14264957, "Verification": null, "Condition": "non flooded" }, "geometry": { "type": "Point", "coordinates": [ 85.14264957, 27.89680161 ] } },
{ "type": "Feature", "properties": { "Financial Institution": "Saathi upabhokta sahakari sanstha ltd", "Class": "N/A", "Branch / Location Details": "Batar Branch", "Municipality / Region": null, "Coordinates (Lat, Long)": "27.896536093975683, 85.14197802143175", "Latitude": 27.89653609, "Longitude": 85.14197802, "Verification": null, "Condition": "non flooded" }, "geometry": { "type": "Point", "coordinates": [ 85.14197802, 27.89653609 ] } },
{ "type": "Feature", "properties": { "Financial Institution": "Creative coop", "Class": "N/A", "Branch / Location Details": "Batar Branch", "Municipality / Region": null, "Coordinates (Lat, Long)": "27.89744250963191, 85.14661944421312", "Latitude": 27.89744251, "Longitude": 85.14661944, "Verification": null, "Condition": "non flooded" }, "geometry": { "type": "Point", "coordinates": [ 85.14661944, 27.89744251 ] } },
{ "type": "Feature", "properties": { "Financial Institution": "हाइवे बचत तथा ऋण सहाकारी", "Class": "N/A", "Branch / Location Details": "Baireni", "Municipality / Region": null, "Coordinates (Lat, Long)": "27.800971311221012, 84.99046996389076", "Latitude": 27.80097131, "Longitude": 84.99046996, "Verification": null, "Condition": "flooded" }, "geometry": { "type": "Point", "coordinates": [ 84.99046996, 27.80097131 ] } },
{ "type": "Feature", "properties": { "Financial Institution": "Sangam saving and credit co-operative Ltd", "Class": "N/A", "Branch / Location Details": "Battar Branch", "Municipality / Region": "Bidur Municipality, Nuwakot", "Coordinates (Lat, Long)": "27.904191847152266, 85.14396089667403", "Latitude": 27.90419185, "Longitude": 85.1439609, "Verification": "OK", "Condition": "non flooded" }, "geometry": { "type": "Point", "coordinates": [ 85.1439609, 27.90419185 ] } },
{ "type": "Feature", "properties": { "Financial Institution": "Nepoth Saving & Credit Co-operative Ltd.", "Class": "N/A", "Branch / Location Details": "Chaurandi Branch", "Municipality / Region": "Benighat", "Coordinates (Lat, Long)": "27.800749446414905, 84.74039995664953", "Latitude": 27.80074945, "Longitude": 84.74039996, "Verification": "OK", "Condition": "probably flooded" }, "geometry": { "type": "Point", "coordinates": [ 84.74039996, 27.80074945 ] } },
{ "type": "Feature", "properties": { "Financial Institution": "Nirdhan Utthan Laghubitta Bittiya Sanstha Limited", "Class": "D", "Branch / Location Details": "Kalika Branch", "Municipality / Region": "Kalika-2, Rasuwa", "Coordinates (Lat, Long)": "27.996828705566408, 85.20519682618617", "Latitude": 27.99682871, "Longitude": 85.20519683000001, "Verification": null, "Condition": "non flooded" }, "geometry": { "type": "Point", "coordinates": [ 85.20519683, 27.99682871 ] } },
{ "type": "Feature", "properties": { "Financial Institution": "BPW Laghubitta Bittiya Sanstha Ltd.", "Class": "D", "Branch / Location Details": "Betrawati Branch", "Municipality / Region": "Betrawati, Rasuwa", "Coordinates (Lat, Long)": "27.9780° N, 85.1830° E", "Latitude": 27.978, "Longitude": 85.183, "Verification": null, "Condition": "flooded" }, "geometry": { "type": "Point", "coordinates": [ 85.183, 27.978 ] } }
]
}
