{
"type": "FeatureCollection",
"name": "banks",
"crs": { "type": "name", "properties": { "name": "urn:ogc:def:crs:OGC:1.3:CRS84" } },
"features": [
{ "type": "Feature", "properties": { "Financial": "Nepal Investment Mega Bank (NIMB)", "Branch / L": "Timure Branch (Pasang Lhamu Highway)", "Municipali": "Gosaikunda-2, Rasuwa", "Coordinate": "28.2550° N, 85.3635° E", "Latitude": 28.255, "Longitude": 85.3635 }, "geometry": { "type": "Point", "coordinates": [ 85.3635, 28.255 ] } },
{ "type": "Feature", "properties": { "Financial": "Nepal Investment Mega Bank (NIMB)", "Branch / L": "Syabrubesi Branch (Syabrubesi Bazar)", "Municipali": "Gosaikunda-5, Rasuwa", "Coordinate": "28.1650° N, 85.3370° E", "Latitude": 28.165, "Longitude": 85.337 }, "geometry": { "type": "Point", "coordinates": [ 85.337, 28.165 ] } },
{ "type": "Feature", "properties": { "Financial": "Nepal Investment Mega Bank (NIMB)", "Branch / L": "Mailung Extension Counter", "Municipali": "Kalika RM-1, Rasuwa", "Coordinate": "28.0720° N, 85.2041° E", "Latitude": 28.072, "Longitude": 85.2041 }, "geometry": { "type": "Point", "coordinates": [ 85.2041, 28.072 ] } },
{ "type": "Feature", "properties": { "Financial": "Nepal Investment Mega Bank (NIMB)", "Branch / L": "Battar Branch (Battar Bazaar)", "Municipali": "Bidur-2, Nuwakot", "Coordinate": "27.9100° N, 85.1500° E", "Latitude": 27.91, "Longitude": 85.15 }, "geometry": { "type": "Point", "coordinates": [ 85.15, 27.91 ] } },
{ "type": "Feature", "properties": { "Financial": "Nepal Investment Mega Bank (NIMB)", "Branch / L": "Malekhu Branch (Jhagare)", "Municipali": "Benighat Rorang-7, Dhading", "Coordinate": "27.8170° N, 84.8260° E", "Latitude": 27.817, "Longitude": 84.826 }, "geometry": { "type": "Point", "coordinates": [ 84.826, 27.817 ] } },
{ "type": "Feature", "properties": { "Financial": "Sanima Bank Ltd.", "Branch / L": "Timure Branch (Pasang Lhamu Highway)", "Municipali": "Gosaikunda-2, Rasuwa", "Coordinate": "28.2541° N, 85.3634° E", "Latitude": 28.2541, "Longitude": 85.3634 }, "geometry": { "type": "Point", "coordinates": [ 85.3634, 28.2541 ] } },
{ "type": "Feature", "properties": { "Financial": "Sanima Bank Limited", "Branch / L": "Bidur-3 Branch (Battar)", "Municipali": "Bidur-3, Nuwakot", "Coordinate": "27.9040° N, 85.1480° E", "Latitude": 27.904, "Longitude": 85.148 }, "geometry": { "type": "Point", "coordinates": [ 85.148, 27.904 ] } },
{ "type": "Feature", "properties": { "Financial": "Sanima Bank Limited", "Branch / L": "Belkotgadhi Branch", "Municipali": "Belkotgadhi-9, Nuwakot", "Coordinate": "27.8750° N, 85.1050° E", "Latitude": 27.875, "Longitude": 85.105 }, "geometry": { "type": "Point", "coordinates": [ 85.105, 27.875 ] } },
{ "type": "Feature", "properties": { "Financial": "Sanima Bank Limited", "Branch / L": "Malekhu Branch", "Municipali": "Benighat Rorang-3, Dhading", "Coordinate": "27.8170° N, 84.8260° E", "Latitude": 27.817, "Longitude": 84.826 }, "geometry": { "type": "Point", "coordinates": [ 84.826, 27.817 ] } },
{ "type": "Feature", "properties": { "Financial": "NMB Bank Limited", "Branch / L": "Timure Branch (Pasang Lhamu Highway)", "Municipali": "Gosaikunda-2, Rasuwa", "Coordinate": "28.2535° N, 85.3665° E", "Latitude": 28.2535, "Longitude": 85.3665 }, "geometry": { "type": "Point", "coordinates": [ 85.3665, 28.2535 ] } },
{ "type": "Feature", "properties": { "Financial": "NMB Bank Limited", "Branch / L": "Dhunche Branch", "Municipali": "Dhunche-6, Rasuwa", "Coordinate": "28.1115° N, 85.2956° E", "Latitude": 28.1115, "Longitude": 85.2956 }, "geometry": { "type": "Point", "coordinates": [ 85.2956, 28.1115 ] } },
{ "type": "Feature", "properties": { "Financial": "NMB Bank Limited", "Branch / L": "Battar Branch", "Municipali": "Bidur Municipality, Nuwakot", "Coordinate": "27.9040° N, 85.1480° E", "Latitude": 27.904, "Longitude": 85.148 }, "geometry": { "type": "Point", "coordinates": [ 85.148, 27.904 ] } },
{ "type": "Feature", "properties": { "Financial": "NMB Bank Limited", "Branch / L": "Galchi Branch (Barate Chowk-7)", "Municipali": "Galchhi, Dhading", "Coordinate": "27.7958° N, 85.0004° E", "Latitude": 27.7958, "Longitude": 85.0004 }, "geometry": { "type": "Point", "coordinates": [ 85.0004, 27.7958 ] } },
{ "type": "Feature", "properties": { "Financial": "Kumari Bank Limited", "Branch / L": "Timure Branch", "Municipali": "Gosaikunda-2, Rasuwa", "Coordinate": "28.2537° N, 85.3664° E", "Latitude": 28.2537, "Longitude": 85.3664 }, "geometry": { "type": "Point", "coordinates": [ 85.3664, 28.2537 ] } },
{ "type": "Feature", "properties": { "Financial": "Kumari Bank Limited", "Branch / L": "Battar Branch", "Municipali": "Bidur Municipality, Nuwakot", "Coordinate": "27.9040° N, 85.1480° E", "Latitude": 27.904, "Longitude": 85.148 }, "geometry": { "type": "Point", "coordinates": [ 85.148, 27.904 ] } },
{ "type": "Feature", "properties": { "Financial": "Kumari Bank Limited (KBL)", "Branch / L": "Malekhu Branch (Baikunthapuri)", "Municipali": "Benighat Rorang, Dhading", "Coordinate": "27.8170° N, 84.8260° E", "Latitude": 27.817, "Longitude": 84.826 }, "geometry": { "type": "Point", "coordinates": [ 84.826, 27.817 ] } },
{ "type": "Feature", "properties": { "Financial": "Laxmi Sunrise Bank", "Branch / L": "Timure Branch", "Municipali": "Gosaikunda-2, Rasuwa", "Coordinate": "28.2537° N, 85.3664° E", "Latitude": 28.2537, "Longitude": 85.3664 }, "geometry": { "type": "Point", "coordinates": [ 85.3664, 28.2537 ] } },
{ "type": "Feature", "properties": { "Financial": "Machhapuchchhre Bank Limited", "Branch / L": "Timure Branch", "Municipali": "Gosaikunda-2, Rasuwa", "Coordinate": "28.2537° N, 85.3664° E", "Latitude": 28.2537, "Longitude": 85.3664 }, "geometry": { "type": "Point", "coordinates": [ 85.3664, 28.2537 ] } },
{ "type": "Feature", "properties": { "Financial": "Nabil Bank Limited", "Branch / L": "Timure Branch", "Municipali": "Gosaikunda-9, Rasuwa", "Coordinate": "28.2537° N, 85.3664° E", "Latitude": 28.2537, "Longitude": 85.3664 }, "geometry": { "type": "Point", "coordinates": [ 85.3664, 28.2537 ] } },
{ "type": "Feature", "properties": { "Financial": "Nabil Bank Limited", "Branch / L": "Battar Branch (Battar Bazaar)", "Municipali": "Bidur-2, Nuwakot", "Coordinate": "27.9100° N, 85.1500° E", "Latitude": 27.91, "Longitude": 85.15 }, "geometry": { "type": "Point", "coordinates": [ 85.15, 27.91 ] } },
{ "type": "Feature", "properties": { "Financial": "Nabil Bank Limited", "Branch / L": "Gajuri Branch", "Municipali": "Gajuri-1, Dhading", "Coordinate": "27.8050° N, 84.8850° E", "Latitude": 27.805, "Longitude": 84.885 }, "geometry": { "type": "Point", "coordinates": [ 84.885, 27.805 ] } },
{ "type": "Feature", "properties": { "Financial": "Global IME Bank Limited", "Branch / L": "Timure Branch", "Municipali": "Gosaikunda-2, Rasuwa", "Coordinate": "28.2537° N, 85.3664° E", "Latitude": 28.2537, "Longitude": 85.3664 }, "geometry": { "type": "Point", "coordinates": [ 85.3664, 28.2537 ] } },
{ "type": "Feature", "properties": { "Financial": "Global IME Bank Limited", "Branch / L": "Dhunche Branch", "Municipali": "Gosaikunda RM, Rasuwa", "Coordinate": "28.1115° N, 85.2956° E", "Latitude": 28.1115, "Longitude": 85.2956 }, "geometry": { "type": "Point", "coordinates": [ 85.2956, 28.1115 ] } },
{ "type": "Feature", "properties": { "Financial": "Global IME Bank Limited", "Branch / L": "Kalikasthan Branch", "Municipali": "Kalika-2, Rasuwa", "Coordinate": "28.0000° N, 85.2100° E", "Latitude": 28.0, "Longitude": 85.21 }, "geometry": { "type": "Point", "coordinates": [ 85.21, 28.0 ] } },
{ "type": "Feature", "properties": { "Financial": "Global IME Bank Limited", "Branch / L": "Baireni Branch", "Municipali": "Galchhi-9, Dhading", "Coordinate": "27.8120° N, 85.0050° E", "Latitude": 27.812, "Longitude": 85.005 }, "geometry": { "type": "Point", "coordinates": [ 85.005, 27.812 ] } },
{ "type": "Feature", "properties": { "Financial": "Prabhu Bank Limited", "Branch / L": "Timure Branch", "Municipali": "Gosaikunda-2, Rasuwa", "Coordinate": "28.2537° N, 85.3664° E", "Latitude": 28.2537, "Longitude": 85.3664 }, "geometry": { "type": "Point", "coordinates": [ 85.3664, 28.2537 ] } },
{ "type": "Feature", "properties": { "Financial": "Prabhu Bank Limited", "Branch / L": "Syabrubesi Branch", "Municipali": "Gosaikunda-5, Rasuwa", "Coordinate": "28.1650° N, 85.3370° E", "Latitude": 28.165, "Longitude": 85.337 }, "geometry": { "type": "Point", "coordinates": [ 85.337, 28.165 ] } },
{ "type": "Feature", "properties": { "Financial": "Prabhu Bank Limited", "Branch / L": "Battar Branch", "Municipali": "Bidur Municipality, Nuwakot", "Coordinate": "27.9040° N, 85.1480° E", "Latitude": 27.904, "Longitude": 85.148 }, "geometry": { "type": "Point", "coordinates": [ 85.148, 27.904 ] } },
{ "type": "Feature", "properties": { "Financial": "Prabhu Bank Limited", "Branch / L": "Belkotgadhi Branch", "Municipali": "Belkotgadhi-7, Nuwakot", "Coordinate": "27.8750° N, 85.1050° E", "Latitude": 27.875, "Longitude": 85.105 }, "geometry": { "type": "Point", "coordinates": [ 85.105, 27.875 ] } },
{ "type": "Feature", "properties": { "Financial": "Prabhu Bank Limited", "Branch / L": "Mahadevphat Branch", "Municipali": "Belkotgadhi-7, Nuwakot", "Coordinate": "27.8750° N, 85.1050° E", "Latitude": 27.875, "Longitude": 85.105 }, "geometry": { "type": "Point", "coordinates": [ 85.105, 27.875 ] } },
{ "type": "Feature", "properties": { "Financial": "Prabhu Bank Limited", "Branch / L": "Benighat Rorang Branch", "Municipali": "Benighat Rorang-8, Dhading", "Coordinate": "27.8150° N, 84.8000° E", "Latitude": 27.815, "Longitude": 84.8 }, "geometry": { "type": "Point", "coordinates": [ 84.8, 27.815 ] } },
{ "type": "Feature", "properties": { "Financial": "NIC ASIA Bank Limited", "Branch / L": "Syabrubesi Branch", "Municipali": "Gosaikunda-5, Rasuwa", "Coordinate": "28.1650° N, 85.3370° E", "Latitude": 28.165, "Longitude": 85.337 }, "geometry": { "type": "Point", "coordinates": [ 85.337, 28.165 ] } },
{ "type": "Feature", "properties": { "Financial": "NIC ASIA Bank Limited", "Branch / L": "Betrawati Branch", "Municipali": "Bidur-10, Nuwakot", "Coordinate": "27.9780° N, 85.1830° E", "Latitude": 27.978, "Longitude": 85.183 }, "geometry": { "type": "Point", "coordinates": [ 85.183, 27.978 ] } },
{ "type": "Feature", "properties": { "Financial": "NIC ASIA Bank Limited", "Branch / L": "Galchhi Branch", "Municipali": "Galchhi-7, Dhading", "Coordinate": "27.7960° N, 85.0000° E", "Latitude": 27.796, "Longitude": 85.0 }, "geometry": { "type": "Point", "coordinates": [ 85.0, 27.796 ] } },
{ "type": "Feature", "properties": { "Financial": "Global IME Laghubitta Bittiya Sanstha Ltd", "Branch / L": "Syabrubesi Branch", "Municipali": "Gosaikunda RM, Rasuwa", "Coordinate": "28.1650° N, 85.3370° E", "Latitude": 28.165, "Longitude": 85.337 }, "geometry": { "type": "Point", "coordinates": [ 85.337, 28.165 ] } },
{ "type": "Feature", "properties": { "Financial": "Nepal Bank Limited (NBL)", "Branch / L": "Dhunche Branch", "Municipali": "Gosaikunda RM, Rasuwa", "Coordinate": "28.1115° N, 85.2956° E", "Latitude": 28.1115, "Longitude": 85.2956 }, "geometry": { "type": "Point", "coordinates": [ 85.2956, 28.1115 ] } },
{ "type": "Feature", "properties": { "Financial": "Swabalamban Laghubitta Bittiya Sanstha", "Branch / L": "Dhunche Branch", "Municipali": "Dhunche, Rasuwa", "Coordinate": "28.1115° N, 85.2956° E", "Latitude": 28.1115, "Longitude": 85.2956 }, "geometry": { "type": "Point", "coordinates": [ 85.2956, 28.1115 ] } },
{ "type": "Feature", "properties": { "Financial": "Prime Commercial Bank Limited", "Branch / L": "Kalika Branch", "Municipali": "Kalikasthan, Rasuwa", "Coordinate": "28.0000° N, 85.2100° E", "Latitude": 28.0, "Longitude": 85.21 }, "geometry": { "type": "Point", "coordinates": [ 85.21, 28.0 ] } },
{ "type": "Feature", "properties": { "Financial": "Prime Commercial Bank", "Branch / L": "Battar Branch", "Municipali": "Bidur Municipality, Nuwakot", "Coordinate": "27.9040° N, 85.1480° E", "Latitude": 27.904, "Longitude": 85.148 }, "geometry": { "type": "Point", "coordinates": [ 85.148, 27.904 ] } },
{ "type": "Feature", "properties": { "Financial": "Lumbini Bikas Bank Ltd.", "Branch / L": "Kalikasthan Branch", "Municipali": "Kalika RM, Rasuwa", "Coordinate": "28.0000° N, 85.2100° E", "Latitude": 28.0, "Longitude": 85.21 }, "geometry": { "type": "Point", "coordinates": [ 85.21, 28.0 ] } },
{ "type": "Feature", "properties": { "Financial": "Lumbini Bikas Bank Ltd.", "Branch / L": "Devighat Branch", "Municipali": "Bidur-5, Devighat, Nuwakot", "Coordinate": "27.8720° N, 85.1180° E", "Latitude": 27.872, "Longitude": 85.118 }, "geometry": { "type": "Point", "coordinates": [ 85.118, 27.872 ] } },
{ "type": "Feature", "properties": { "Financial": "Rastriya Banijya Bank Limited (RBBL)", "Branch / L": "Kalikasthan Branch", "Municipali": "Kalika RM, Rasuwa", "Coordinate": "28.0000° N, 85.2100° E", "Latitude": 28.0, "Longitude": 85.21 }, "geometry": { "type": "Point", "coordinates": [ 85.21, 28.0 ] } },
{ "type": "Feature", "properties": { "Financial": "Rastriya Banijya Bank Limited", "Branch / L": "Gajuri Branch", "Municipali": "Gajuri, Dhading", "Coordinate": "27.8050° N, 84.8850° E", "Latitude": 27.805, "Longitude": 84.885 }, "geometry": { "type": "Point", "coordinates": [ 84.885, 27.805 ] } },
{ "type": "Feature", "properties": { "Financial": "Rastriya Banijya Bank Limited", "Branch / L": "Malekhu Branch", "Municipali": "Benighat Rorang-3, Dhading", "Coordinate": "27.8170° N, 84.8260° E", "Latitude": 27.817, "Longitude": 84.826 }, "geometry": { "type": "Point", "coordinates": [ 84.826, 27.817 ] } },
{ "type": "Feature", "properties": { "Financial": "Chhimek Bank (Microfinance)", "Branch / L": "Dhaibung / Betrawati Branch", "Municipali": "Bidur, Nuwakot", "Coordinate": "27.9780° N, 85.1830° E", "Latitude": 27.978, "Longitude": 85.183 }, "geometry": { "type": "Point", "coordinates": [ 85.183, 27.978 ] } },
{ "type": "Feature", "properties": { "Financial": "Himalayan Bank Limited", "Branch / L": "Betrawati Branch", "Municipali": "Betrawati, Rasuwa", "Coordinate": "27.9780° N, 85.1830° E", "Latitude": 27.978, "Longitude": 85.183 }, "geometry": { "type": "Point", "coordinates": [ 85.183, 27.978 ] } },
{ "type": "Feature", "properties": { "Financial": "Himalayan Bank Limited (HBL)", "Branch / L": "Tarkeshwor Branch", "Municipali": "Dangsing-1, Tarkeshwor RM, Nuwakot", "Coordinate": "27.8500° N, 85.0150° E", "Latitude": 27.85, "Longitude": 85.015 }, "geometry": { "type": "Point", "coordinates": [ 85.015, 27.85 ] } },
{ "type": "Feature", "properties": { "Financial": "BPW Laghubitta Bittiya Sanstha Ltd.", "Branch / L": "Betrawati Branch", "Municipali": "Betrawati, Rasuwa", "Coordinate": "27.9780° N, 85.1830° E", "Latitude": 27.978, "Longitude": 85.183 }, "geometry": { "type": "Point", "coordinates": [ 85.183, 27.978 ] } },
{ "type": "Feature", "properties": { "Financial": "Nepal Rastra Bank", "Branch / L": "Bidur Branch", "Municipali": "Bidur, Nuwakot", "Coordinate": "27.9092° N, 85.1578° E", "Latitude": 27.9092, "Longitude": 85.1578 }, "geometry": { "type": "Point", "coordinates": [ 85.1578, 27.9092 ] } },
{ "type": "Feature", "properties": { "Financial": "Deprosc Laghubitta Bittiya Sanstha Ltd.", "Branch / L": "Bidur Branch", "Municipali": "Bidur, Nuwakot", "Coordinate": "27.9115° N, 85.1583° E", "Latitude": 27.9115, "Longitude": 85.1583 }, "geometry": { "type": "Point", "coordinates": [ 85.1583, 27.9115 ] } },
{ "type": "Feature", "properties": { "Financial": "Deprosc Laghubitta Bittiya Sanstha Ltd.", "Branch / L": "Belkotgadhi Area Branch", "Municipali": "Belkotgadhi, Nuwakot", "Coordinate": "27.8750° N, 85.1050° E", "Latitude": 27.875, "Longitude": 85.105 }, "geometry": { "type": "Point", "coordinates": [ 85.105, 27.875 ] } },
{ "type": "Feature", "properties": { "Financial": "NADEP Laghubitta Bittiya Sanstha", "Branch / L": "Battar Branch", "Municipali": "Battar Bazaar, Nuwakot", "Coordinate": "27.9036° N, 85.1480° E", "Latitude": 27.9036, "Longitude": 85.148 }, "geometry": { "type": "Point", "coordinates": [ 85.148, 27.9036 ] } },
{ "type": "Feature", "properties": { "Financial": "Nepal SBI Bank Limited", "Branch / L": "Battar Branch", "Municipali": "Bidur-3, Nuwakot", "Coordinate": "27.9040° N, 85.1480° E", "Latitude": 27.904, "Longitude": 85.148 }, "geometry": { "type": "Point", "coordinates": [ 85.148, 27.904 ] } },
{ "type": "Feature", "properties": { "Financial": "Citizens Bank International Limited", "Branch / L": "Devighat Branch", "Municipali": "Bidur-5, Devighat, Nuwakot", "Coordinate": "27.8720° N, 85.1180° E", "Latitude": 27.872, "Longitude": 85.118 }, "geometry": { "type": "Point", "coordinates": [ 85.118, 27.872 ] } },
{ "type": "Feature", "properties": { "Financial": "Citizens Bank International Limited", "Branch / L": "Gajuri Branch", "Municipali": "Gajuri-1, Dhading", "Coordinate": "27.8050° N, 84.8850° E", "Latitude": 27.805, "Longitude": 84.885 }, "geometry": { "type": "Point", "coordinates": [ 84.885, 27.805 ] } },
{ "type": "Feature", "properties": { "Financial": "Asha Laghubitta Bittiya Sanstha Ltd.", "Branch / L": "Devighat Branch", "Municipali": "Bidur-7, Devighat, Nuwakot", "Coordinate": "27.8599° N, 85.1106° E", "Latitude": 27.8599, "Longitude": 85.1106 }, "geometry": { "type": "Point", "coordinates": [ 85.1106, 27.8599 ] } },
{ "type": "Feature", "properties": { "Financial": "Asha Laghubitta Bittiya Sanstha Ltd.", "Branch / L": "Galchhi Branch", "Municipali": "Baireni-8, Galchhi, Dhading", "Coordinate": "27.8120° N, 85.0050° E", "Latitude": 27.812, "Longitude": 85.005 }, "geometry": { "type": "Point", "coordinates": [ 85.005, 27.812 ] } },
{ "type": "Feature", "properties": { "Financial": "Jyoti Bikash Bank Limited", "Branch / L": "Ratmate Branch", "Municipali": "Belkotgadhi-7, Nuwakot", "Coordinate": "27.8750° N, 85.1050° E", "Latitude": 27.875, "Longitude": 85.105 }, "geometry": { "type": "Point", "coordinates": [ 85.105, 27.875 ] } },
{ "type": "Feature", "properties": { "Financial": "Jyoti Bikash Bank Limited", "Branch / L": "Galchhi Branch", "Municipali": "Galchhi-7, Dhading", "Coordinate": "27.7960° N, 85.0000° E", "Latitude": 27.796, "Longitude": 85.0 }, "geometry": { "type": "Point", "coordinates": [ 85.0, 27.796 ] } },
{ "type": "Feature", "properties": { "Financial": "Jyoti Capital Limited", "Branch / L": "Ratmate Branch", "Municipali": "Belkotgadhi-7, Nuwakot", "Coordinate": "27.8750° N, 85.1050° E", "Latitude": 27.875, "Longitude": 85.105 }, "geometry": { "type": "Point", "coordinates": [ 85.105, 27.875 ] } },
{ "type": "Feature", "properties": { "Financial": "Garima Bikas Bank Limited", "Branch / L": "Battar Branch", "Municipali": "Bidur-2, Nuwakot", "Coordinate": "27.9040° N, 85.1480° E", "Latitude": 27.904, "Longitude": 85.148 }, "geometry": { "type": "Point", "coordinates": [ 85.148, 27.904 ] } },
{ "type": "Feature", "properties": { "Financial": "Nepal Insurance Company Limited", "Branch / L": "Baireni Branch", "Municipali": "Galchhi-9, Dhading", "Coordinate": "27.8120° N, 85.0050° E", "Latitude": 27.812, "Longitude": 85.005 }, "geometry": { "type": "Point", "coordinates": [ 85.005, 27.812 ] } },
{ "type": "Feature", "properties": { "Financial": "NMB Laghubitta Bittiya Sanstha Ltd.", "Branch / L": "Kumpur Branch", "Municipali": "Kumpur, Dhading", "Coordinate": "27.8000° N, 84.9100° E", "Latitude": 27.8, "Longitude": 84.91 }, "geometry": { "type": "Point", "coordinates": [ 84.91, 27.8 ] } },
{ "type": "Feature", "properties": { "Financial": "Sana Kisan Co-operative", "Branch / L": "Kalleri Local Branch", "Municipali": "Kalleri / Kyorenitar, Dhading", "Coordinate": "27.8100° N, 84.9200° E", "Latitude": 27.81, "Longitude": 84.92 }, "geometry": { "type": "Point", "coordinates": [ 84.92, 27.81 ] } },
{ "type": "Feature", "properties": { "Financial": "Muktinath Bikas Bank Ltd.", "Branch / L": "Aadamghat Branch", "Municipali": "Gajuri-6, Adamghat, Dhading", "Coordinate": "27.8150° N, 84.9560° E", "Latitude": 27.815, "Longitude": 84.956 }, "geometry": { "type": "Point", "coordinates": [ 84.956, 27.815 ] } },
{ "type": "Feature", "properties": { "Financial": "Shangri-la Development Bank", "Branch / L": "Malekhu Branch", "Municipali": "Benighat Rorang-3, Dhading", "Coordinate": "27.8170° N, 84.8260° E", "Latitude": 27.817, "Longitude": 84.826 }, "geometry": { "type": "Point", "coordinates": [ 84.826, 27.817 ] } },
{ "type": "Feature", "properties": { "Financial": "Swarojgar Laghubitta Bittya Sanstha Limited", "Branch / L": "Malekhu Branch", "Municipali": "Benighat Rorang, Dhading", "Coordinate": "27.8170° N, 84.8260° E", "Latitude": 27.817, "Longitude": 84.826 }, "geometry": { "type": "Point", "coordinates": [ 84.826, 27.817 ] } },
{ "type": "Feature", "properties": { "Financial": "Womi Laghubitta Bittiya Sanstha Limited", "Branch / L": "Benighat Branch", "Municipali": "Benighat Rorang-5, Dhading", "Coordinate": "27.8150° N, 84.8000° E", "Latitude": 27.815, "Longitude": 84.8 }, "geometry": { "type": "Point", "coordinates": [ 84.8, 27.815 ] } },
{ "type": "Feature", "properties": { "Financial": "Sampada Laghubitta Bittiya Sanstha Limited", "Branch / L": "Charaudi Branch", "Municipali": "Benighat Rorang-7, Dhading", "Coordinate": "27.8160° N, 84.7800° E", "Latitude": 27.816, "Longitude": 84.78 }, "geometry": { "type": "Point", "coordinates": [ 84.78, 27.816 ] } },
{ "type": "Feature", "properties": { "Financial": "National Laghubitta Bittiya Sanstha Ltd.", "Branch / L": "Majhimtaar Branch", "Municipali": "Majhimtar, Dhading", "Coordinate": "27.8160° N, 84.7500° E", "Latitude": 27.816, "Longitude": 84.75 }, "geometry": { "type": "Point", "coordinates": [ 84.75, 27.816 ] } }
]
}
