{
"type": "FeatureCollection",
"name": "bridge_fhsmo_apn",
"crs": { "type": "name", "properties": { "name": "urn:ogc:def:crs:OGC:1.3:CRS84" } },
"features": [
{ "type": "Feature", "properties": { "S. No.": 1, "Bridge Name (Upstream to Downstream)": "Miteri Bridge, Rasuwagadhi", "Bridge Type": "Permanent", "District": "Rasuwa", "Location": "Rasuwagadhi", "Jurisdiction": "DOR", "NH/Local": "NH42", "Northing (DMS)": "28°16'44.20\"N", "Easting (DMS)": "85°22'41.15\"E", "Length,M": null, "Status": "Washed out", "Remarks": null, "Latitude (Decimal)": 28.278944444444445, "Longitude (Decimal)": 85.378097222222209 }, "geometry": { "type": "Point", "coordinates": [ 85.378097222222209, 28.278944444444445 ] } },
{ "type": "Feature", "properties": { "S. No.": 2, "Bridge Name (Upstream to Downstream)": "Timure Bridge 1", "Bridge Type": "Bailey", "District": "Rasuwa", "Location": "Timure", "Jurisdiction": "Others", "NH/Local": null, "Northing (DMS)": "28°16'16.59\"N", "Easting (DMS)": "85°22'39.71\"E", "Length,M": null, "Status": "Washed out", "Remarks": null, "Latitude (Decimal)": 28.271275, "Longitude (Decimal)": 85.37769722222221 }, "geometry": { "type": "Point", "coordinates": [ 85.37769722222221, 28.271275 ] } },
{ "type": "Feature", "properties": { "S. No.": 3, "Bridge Name (Upstream to Downstream)": "Timure Bridge 2", "Bridge Type": "Bailey", "District": "Rasuwa", "Location": "Timure", "Jurisdiction": "Others", "NH/Local": null, "Northing (DMS)": "28°14'23.92\"N", "Easting (DMS)": "85°21'29.80\"E", "Length,M": null, "Status": "Washed out", "Remarks": null, "Latitude (Decimal)": 28.239977777777774, "Longitude (Decimal)": 85.358277777777772 }, "geometry": { "type": "Point", "coordinates": [ 85.358277777777772, 28.239977777777774 ] } },
{ "type": "Feature", "properties": { "S. No.": 4, "Bridge Name (Upstream to Downstream)": "Ghatte Khola", "Bridge Type": "Permanent", "District": "Rasuwa", "Location": null, "Jurisdiction": "DOR", "NH/Local": "NH 42", "Northing (DMS)": "28°15'57.69\"N", "Easting (DMS)": "85°22'33.87\"E", "Length,M": 40.0, "Status": "Washed Out", "Remarks": null, "Latitude (Decimal)": 28.266025, "Longitude (Decimal)": 85.376075 }, "geometry": { "type": "Point", "coordinates": [ 85.376075, 28.266025 ] } },
{ "type": "Feature", "properties": { "S. No.": 5, "Bridge Name (Upstream to Downstream)": "Fenlung", "Bridge Type": "Permanent", "District": "Rasuwa", "Location": null, "Jurisdiction": "DOR", "NH/Local": "NH 42", "Northing (DMS)": "28°13'36.20\"N", "Easting (DMS)": "85°21'42.47\"E", "Length,M": 30.0, "Status": "Washed Out", "Remarks": null, "Latitude (Decimal)": 28.226722222222222, "Longitude (Decimal)": 85.361797222222222 }, "geometry": { "type": "Point", "coordinates": [ 85.361797222222222, 28.226722222222222 ] } },
{ "type": "Feature", "properties": { "S. No.": 6, "Bridge Name (Upstream to Downstream)": "Kulung", "Bridge Type": "Permanent", "District": "Rasuwa", "Location": null, "Jurisdiction": "DOR", "NH/Local": "NH 42", "Northing (DMS)": "28°12'1.44\"N", "Easting (DMS)": "85°21'11.12\"E", "Length,M": 20.0, "Status": "Washed Out", "Remarks": null, "Latitude (Decimal)": 28.2004, "Longitude (Decimal)": 85.353088888888877 }, "geometry": { "type": "Point", "coordinates": [ 85.353088888888877, 28.2004 ] } },
{ "type": "Feature", "properties": { "S. No.": 7, "Bridge Name (Upstream to Downstream)": "Bhotekoshi Bridge at Chilime", "Bridge Type": "Permanent", "District": "Rasuwa", "Location": "Chilime", "Jurisdiction": "DOR", "NH/Local": "NH42", "Northing (DMS)": "28°10'58.09\"N", "Easting (DMS)": "85°20'35.81\"E", "Length,M": null, "Status": "Washed out", "Remarks": null, "Latitude (Decimal)": 28.182802777777781, "Longitude (Decimal)": 85.343280555555552 }, "geometry": { "type": "Point", "coordinates": [ 85.343280555555552, 28.182802777777781 ] } },
{ "type": "Feature", "properties": { "S. No.": 8, "Bridge Name (Upstream to Downstream)": "Chilime Bridge, (Runga Khola)", "Bridge Type": "Permanent", "District": "Rasuwa", "Location": "Chilime", "Jurisdiction": "DOR", "NH/Local": "NH42", "Northing (DMS)": "28°10'53.95\"N", "Easting (DMS)": "85°20'31.99\"E", "Length,M": 100.0, "Status": "Washed out", "Remarks": null, "Latitude (Decimal)": 28.181652777777774, "Longitude (Decimal)": 85.342219444444439 }, "geometry": { "type": "Point", "coordinates": [ 85.342219444444439, 28.181652777777774 ] } },
{ "type": "Feature", "properties": { "S. No.": 9, "Bridge Name (Upstream to Downstream)": "Hydropower Bailey Bridge at Bhotekoshi, Syaphrubeshi", "Bridge Type": "Bailey", "District": "Rasuwa", "Location": "Syafrubesi", "Jurisdiction": "Others", "NH/Local": null, "Northing (DMS)": "28° 9'51.79\"N", "Easting (DMS)": "85°20'23.74\"E", "Length,M": null, "Status": "Washed out", "Remarks": null, "Latitude (Decimal)": 28.16438611111111, "Longitude (Decimal)": 85.339927777777774 }, "geometry": { "type": "Point", "coordinates": [ 85.339927777777774, 28.16438611111111 ] } },
{ "type": "Feature", "properties": { "S. No.": 10, "Bridge Name (Upstream to Downstream)": "Syafrubesi Bridge", "Bridge Type": "Permanent", "District": "Rasuwa", "Location": "Syafrubesi", "Jurisdiction": "DOR", "NH/Local": "NH42", "Northing (DMS)": "28° 9'26.92\"N", "Easting (DMS)": "85°19'56.97\"E", "Length,M": 86.0, "Status": "Washed Out", "Remarks": null, "Latitude (Decimal)": 28.157477777777771, "Longitude (Decimal)": 85.33249166666667 }, "geometry": { "type": "Point", "coordinates": [ 85.33249166666667, 28.157477777777771 ] } },
{ "type": "Feature", "properties": { "S. No.": 11, "Bridge Name (Upstream to Downstream)": "Sano bharkhu", "Bridge Type": "RCC", "District": "Rasuwa", "Location": "63+200", "Jurisdiction": "DOR", "NH/Local": "NH 42", "Northing (DMS)": "28° 8'44.03\"N", "Easting (DMS)": "85°19'7.37\"E", "Length,M": 20.0, "Status": "जोगिएको", "Remarks": "Seen from heli", "Latitude (Decimal)": 28.145563888888887, "Longitude (Decimal)": 85.31871388888888 }, "geometry": { "type": "Point", "coordinates": [ 85.31871388888888, 28.145563888888887 ] } },
{ "type": "Feature", "properties": { "S. No.": 13, "Bridge Name (Upstream to Downstream)": "Trisuli Khola Bridge", "Bridge Type": "Prestress", "District": "Rasuwa", "Location": "60+020", "Jurisdiction": "DOR", "NH/Local": "NH 42", "Northing (DMS)": "28° 7'38.15\"N", "Easting (DMS)": "85°17'58.10\"E", "Length,M": 20.0, "Status": "जोगिएको", "Remarks": "Seen from heli", "Latitude (Decimal)": 28.127263888888891, "Longitude (Decimal)": 85.299472222222221 }, "geometry": { "type": "Point", "coordinates": [ 85.299472222222221, 28.127263888888891 ] } },
{ "type": "Feature", "properties": { "S. No.": 14, "Bridge Name (Upstream to Downstream)": "Trisuli 216 Audit 1 Bailey Bridge", "Bridge Type": "Bailey", "District": "Rasuwa", "Location": "Audit 1, Trisuli 216", "Jurisdiction": "Others", "NH/Local": null, "Northing (DMS)": "28° 7'13.02\"N", "Easting (DMS)": "85°17'18.32\"E", "Length,M": null, "Status": "Washed Out", "Remarks": null, "Latitude (Decimal)": 28.120283333333333, "Longitude (Decimal)": 85.288422222222223 }, "geometry": { "type": "Point", "coordinates": [ 85.288422222222223, 28.120283333333333 ] } },
{ "type": "Feature", "properties": { "S. No.": 15, "Bridge Name (Upstream to Downstream)": "Haku1 Bailey Bridge at Hydropower, Trishuli", "Bridge Type": "Bailey", "District": "Rasuwa", "Location": null, "Jurisdiction": "Others", "NH/Local": null, "Northing (DMS)": "28° 6'46.63\"N", "Easting (DMS)": "85°16'51.71\"E", "Length,M": null, "Status": "Washed Out", "Remarks": null, "Latitude (Decimal)": 28.112952777777775, "Longitude (Decimal)": 85.28103055555556 }, "geometry": { "type": "Point", "coordinates": [ 85.28103055555556, 28.112952777777775 ] } },
{ "type": "Feature", "properties": { "S. No.": 16, "Bridge Name (Upstream to Downstream)": "Haku khola", "Bridge Type": "Prestress", "District": "Rasuwa", "Location": "57+000", "Jurisdiction": "DOR", "NH/Local": "NH 42", "Northing (DMS)": "28° 6'36.56\"N", "Easting (DMS)": "85°16'44.27\"E", "Length,M": 35.0, "Status": "Washed Out", "Remarks": null, "Latitude (Decimal)": 28.110155555555561, "Longitude (Decimal)": 85.278963888888882 }, "geometry": { "type": "Point", "coordinates": [ 85.278963888888882, 28.110155555555561 ] } },
{ "type": "Feature", "properties": { "S. No.": 17, "Bridge Name (Upstream to Downstream)": "Bimali Khola", "Bridge Type": "Prestress", "District": "Rasuwa", "Location": "56+800", "Jurisdiction": "DOR", "NH/Local": "NH 42", "Northing (DMS)": "28° 6'30.75\"N", "Easting (DMS)": "85°16'37.73\"E", "Length,M": 40.0, "Status": "Washed Out", "Remarks": null, "Latitude (Decimal)": 28.108541666666667, "Longitude (Decimal)": 85.277147222222226 }, "geometry": { "type": "Point", "coordinates": [ 85.277147222222226, 28.108541666666667 ] } },
{ "type": "Feature", "properties": { "S. No.": 18, "Bridge Name (Upstream to Downstream)": "Haku2 Bailey Bridge at Hydropower, Trishuli", "Bridge Type": "Bailey", "District": "Rasuwa", "Location": null, "Jurisdiction": "Others", "NH/Local": null, "Northing (DMS)": "28° 6'30.12\"N", "Easting (DMS)": "85°16'30.50\"E", "Length,M": null, "Status": "Washed Out", "Remarks": null, "Latitude (Decimal)": 28.108366666666669, "Longitude (Decimal)": 85.27513888888889 }, "geometry": { "type": "Point", "coordinates": [ 85.27513888888889, 28.108366666666669 ] } },
{ "type": "Feature", "properties": { "S. No.": 19, "Bridge Name (Upstream to Downstream)": "Thade Khola", "Bridge Type": "Prestress", "District": "Rasuwa", "Location": "52+320", "Jurisdiction": "DOR", "NH/Local": "NH 42", "Northing (DMS)": "28° 5'29.60\"N", "Easting (DMS)": "85°15'6.97\"E", "Length,M": 35.0, "Status": "जोगिएको", "Remarks": "Seen from heli", "Latitude (Decimal)": 28.091555555555555, "Longitude (Decimal)": 85.251936111111107 }, "geometry": { "type": "Point", "coordinates": [ 85.251936111111107, 28.091555555555555 ] } },
{ "type": "Feature", "properties": { "S. No.": 20, "Bridge Name (Upstream to Downstream)": "Thado Khola (Crossing 0+750", "Bridge Type": "Prestress", "District": "Rasuwa", "Location": "50+300", "Jurisdiction": "DOR", "NH/Local": "NH 42", "Northing (DMS)": "28°04'58\"N", "Easting (DMS)": "85°13'32\"E", "Length,M": 10.0, "Status": "जोगिएको", "Remarks": null, "Latitude (Decimal)": 28.082777777777778, "Longitude (Decimal)": 85.225555555555559 }, "geometry": { "type": "Point", "coordinates": [ 85.225555555555559, 28.082777777777778 ] } },
{ "type": "Feature", "properties": { "S. No.": 21, "Bridge Name (Upstream to Downstream)": "Crossing 0+700", "Bridge Type": "Prestress", "District": "Rasuwa", "Location": "50+260", "Jurisdiction": "DOR", "NH/Local": "NH 42", "Northing (DMS)": "28° 4'54.83\"N", "Easting (DMS)": "85°13'21.34\"E", "Length,M": 10.0, "Status": "Washed Out", "Remarks": null, "Latitude (Decimal)": 28.081897222222221, "Longitude (Decimal)": 85.222594444444439 }, "geometry": { "type": "Point", "coordinates": [ 85.222594444444439, 28.081897222222221 ] } },
{ "type": "Feature", "properties": { "S. No.": 22, "Bridge Name (Upstream to Downstream)": "Upper Trishuli Hydrower Bailey Bridge", "Bridge Type": "Bailey", "District": "Rasuwa", "Location": null, "Jurisdiction": "Others", "NH/Local": null, "Northing (DMS)": "28° 4'33.52\"N", "Easting (DMS)": "85°12'46.24\"E", "Length,M": null, "Status": "Washed Out", "Remarks": null, "Latitude (Decimal)": 28.075977777777776, "Longitude (Decimal)": 85.212844444444443 }, "geometry": { "type": "Point", "coordinates": [ 85.212844444444443, 28.075977777777776 ] } },
{ "type": "Feature", "properties": { "S. No.": 23, "Bridge Name (Upstream to Downstream)": "Mailung Bailey Bridge at Mailung Bazaar", "Bridge Type": "Bailey", "District": "Rasuwa", "Location": null, "Jurisdiction": "Others", "NH/Local": null, "Northing (DMS)": "28° 4'18.82\"N", "Easting (DMS)": "85°12'27.12\"E", "Length,M": null, "Status": "Washed Out", "Remarks": null, "Latitude (Decimal)": 28.071894444444439, "Longitude (Decimal)": 85.20753333333333 }, "geometry": { "type": "Point", "coordinates": [ 85.20753333333333, 28.071894444444439 ] } },
{ "type": "Feature", "properties": { "S. No.": 24, "Bridge Name (Upstream to Downstream)": "Trishuli Bridge Mailung Chipleti <br>", "Bridge Type": "Steel Arch", "District": "Rasuwa", "Location": "47+200", "Jurisdiction": "DOR", "NH/Local": "NH 42", "Northing (DMS)": "28°03'55\"N", "Easting (DMS)": "85°12'21\"E", "Length,M": 60.0, "Status": "Washed Out", "Remarks": null, "Latitude (Decimal)": 28.06527777777778, "Longitude (Decimal)": 85.205833333333331 }, "geometry": { "type": "Point", "coordinates": [ 85.205833333333331, 28.06527777777778 ] } },
{ "type": "Feature", "properties": { "S. No.": 25, "Bridge Name (Upstream to Downstream)": "Trishuli 3A Dam-3", "Bridge Type": "RCC", "District": "Rasuwa", "Location": "47+040", "Jurisdiction": "DOR", "NH/Local": "NH 42", "Northing (DMS)": "28° 3'45.28\"N", "Easting (DMS)": "85°12'22.77\"E", "Length,M": 15.0, "Status": "Washed Out", "Remarks": null, "Latitude (Decimal)": 28.062577777777779, "Longitude (Decimal)": 85.206325 }, "geometry": { "type": "Point", "coordinates": [ 85.206325, 28.062577777777779 ] } },
{ "type": "Feature", "properties": { "S. No.": 26, "Bridge Name (Upstream to Downstream)": "Trishuli 3A Dam-2", "Bridge Type": "Prestress", "District": "Rasuwa", "Location": "46+990", "Jurisdiction": "DOR", "NH/Local": "NH 42", "Northing (DMS)": "28° 3'43.39\"N", "Easting (DMS)": "85°12'24.07\"E", "Length,M": 30.0, "Status": "Washed Out", "Remarks": null, "Latitude (Decimal)": 28.06205277777778, "Longitude (Decimal)": 85.206686111111111 }, "geometry": { "type": "Point", "coordinates": [ 85.206686111111111, 28.06205277777778 ] } },
{ "type": "Feature", "properties": { "S. No.": 27, "Bridge Name (Upstream to Downstream)": "Bahubali Jharana Pul", "Bridge Type": "RCC", "District": "Rasuwa", "Location": "43+850", "Jurisdiction": "DOR", "NH/Local": "NH 42", "Northing (DMS)": "28°02'17\"N", "Easting (DMS)": "85°11'34\"E", "Length,M": 25.0, "Status": "Washed Out", "Remarks": null, "Latitude (Decimal)": 28.038055555555559, "Longitude (Decimal)": 85.192777777777778 }, "geometry": { "type": "Point", "coordinates": [ 85.192777777777778, 28.038055555555559 ] } },
{ "type": "Feature", "properties": { "S. No.": 28, "Bridge Name (Upstream to Downstream)": "Sukaure Khola", "Bridge Type": "RCC", "District": "Nuwakot", "Location": "40+210", "Jurisdiction": "DOR", "NH/Local": "NH 42", "Northing (DMS)": "28° 0'51.62\"N", "Easting (DMS)": "85°10'47.20\"E", "Length,M": 20.0, "Status": "जोगिएको", "Remarks": null, "Latitude (Decimal)": 28.01433888888889, "Longitude (Decimal)": 85.179777777777787 }, "geometry": { "type": "Point", "coordinates": [ 85.179777777777787, 28.01433888888889 ] } },
{ "type": "Feature", "properties": { "S. No.": 29, "Bridge Name (Upstream to Downstream)": "Naya Pul Trishuli, Khalte CH 37+810", "Bridge Type": "Steel Arch", "District": "Nuwakot-Rasuwa", "Location": "Khalte CH 37+810", "Jurisdiction": "DOR", "NH/Local": "NH 42", "Northing (DMS)": "27°59'43.23\"N", "Easting (DMS)": "85°11'5.60\"E", "Length,M": 50.0, "Status": "Washed Out", "Remarks": null, "Latitude (Decimal)": 27.995341666666668, "Longitude (Decimal)": 85.184888888888892 }, "geometry": { "type": "Point", "coordinates": [ 85.184888888888892, 27.995341666666668 ] } },
{ "type": "Feature", "properties": { "S. No.": 30, "Bridge Name (Upstream to Downstream)": "Betrawati Old Bridge", "Bridge Type": "Permanent", "District": "Nuwakot-Rasuwa", "Location": "Betrawati", "Jurisdiction": "DOR", "NH/Local": "NH 42", "Northing (DMS)": "27°58'27.62\"N", "Easting (DMS)": "85°11'8.92\"E", "Length,M": 70.0, "Status": "Washed Out", "Remarks": null, "Latitude (Decimal)": 27.974338888888887, "Longitude (Decimal)": 85.185811111111121 }, "geometry": { "type": "Point", "coordinates": [ 85.185811111111121, 27.974338888888887 ] } },
{ "type": "Feature", "properties": { "S. No.": 31, "Bridge Name (Upstream to Downstream)": "Betrawati New Bridge", "Bridge Type": "Permanent", "District": "Nuwakot-Rasuwa", "Location": "Betrawati (35+180)<br>", "Jurisdiction": "DOR", "NH/Local": "NH 42", "Northing (DMS)": "27°58'27.62\"N", "Easting (DMS)": "85°11'8.92\"E", "Length,M": 70.0, "Status": "Washed Out", "Remarks": null, "Latitude (Decimal)": 27.974338888888887, "Longitude (Decimal)": 85.185811111111121 }, "geometry": { "type": "Point", "coordinates": [ 85.185811111111121, 27.974338888888887 ] } },
{ "type": "Feature", "properties": { "S. No.": 32, "Bridge Name (Upstream to Downstream)": "Trisuli River Bridge Tupche", "Bridge Type": "Permanent", "District": "Nuwakot", "Location": "Tupche", "Jurisdiction": "DOR", "NH/Local": null, "Northing (DMS)": "27°57'49.60\"N", "Easting (DMS)": "85°10'22.12\"E", "Length,M": 100.0, "Status": "Washed Out", "Remarks": null, "Latitude (Decimal)": 27.963777777777779, "Longitude (Decimal)": 85.172811111111116 }, "geometry": { "type": "Point", "coordinates": [ 85.172811111111116, 27.963777777777779 ] } },
{ "type": "Feature", "properties": { "S. No.": 33, "Bridge Name (Upstream to Downstream)": "Dhobi Khola", "Bridge Type": "RCC", "District": "Nuwakot", "Location": "27+220", "Jurisdiction": "DOR", "NH/Local": "NH 42", "Northing (DMS)": "27°55'13\"N", "Easting (DMS)": "85°08'55\"E", "Length,M": 15.0, "Status": "जोगिएको", "Remarks": null, "Latitude (Decimal)": 27.92027777777778, "Longitude (Decimal)": 85.148611111111123 }, "geometry": { "type": "Point", "coordinates": [ 85.148611111111123, 27.92027777777778 ] } },
{ "type": "Feature", "properties": { "S. No.": 34, "Bridge Name (Upstream to Downstream)": "Gundre Khola", "Bridge Type": "RCC", "District": "Nuwakot", "Location": "27+980", "Jurisdiction": "DOR", "NH/Local": "NH 42", "Northing (DMS)": "27°55'24\"N", "Easting (DMS)": "85°09'13\"E", "Length,M": 15.0, "Status": "जोगिएको", "Remarks": null, "Latitude (Decimal)": 27.923333333333336, "Longitude (Decimal)": 85.153611111111118 }, "geometry": { "type": "Point", "coordinates": [ 85.153611111111118, 27.923333333333336 ] } },
{ "type": "Feature", "properties": { "S. No.": 35, "Bridge Name (Upstream to Downstream)": "Bire Khola", "Bridge Type": "RCC", "District": "Nuwakot", "Location": "27+840", "Jurisdiction": "DOR", "NH/Local": "NH 42", "Northing (DMS)": "27°55'28\"N", "Easting (DMS)": "85°09'14\"E", "Length,M": 20.0, "Status": "जोगिएको", "Remarks": null, "Latitude (Decimal)": 27.924444444444447, "Longitude (Decimal)": 85.153888888888901 }, "geometry": { "type": "Point", "coordinates": [ 85.153888888888901, 27.924444444444447 ] } },
{ "type": "Feature", "properties": { "S. No.": 36, "Bridge Name (Upstream to Downstream)": "Gerkhu khola", "Bridge Type": "Prestress", "District": "Nuwakot", "Location": "29+050", "Jurisdiction": "DOR", "NH/Local": "NH 42", "Northing (DMS)": "27°55'50\"N", "Easting (DMS)": "85°09'17\"E", "Length,M": 10.0, "Status": "जोगिएको", "Remarks": null, "Latitude (Decimal)": 27.930555555555561, "Longitude (Decimal)": 85.154722222222233 }, "geometry": { "type": "Point", "coordinates": [ 85.154722222222233, 27.930555555555561 ] } },
{ "type": "Feature", "properties": { "S. No.": 37, "Bridge Name (Upstream to Downstream)": "Trisuli River Bridge ,Trisuli Bazzar(Old)", "Bridge Type": "Permanent", "District": "Nuwakot", "Location": "Trisuli Bazzar", "Jurisdiction": "DOR", "NH/Local": null, "Northing (DMS)": "27°55'18.58\"N", "Easting (DMS)": "85° 8'58.02\"E", "Length,M": 60.0, "Status": "Washed Out", "Remarks": null, "Latitude (Decimal)": 27.921827777777779, "Longitude (Decimal)": 85.14945 }, "geometry": { "type": "Point", "coordinates": [ 85.14945, 27.921827777777779 ] } },
{ "type": "Feature", "properties": { "S. No.": 38, "Bridge Name (Upstream to Downstream)": "Trisuli River Bridge ,Trisuli Bazzar(New)", "Bridge Type": "Permanent", "District": "Nuwakot", "Location": "Trisuli Bazzar", "Jurisdiction": "DOR", "NH/Local": null, "Northing (DMS)": "27°55'16.45\"N", "Easting (DMS)": "85° 8'52.67\"E", "Length,M": 60.0, "Status": "Washed Out", "Remarks": null, "Latitude (Decimal)": 27.921236111111117, "Longitude (Decimal)": 85.147963888888896 }, "geometry": { "type": "Point", "coordinates": [ 85.147963888888896, 27.921236111111117 ] } },
{ "type": "Feature", "properties": { "S. No.": 39, "Bridge Name (Upstream to Downstream)": "Trisuli River Bridge ,Simchaur", "Bridge Type": "Permanent", "District": "Nuwakot", "Location": "Simchaur", "Jurisdiction": "DOR", "NH/Local": null, "Northing (DMS)": "27°54'34.15\"N", "Easting (DMS)": "85° 8'18.61\"E", "Length,M": 100.0, "Status": "Washed Out", "Remarks": null, "Latitude (Decimal)": 27.909486111111111, "Longitude (Decimal)": 85.138502777777788 }, "geometry": { "type": "Point", "coordinates": [ 85.138502777777788, 27.909486111111111 ] } },
{ "type": "Feature", "properties": { "S. No.": 40, "Bridge Name (Upstream to Downstream)": "Suspension Bridge at Devighat near Jalshrot tatha Sinchai Division", "Bridge Type": "Permanent", "District": "Nuwakot", "Location": "Devighat", "Jurisdiction": "Others", "NH/Local": null, "Northing (DMS)": "27°53'32.43\"N", "Easting (DMS)": "85° 8'11.40\"E", "Length,M": null, "Status": "Washed Out", "Remarks": null, "Latitude (Decimal)": 27.892341666666667, "Longitude (Decimal)": 85.1365 }, "geometry": { "type": "Point", "coordinates": [ 85.1365, 27.892341666666667 ] } },
{ "type": "Feature", "properties": { "S. No.": 41, "Bridge Name (Upstream to Downstream)": "Trisuli River Bridge, Near Devighat, Midhill Highway", "Bridge Type": "Permanent", "District": "Nuwakot", "Location": "Near DeviGhat", "Jurisdiction": "DOR", "NH/Local": null, "Northing (DMS)": "27°52'13.22\"N", "Easting (DMS)": "85° 6'58.41\"E", "Length,M": null, "Status": "Washed Out", "Remarks": null, "Latitude (Decimal)": 27.870338888888888, "Longitude (Decimal)": 85.116225 }, "geometry": { "type": "Point", "coordinates": [ 85.116225, 27.870338888888888 ] } },
{ "type": "Feature", "properties": { "S. No.": 42, "Bridge Name (Upstream to Downstream)": "Tandi Khola Bridge, Devighat (Old)", "Bridge Type": "Permanent", "District": "Nuwakot", "Location": "Devighat", "Jurisdiction": "DOR", "NH/Local": "NH 42", "Northing (DMS)": "27°51'30.87\"N", "Easting (DMS)": "85° 6'32.67\"E", "Length,M": 55.0, "Status": "Washed Out", "Remarks": null, "Latitude (Decimal)": 27.858575, "Longitude (Decimal)": 85.109075 }, "geometry": { "type": "Point", "coordinates": [ 85.109075, 27.858575 ] } },
{ "type": "Feature", "properties": { "S. No.": 43, "Bridge Name (Upstream to Downstream)": "Tandi Khola Bridge, Devighat (New)", "Bridge Type": "Prestress", "District": "Nuwakot", "Location": "Devighat(CH 16+570)", "Jurisdiction": "DOR", "NH/Local": "NH 42", "Northing (DMS)": "27°51'30.87\"N", "Easting (DMS)": "85° 6'32.67\"E", "Length,M": 55.0, "Status": "Washed Out", "Remarks": null, "Latitude (Decimal)": 27.858575, "Longitude (Decimal)": 85.109075 }, "geometry": { "type": "Point", "coordinates": [ 85.109075, 27.858575 ] } },
{ "type": "Feature", "properties": { "S. No.": 44, "Bridge Name (Upstream to Downstream)": "Trisuli River Bridge,Khadgabhanjyang Srikhali Sadak", "Bridge Type": "Permanent", "District": "Nuwakot", "Location": "Srikhali", "Jurisdiction": "DOR", "NH/Local": null, "Northing (DMS)": "27°51'33.54\"N", "Easting (DMS)": "85° 5'55.35\"E", "Length,M": 180.0, "Status": "Washed Out", "Remarks": null, "Latitude (Decimal)": 27.859316666666668, "Longitude (Decimal)": 85.098708333333335 }, "geometry": { "type": "Point", "coordinates": [ 85.098708333333335, 27.859316666666668 ] } },
{ "type": "Feature", "properties": { "S. No.": 45, "Bridge Name (Upstream to Downstream)": "Thulo khola", "Bridge Type": "Prestress", "District": "Nuwakot", "Location": "13+260", "Jurisdiction": "DOR", "NH/Local": "NH 42", "Northing (DMS)": "27°51'16.44\"N", "Easting (DMS)": "85° 4'51.83\"E", "Length,M": 20.0, "Status": "क्षतिग्रस्त", "Remarks": "Covered under debris, status unknown", "Latitude (Decimal)": 27.854566666666667, "Longitude (Decimal)": 85.081063888888892 }, "geometry": { "type": "Point", "coordinates": [ 85.081063888888892, 27.854566666666667 ] } },
{ "type": "Feature", "properties": { "S. No.": 46, "Bridge Name (Upstream to Downstream)": "Trishuli River Bridge, Buddhasinghghat", "Bridge Type": "Permanent", "District": "Nuwakot", "Location": "Buddhasinghghat", "Jurisdiction": "DOR", "NH/Local": null, "Northing (DMS)": "27°51'34.13\"N", "Easting (DMS)": "85° 3'42.97\"E", "Length,M": 140.0, "Status": "Washed Out", "Remarks": null, "Latitude (Decimal)": 27.85948055555556, "Longitude (Decimal)": 85.061936111111109 }, "geometry": { "type": "Point", "coordinates": [ 85.061936111111109, 27.85948055555556 ] } },
{ "type": "Feature", "properties": { "S. No.": 47, "Bridge Name (Upstream to Downstream)": "Trishuli River Bridge, Ratmate", "Bridge Type": "Permanent", "District": "Nuwakot", "Location": "Ratmate", "Jurisdiction": "DOR", "NH/Local": null, "Northing (DMS)": "27°51'21.95\"N", "Easting (DMS)": "85° 2'28.28\"E", "Length,M": 150.0, "Status": "Washed Out", "Remarks": null, "Latitude (Decimal)": 27.856097222222225, "Longitude (Decimal)": 85.041188888888883 }, "geometry": { "type": "Point", "coordinates": [ 85.041188888888883, 27.856097222222225 ] } },
{ "type": "Feature", "properties": { "S. No.": 48, "Bridge Name (Upstream to Downstream)": "Jhangar Khola", "Bridge Type": "RCC", "District": "Nuwakot", "Location": "5+760", "Jurisdiction": "DOR", "NH/Local": "NH 42", "Northing (DMS)": "27°50'4.70\"N", "Easting (DMS)": "85° 1'27.96\"E", "Length,M": 15.0, "Status": "जोगिएको", "Remarks": null, "Latitude (Decimal)": 27.83463888888889, "Longitude (Decimal)": 85.024433333333334 }, "geometry": { "type": "Point", "coordinates": [ 85.024433333333334, 27.83463888888889 ] } },
{ "type": "Feature", "properties": { "S. No.": 49, "Bridge Name (Upstream to Downstream)": "Trishuli River Bridge, Keurini, Fosretar", "Bridge Type": "Permanent", "District": "Nuwakot", "Location": "Keurini, Fosretar", "Jurisdiction": "DOR", "NH/Local": null, "Northing (DMS)": "27°49'57.09\"N", "Easting (DMS)": "85° 1'20.40\"E", "Length,M": null, "Status": "Washed Out", "Remarks": null, "Latitude (Decimal)": 27.832525, "Longitude (Decimal)": 85.022333333333336 }, "geometry": { "type": "Point", "coordinates": [ 85.022333333333336, 27.832525 ] } },
{ "type": "Feature", "properties": { "S. No.": 50, "Bridge Name (Upstream to Downstream)": "Kolpu Khola Bridge (Old)", "Bridge Type": "Permanent", "District": "Dhading", "Location": null, "Jurisdiction": "DOR", "NH/Local": "NH 42", "Northing (DMS)": "27°48'36.40\"N", "Easting (DMS)": "85° 0'58.36\"E", "Length,M": 40.0, "Status": "क्षतिग्रस्त", "Remarks": null, "Latitude (Decimal)": 27.810111111111112, "Longitude (Decimal)": 85.016211111111105 }, "geometry": { "type": "Point", "coordinates": [ 85.016211111111105, 27.810111111111112 ] } },
{ "type": "Feature", "properties": { "S. No.": 51, "Bridge Name (Upstream to Downstream)": "Kolpu Khola Bridge (New)", "Bridge Type": "Prestress", "District": "Dhading", "Location": "2+520", "Jurisdiction": "DOR", "NH/Local": "NH 42", "Northing (DMS)": "27°48'36.40\"N", "Easting (DMS)": "85° 0'58.36\"E", "Length,M": 40.0, "Status": "क्षतिग्रस्त", "Remarks": "Bridge has been shifted d/s but still working.", "Latitude (Decimal)": 27.810111111111112, "Longitude (Decimal)": 85.016211111111105 }, "geometry": { "type": "Point", "coordinates": [ 85.016211111111105, 27.810111111111112 ] } },
{ "type": "Feature", "properties": { "S. No.": 52, "Bridge Name (Upstream to Downstream)": "Trishuli River Bridge, BhimDhunga Lami Danda Sadak", "Bridge Type": "Permanent", "District": "Dhading", "Location": "Near Galchhi", "Jurisdiction": "DOR", "NH/Local": null, "Northing (DMS)": "27°48'9.68\"N", "Easting (DMS)": "85° 0'9.98\"E", "Length,M": 140.0, "Status": "जोगिएको", "Remarks": null, "Latitude (Decimal)": 27.802688888888891, "Longitude (Decimal)": 85.00277222222222 }, "geometry": { "type": "Point", "coordinates": [ 85.00277222222222, 27.802688888888891 ] } },
{ "type": "Feature", "properties": { "S. No.": 53, "Bridge Name (Upstream to Downstream)": "Mahesh khola", "Bridge Type": "Prestress", "District": "Dhading", "Location": "0+520", "Jurisdiction": "DOR", "NH/Local": "NH 42", "Northing (DMS)": "27°48'01\"N", "Easting (DMS)": "85°00'03\"E", "Length,M": 41.0, "Status": "जोगिएको", "Remarks": null, "Latitude (Decimal)": 27.800277777777779, "Longitude (Decimal)": 85.000833333333333 }, "geometry": { "type": "Point", "coordinates": [ 85.000833333333333, 27.800277777777779 ] } },
{ "type": "Feature", "properties": { "S. No.": 54, "Bridge Name (Upstream to Downstream)": "Trishuli River Bridge, Baireni Syaltar Sadak", "Bridge Type": "Permanent", "District": "Dhading", "Location": "Below Galchhi", "Jurisdiction": "DOR", "NH/Local": null, "Northing (DMS)": "27°48'15.42\"N", "Easting (DMS)": "84°59'25.76\"E", "Length,M": 150.0, "Status": "Washed Out", "Remarks": null, "Latitude (Decimal)": 27.804283333333331, "Longitude (Decimal)": 84.990488888888891 }, "geometry": { "type": "Point", "coordinates": [ 84.990488888888891, 27.804283333333331 ] } },
{ "type": "Feature", "properties": { "S. No.": 55, "Bridge Name (Upstream to Downstream)": "Trisuli River Bridge, Mastar Dhading", "Bridge Type": "Permanent", "District": "Dhading", "Location": "Near Hamlet Resort", "Jurisdiction": "DOR", "NH/Local": null, "Northing (DMS)": "27°48'42.69\"N", "Easting (DMS)": "84°57'54.95\"E", "Length,M": 140.0, "Status": "जोगिएको", "Remarks": null, "Latitude (Decimal)": 27.811858333333333, "Longitude (Decimal)": 84.965263888888899 }, "geometry": { "type": "Point", "coordinates": [ 84.965263888888899, 27.811858333333333 ] } },
{ "type": "Feature", "properties": { "S. No.": 56, "Bridge Name (Upstream to Downstream)": "Trisuli River Bridge, JareBagaicha", "Bridge Type": "Permanent", "District": "Dhading", "Location": "JareBagaicha", "Jurisdiction": "DOR", "NH/Local": null, "Northing (DMS)": "27°47'52.54\"N", "Easting (DMS)": "84°55'27.41\"E", "Length,M": 120.0, "Status": "Washed Out", "Remarks": null, "Latitude (Decimal)": 27.79792777777778, "Longitude (Decimal)": 84.924280555555555 }, "geometry": { "type": "Point", "coordinates": [ 84.924280555555555, 27.79792777777778 ] } },
{ "type": "Feature", "properties": { "S. No.": 57, "Bridge Name (Upstream to Downstream)": "Trisuli River Bridge, Ghatbesi", "Bridge Type": "Permanent", "District": "Dhading", "Location": "Ghatbesi", "Jurisdiction": "DOR", "NH/Local": null, "Northing (DMS)": "27°48'24.79\"N", "Easting (DMS)": "84°54'6.77\"E", "Length,M": 200.0, "Status": "Washed Out", "Remarks": null, "Latitude (Decimal)": 27.806886111111112, "Longitude (Decimal)": 84.901880555555564 }, "geometry": { "type": "Point", "coordinates": [ 84.901880555555564, 27.806886111111112 ] } },
{ "type": "Feature", "properties": { "S. No.": 58, "Bridge Name (Upstream to Downstream)": "Trishuli River Bridge, Furke Khola", "Bridge Type": "Permanent", "District": "Dhading", "Location": "Malelkhu", "Jurisdiction": "DOR", "NH/Local": null, "Northing (DMS)": "27°48'9.16\"N", "Easting (DMS)": "84°50'38.67\"E", "Length,M": 118.0, "Status": "Washed Out", "Remarks": null, "Latitude (Decimal)": 27.802544444444447, "Longitude (Decimal)": 84.844075 }, "geometry": { "type": "Point", "coordinates": [ 84.844075, 27.802544444444447 ] } },
{ "type": "Feature", "properties": { "S. No.": 59, "Bridge Name (Upstream to Downstream)": "Trishuli River Bridge, Benighat", "Bridge Type": "Permanent", "District": "Dhading", "Location": "Benighat", "Jurisdiction": "DOR", "NH/Local": null, "Northing (DMS)": "27°48'38.12\"N", "Easting (DMS)": "84°46'37.49\"E", "Length,M": null, "Status": "जोगिएको", "Remarks": null, "Latitude (Decimal)": 27.810588888888891, "Longitude (Decimal)": 84.777080555555557 }, "geometry": { "type": "Point", "coordinates": [ 84.777080555555557, 27.810588888888891 ] } },
{ "type": "Feature", "properties": { "S. No.": 60, "Bridge Name (Upstream to Downstream)": "Trisuli River Bridge, Fisling Gorkha", "Bridge Type": "Permanent", "District": "Dhading", "Location": "Fishling", "Jurisdiction": "DOR", "NH/Local": null, "Northing (DMS)": "27°50'40.66\"N", "Easting (DMS)": "84°39'43.43\"E", "Length,M": 145.0, "Status": "जोगिएको", "Remarks": null, "Latitude (Decimal)": 27.844627777777777, "Longitude (Decimal)": 84.662063888888895 }, "geometry": { "type": "Point", "coordinates": [ 84.662063888888895, 27.844627777777777 ] } },
{ "type": "Feature", "properties": { "S. No.": 61, "Bridge Name (Upstream to Downstream)": "Hydropower Bailey Bridge Trishuli, Chumlingtar", "Bridge Type": "Bailey", "District": "Chitwan", "Location": "Chumlingtar", "Jurisdiction": "Others", "NH/Local": null, "Northing (DMS)": "27°51'36.27\"N", "Easting (DMS)": "84°38'27.45\"E", "Length,M": null, "Status": "जोगिएको", "Remarks": null, "Latitude (Decimal)": 27.860075, "Longitude (Decimal)": 84.640958333333344 }, "geometry": { "type": "Point", "coordinates": [ 84.640958333333344, 27.860075 ] } },
{ "type": "Feature", "properties": { "S. No.": 62, "Bridge Name (Upstream to Downstream)": "Mugling Arch Bridge", "Bridge Type": "Permanent", "District": "Chitwan", "Location": "Mugling", "Jurisdiction": "DOR", "NH/Local": null, "Northing (DMS)": null, "Easting (DMS)": null, "Length,M": 160.0, "Status": "जोगिएको", "Remarks": null, "Latitude (Decimal)": 27.854688629812838, "Longitude (Decimal)": 84.557338424358576 }, "geometry": { "type": "Point", "coordinates": [ 84.557338424358576, 27.854688629812838 ] } },
{ "type": "Feature", "properties": { "S. No.": 63, "Bridge Name (Upstream to Downstream)": "Mugling Old Suspension Bridge", "Bridge Type": "Permanent", "District": "Chitwan", "Location": "Mugling", "Jurisdiction": "DOR", "NH/Local": null, "Northing (DMS)": null, "Easting (DMS)": null, "Length,M": null, "Status": "जोगिएको", "Remarks": null, "Latitude (Decimal)": 27.85837271374433, "Longitude (Decimal)": 84.561400905656996 }, "geometry": { "type": "Point", "coordinates": [ 84.561400905656996, 27.85837271374433 ] } },
{ "type": "Feature", "properties": { "S. No.": null, "Bridge Name (Upstream to Downstream)": null, "Bridge Type": "Suspension", "District": null, "Location": null, "Jurisdiction": null, "NH\/Local": null, "Northing (DMS)": null, "Easting (DMS)": null, "Length,M": null, "Status": null, "Remarks": null, "Latitude (Decimal)": null, "Longitude (Decimal)": null }, "geometry": { "type": "Point", "coordinates": [ 85.354193466567807, 28.210689712659665 ] } },
{ "type": "Feature", "properties": { "S. No.": null, "Bridge Name (Upstream to Downstream)": null, "Bridge Type": "Suspension", "District": null, "Location": null, "Jurisdiction": null, "NH\/Local": null, "Northing (DMS)": null, "Easting (DMS)": null, "Length,M": null, "Status": null, "Remarks": null, "Latitude (Decimal)": null, "Longitude (Decimal)": null }, "geometry": { "type": "Point", "coordinates": [ 85.354308327445523, 28.208909442636909 ] } },
{ "type": "Feature", "properties": { "S. No.": null, "Bridge Name (Upstream to Downstream)": null, "Bridge Type": "Suspension", "District": null, "Location": null, "Jurisdiction": null, "NH\/Local": null, "Northing (DMS)": null, "Easting (DMS)": null, "Length,M": null, "Status": null, "Remarks": null, "Latitude (Decimal)": null, "Longitude (Decimal)": null }, "geometry": { "type": "Point", "coordinates": [ 85.342621063799655, 28.166013251937432 ] } },
{ "type": "Feature", "properties": { "S. No.": null, "Bridge Name (Upstream to Downstream)": null, "Bridge Type": "Suspension", "District": null, "Location": null, "Jurisdiction": null, "NH\/Local": null, "Northing (DMS)": null, "Easting (DMS)": null, "Length,M": null, "Status": null, "Remarks": null, "Latitude (Decimal)": null, "Longitude (Decimal)": null }, "geometry": { "type": "Point", "coordinates": [ 85.214826009471693, 28.077004468438385 ] } },
{ "type": "Feature", "properties": { "S. No.": null, "Bridge Name (Upstream to Downstream)": null, "Bridge Type": "Suspension", "District": null, "Location": null, "Jurisdiction": null, "NH\/Local": null, "Northing (DMS)": null, "Easting (DMS)": null, "Length,M": null, "Status": null, "Remarks": null, "Latitude (Decimal)": null, "Longitude (Decimal)": null }, "geometry": { "type": "Point", "coordinates": [ 85.194012676918618, 28.038653986689468 ] } },
{ "type": "Feature", "properties": { "S. No.": null, "Bridge Name (Upstream to Downstream)": null, "Bridge Type": "Suspension", "District": null, "Location": null, "Jurisdiction": null, "NH\/Local": null, "Northing (DMS)": null, "Easting (DMS)": null, "Length,M": null, "Status": null, "Remarks": null, "Latitude (Decimal)": null, "Longitude (Decimal)": null }, "geometry": { "type": "Point", "coordinates": [ 85.183548562782278, 28.008993030007193 ] } },
{ "type": "Feature", "properties": { "S. No.": null, "Bridge Name (Upstream to Downstream)": null, "Bridge Type": "Suspension", "District": null, "Location": null, "Jurisdiction": null, "NH\/Local": null, "Northing (DMS)": null, "Easting (DMS)": null, "Length,M": null, "Status": null, "Remarks": null, "Latitude (Decimal)": null, "Longitude (Decimal)": null }, "geometry": { "type": "Point", "coordinates": [ 85.179820266212843, 27.981840323694961 ] } },
{ "type": "Feature", "properties": { "S. No.": null, "Bridge Name (Upstream to Downstream)": null, "Bridge Type": "Suspension", "District": null, "Location": null, "Jurisdiction": null, "NH\/Local": null, "Northing (DMS)": null, "Easting (DMS)": null, "Length,M": null, "Status": null, "Remarks": null, "Latitude (Decimal)": null, "Longitude (Decimal)": null }, "geometry": { "type": "Point", "coordinates": [ 85.181427784748294, 27.979043894166345 ] } },
{ "type": "Feature", "properties": { "S. No.": null, "Bridge Name (Upstream to Downstream)": null, "Bridge Type": "Suspension", "District": null, "Location": null, "Jurisdiction": null, "NH\/Local": null, "Northing (DMS)": null, "Easting (DMS)": null, "Length,M": null, "Status": null, "Remarks": null, "Latitude (Decimal)": null, "Longitude (Decimal)": null }, "geometry": { "type": "Point", "coordinates": [ 85.184368904112787, 27.972497452108321 ] } },
{ "type": "Feature", "properties": { "S. No.": null, "Bridge Name (Upstream to Downstream)": null, "Bridge Type": "Suspension", "District": null, "Location": null, "Jurisdiction": null, "NH\/Local": null, "Northing (DMS)": null, "Easting (DMS)": null, "Length,M": null, "Status": null, "Remarks": null, "Latitude (Decimal)": null, "Longitude (Decimal)": null }, "geometry": { "type": "Point", "coordinates": [ 85.173483694436612, 27.963935056011483 ] } },
{ "type": "Feature", "properties": { "S. No.": null, "Bridge Name (Upstream to Downstream)": null, "Bridge Type": "Steel Arch Aqueduct", "District": null, "Location": null, "Jurisdiction": null, "NH\/Local": null, "Northing (DMS)": null, "Easting (DMS)": null, "Length,M": null, "Status": null, "Remarks": null, "Latitude (Decimal)": null, "Longitude (Decimal)": null }, "geometry": { "type": "Point", "coordinates": [ 85.163828213695112, 27.955763419526139 ] } },
{ "type": "Feature", "properties": { "S. No.": null, "Bridge Name (Upstream to Downstream)": null, "Bridge Type": "Steel Arch Aqueduct", "District": null, "Location": null, "Jurisdiction": null, "NH\/Local": null, "Northing (DMS)": null, "Easting (DMS)": null, "Length,M": null, "Status": null, "Remarks": null, "Latitude (Decimal)": null, "Longitude (Decimal)": null }, "geometry": { "type": "Point", "coordinates": [ 85.162703104003782, 27.948549040879886 ] } },
{ "type": "Feature", "properties": { "S. No.": null, "Bridge Name (Upstream to Downstream)": null, "Bridge Type": "Suspension", "District": null, "Location": null, "Jurisdiction": null, "NH\/Local": null, "Northing (DMS)": null, "Easting (DMS)": null, "Length,M": null, "Status": null, "Remarks": null, "Latitude (Decimal)": null, "Longitude (Decimal)": null }, "geometry": { "type": "Point", "coordinates": [ 85.158340986641335, 27.939295437319775 ] } },
{ "type": "Feature", "properties": { "S. No.": null, "Bridge Name (Upstream to Downstream)": null, "Bridge Type": "Suspension", "District": null, "Location": null, "Jurisdiction": null, "NH\/Local": null, "Northing (DMS)": null, "Easting (DMS)": null, "Length,M": null, "Status": null, "Remarks": null, "Latitude (Decimal)": null, "Longitude (Decimal)": null }, "geometry": { "type": "Point", "coordinates": [ 85.149914197887227, 27.927548748184027 ] } },
{ "type": "Feature", "properties": { "S. No.": null, "Bridge Name (Upstream to Downstream)": null, "Bridge Type": "Suspension", "District": null, "Location": null, "Jurisdiction": null, "NH\/Local": null, "Northing (DMS)": null, "Easting (DMS)": null, "Length,M": null, "Status": null, "Remarks": null, "Latitude (Decimal)": null, "Longitude (Decimal)": null }, "geometry": { "type": "Point", "coordinates": [ 85.108083509232273, 27.860544986087856 ] } },
{ "type": "Feature", "properties": { "S. No.": null, "Bridge Name (Upstream to Downstream)": null, "Bridge Type": "Suspension", "District": null, "Location": null, "Jurisdiction": null, "NH\/Local": null, "Northing (DMS)": null, "Easting (DMS)": null, "Length,M": null, "Status": null, "Remarks": null, "Latitude (Decimal)": null, "Longitude (Decimal)": null }, "geometry": { "type": "Point", "coordinates": [ 85.086868311977412, 27.856448483766751 ] } },
{ "type": "Feature", "properties": { "S. No.": null, "Bridge Name (Upstream to Downstream)": null, "Bridge Type": "Suspension", "District": null, "Location": null, "Jurisdiction": null, "NH\/Local": null, "Northing (DMS)": null, "Easting (DMS)": null, "Length,M": null, "Status": null, "Remarks": null, "Latitude (Decimal)": null, "Longitude (Decimal)": null }, "geometry": { "type": "Point", "coordinates": [ 85.081662228893663, 27.856387162475311 ] } },
{ "type": "Feature", "properties": { "S. No.": null, "Bridge Name (Upstream to Downstream)": null, "Bridge Type": "Suspension", "District": null, "Location": null, "Jurisdiction": null, "NH\/Local": null, "Northing (DMS)": null, "Easting (DMS)": null, "Length,M": null, "Status": null, "Remarks": null, "Latitude (Decimal)": null, "Longitude (Decimal)": null }, "geometry": { "type": "Point", "coordinates": [ 85.07153432402221, 27.85363288739817 ] } },
{ "type": "Feature", "properties": { "S. No.": null, "Bridge Name (Upstream to Downstream)": null, "Bridge Type": "Suspension", "District": null, "Location": null, "Jurisdiction": null, "NH\/Local": null, "Northing (DMS)": null, "Easting (DMS)": null, "Length,M": null, "Status": null, "Remarks": null, "Latitude (Decimal)": null, "Longitude (Decimal)": null }, "geometry": { "type": "Point", "coordinates": [ 85.057900202778171, 27.857905803656966 ] } },
{ "type": "Feature", "properties": { "S. No.": null, "Bridge Name (Upstream to Downstream)": null, "Bridge Type": "Suspension", "District": null, "Location": null, "Jurisdiction": null, "NH\/Local": null, "Northing (DMS)": null, "Easting (DMS)": null, "Length,M": null, "Status": null, "Remarks": null, "Latitude (Decimal)": null, "Longitude (Decimal)": null }, "geometry": { "type": "Point", "coordinates": [ 85.04291336325366, 27.856537535861836 ] } },
{ "type": "Feature", "properties": { "S. No.": null, "Bridge Name (Upstream to Downstream)": null, "Bridge Type": "Suspension", "District": null, "Location": null, "Jurisdiction": null, "NH\/Local": null, "Northing (DMS)": null, "Easting (DMS)": null, "Length,M": null, "Status": null, "Remarks": null, "Latitude (Decimal)": null, "Longitude (Decimal)": null }, "geometry": { "type": "Point", "coordinates": [ 85.027548079685374, 27.847779505890401 ] } },
{ "type": "Feature", "properties": { "S. No.": null, "Bridge Name (Upstream to Downstream)": null, "Bridge Type": "Suspension", "District": null, "Location": null, "Jurisdiction": null, "NH\/Local": null, "Northing (DMS)": null, "Easting (DMS)": null, "Length,M": null, "Status": null, "Remarks": null, "Latitude (Decimal)": null, "Longitude (Decimal)": null }, "geometry": { "type": "Point", "coordinates": [ 85.022631398712463, 27.835570678162934 ] } },
{ "type": "Feature", "properties": { "S. No.": null, "Bridge Name (Upstream to Downstream)": null, "Bridge Type": "Suspension", "District": null, "Location": null, "Jurisdiction": null, "NH\/Local": null, "Northing (DMS)": null, "Easting (DMS)": null, "Length,M": null, "Status": null, "Remarks": null, "Latitude (Decimal)": null, "Longitude (Decimal)": null }, "geometry": { "type": "Point", "coordinates": [ 85.016837909840945, 27.822311998994184 ] } },
{ "type": "Feature", "properties": { "S. No.": null, "Bridge Name (Upstream to Downstream)": null, "Bridge Type": "Suspension", "District": null, "Location": null, "Jurisdiction": null, "NH\/Local": null, "Northing (DMS)": null, "Easting (DMS)": null, "Length,M": null, "Status": null, "Remarks": null, "Latitude (Decimal)": null, "Longitude (Decimal)": null }, "geometry": { "type": "Point", "coordinates": [ 85.013180385450909, 27.809663861846232 ] } },
{ "type": "Feature", "properties": { "S. No.": null, "Bridge Name (Upstream to Downstream)": null, "Bridge Type": "Suspension", "District": null, "Location": null, "Jurisdiction": null, "NH\/Local": null, "Northing (DMS)": null, "Easting (DMS)": null, "Length,M": null, "Status": null, "Remarks": null, "Latitude (Decimal)": null, "Longitude (Decimal)": null }, "geometry": { "type": "Point", "coordinates": [ 85.001248831615271, 27.801896406686584 ] } },
{ "type": "Feature", "properties": { "S. No.": null, "Bridge Name (Upstream to Downstream)": null, "Bridge Type": "Suspension", "District": null, "Location": null, "Jurisdiction": null, "NH\/Local": null, "Northing (DMS)": null, "Easting (DMS)": null, "Length,M": null, "Status": null, "Remarks": null, "Latitude (Decimal)": null, "Longitude (Decimal)": null }, "geometry": { "type": "Point", "coordinates": [ 84.990917484697434, 27.803712629481858 ] } },
{ "type": "Feature", "properties": { "S. No.": null, "Bridge Name (Upstream to Downstream)": null, "Bridge Type": "Suspension", "District": null, "Location": null, "Jurisdiction": null, "NH\/Local": null, "Northing (DMS)": null, "Easting (DMS)": null, "Length,M": null, "Status": null, "Remarks": null, "Latitude (Decimal)": null, "Longitude (Decimal)": null }, "geometry": { "type": "Point", "coordinates": [ 84.97508986530093, 27.80146635336758 ] } },
{ "type": "Feature", "properties": { "S. No.": null, "Bridge Name (Upstream to Downstream)": null, "Bridge Type": "Suspension", "District": null, "Location": null, "Jurisdiction": null, "NH\/Local": null, "Northing (DMS)": null, "Easting (DMS)": null, "Length,M": null, "Status": null, "Remarks": null, "Latitude (Decimal)": null, "Longitude (Decimal)": null }, "geometry": { "type": "Point", "coordinates": [ 84.969533062316941, 27.807285588225866 ] } },
{ "type": "Feature", "properties": { "S. No.": null, "Bridge Name (Upstream to Downstream)": null, "Bridge Type": "Suspension", "District": null, "Location": null, "Jurisdiction": null, "NH\/Local": null, "Northing (DMS)": null, "Easting (DMS)": null, "Length,M": null, "Status": null, "Remarks": null, "Latitude (Decimal)": null, "Longitude (Decimal)": null }, "geometry": { "type": "Point", "coordinates": [ 84.945062157546786, 27.812762534562921 ] } },
{ "type": "Feature", "properties": { "S. No.": null, "Bridge Name (Upstream to Downstream)": null, "Bridge Type": "Suspension", "District": null, "Location": null, "Jurisdiction": null, "NH\/Local": null, "Northing (DMS)": null, "Easting (DMS)": null, "Length,M": null, "Status": null, "Remarks": null, "Latitude (Decimal)": null, "Longitude (Decimal)": null }, "geometry": { "type": "Point", "coordinates": [ 84.941161827119316, 27.807090471533066 ] } },
{ "type": "Feature", "properties": { "S. No.": null, "Bridge Name (Upstream to Downstream)": null, "Bridge Type": "RCC", "District": null, "Location": null, "Jurisdiction": null, "NH\/Local": null, "Northing (DMS)": null, "Easting (DMS)": null, "Length,M": null, "Status": null, "Remarks": null, "Latitude (Decimal)": null, "Longitude (Decimal)": null }, "geometry": { "type": "Point", "coordinates": [ 84.9167829427317, 27.800027646285951 ] } },
{ "type": "Feature", "properties": { "S. No.": null, "Bridge Name (Upstream to Downstream)": null, "Bridge Type": "Suspension", "District": null, "Location": null, "Jurisdiction": null, "NH\/Local": null, "Northing (DMS)": null, "Easting (DMS)": null, "Length,M": null, "Status": null, "Remarks": null, "Latitude (Decimal)": null, "Longitude (Decimal)": null }, "geometry": { "type": "Point", "coordinates": [ 84.904130499624387, 27.807399112066577 ] } },
{ "type": "Feature", "properties": { "S. No.": null, "Bridge Name (Upstream to Downstream)": null, "Bridge Type": "Suspension", "District": null, "Location": null, "Jurisdiction": null, "NH\/Local": null, "Northing (DMS)": null, "Easting (DMS)": null, "Length,M": null, "Status": null, "Remarks": null, "Latitude (Decimal)": null, "Longitude (Decimal)": null }, "geometry": { "type": "Point", "coordinates": [ 84.880572637150749, 27.809637774002596 ] } },
{ "type": "Feature", "properties": { "S. No.": null, "Bridge Name (Upstream to Downstream)": null, "Bridge Type": "Suspension", "District": null, "Location": null, "Jurisdiction": null, "NH\/Local": null, "Northing (DMS)": null, "Easting (DMS)": null, "Length,M": null, "Status": null, "Remarks": null, "Latitude (Decimal)": null, "Longitude (Decimal)": null }, "geometry": { "type": "Point", "coordinates": [ 84.871653548695647, 27.803132286933121 ] } },
{ "type": "Feature", "properties": { "S. No.": null, "Bridge Name (Upstream to Downstream)": null, "Bridge Type": "Suspension", "District": null, "Location": null, "Jurisdiction": null, "NH\/Local": null, "Northing (DMS)": null, "Easting (DMS)": null, "Length,M": null, "Status": null, "Remarks": null, "Latitude (Decimal)": null, "Longitude (Decimal)": null }, "geometry": { "type": "Point", "coordinates": [ 84.854121531212186, 27.808040394410899 ] } },
{ "type": "Feature", "properties": { "S. No.": null, "Bridge Name (Upstream to Downstream)": null, "Bridge Type": "RCC", "District": null, "Location": null, "Jurisdiction": null, "NH\/Local": null, "Northing (DMS)": null, "Easting (DMS)": null, "Length,M": null, "Status": null, "Remarks": null, "Latitude (Decimal)": null, "Longitude (Decimal)": null }, "geometry": { "type": "Point", "coordinates": [ 84.835325311685963, 27.807083154961706 ] } },
{ "type": "Feature", "properties": { "S. No.": null, "Bridge Name (Upstream to Downstream)": null, "Bridge Type": "Suspension", "District": null, "Location": null, "Jurisdiction": null, "NH\/Local": null, "Northing (DMS)": null, "Easting (DMS)": null, "Length,M": null, "Status": null, "Remarks": null, "Latitude (Decimal)": null, "Longitude (Decimal)": null }, "geometry": { "type": "Point", "coordinates": [ 84.835416453439237, 27.810188836080538 ] } },
{ "type": "Feature", "properties": { "S. No.": null, "Bridge Name (Upstream to Downstream)": null, "Bridge Type": "Suspension", "District": null, "Location": null, "Jurisdiction": null, "NH\/Local": null, "Northing (DMS)": null, "Easting (DMS)": null, "Length,M": null, "Status": null, "Remarks": null, "Latitude (Decimal)": null, "Longitude (Decimal)": null }, "geometry": { "type": "Point", "coordinates": [ 84.822204606285339, 27.811135775472927 ] } },
{ "type": "Feature", "properties": { "S. No.": null, "Bridge Name (Upstream to Downstream)": null, "Bridge Type": "Suspension", "District": null, "Location": null, "Jurisdiction": null, "NH\/Local": null, "Northing (DMS)": null, "Easting (DMS)": null, "Length,M": null, "Status": null, "Remarks": null, "Latitude (Decimal)": null, "Longitude (Decimal)": null }, "geometry": { "type": "Point", "coordinates": [ 84.809384088457065, 27.81711840737491 ] } },
{ "type": "Feature", "properties": { "S. No.": null, "Bridge Name (Upstream to Downstream)": null, "Bridge Type": "Suspension", "District": null, "Location": null, "Jurisdiction": null, "NH\/Local": null, "Northing (DMS)": null, "Easting (DMS)": null, "Length,M": null, "Status": null, "Remarks": null, "Latitude (Decimal)": null, "Longitude (Decimal)": null }, "geometry": { "type": "Point", "coordinates": [ 84.794289151326964, 27.813205777771213 ] } },
{ "type": "Feature", "properties": { "S. No.": null, "Bridge Name (Upstream to Downstream)": null, "Bridge Type": "Suspension", "District": null, "Location": null, "Jurisdiction": null, "NH\/Local": null, "Northing (DMS)": null, "Easting (DMS)": null, "Length,M": null, "Status": null, "Remarks": null, "Latitude (Decimal)": null, "Longitude (Decimal)": null }, "geometry": { "type": "Point", "coordinates": [ 84.773625333538078, 27.80870500940151 ] } },
{ "type": "Feature", "properties": { "S. No.": null, "Bridge Name (Upstream to Downstream)": null, "Bridge Type": "Suspension", "District": null, "Location": null, "Jurisdiction": null, "NH\/Local": null, "Northing (DMS)": null, "Easting (DMS)": null, "Length,M": null, "Status": null, "Remarks": null, "Latitude (Decimal)": null, "Longitude (Decimal)": null }, "geometry": { "type": "Point", "coordinates": [ 84.756960660271233, 27.814625292538501 ] } },
{ "type": "Feature", "properties": { "S. No.": null, "Bridge Name (Upstream to Downstream)": null, "Bridge Type": "Suspension", "District": null, "Location": null, "Jurisdiction": null, "NH\/Local": null, "Northing (DMS)": null, "Easting (DMS)": null, "Length,M": null, "Status": null, "Remarks": null, "Latitude (Decimal)": null, "Longitude (Decimal)": null }, "geometry": { "type": "Point", "coordinates": [ 84.756038415742651, 27.808937358408532 ] } },
{ "type": "Feature", "properties": { "S. No.": null, "Bridge Name (Upstream to Downstream)": null, "Bridge Type": "Suspension", "District": null, "Location": null, "Jurisdiction": null, "NH\/Local": null, "Northing (DMS)": null, "Easting (DMS)": null, "Length,M": null, "Status": null, "Remarks": null, "Latitude (Decimal)": null, "Longitude (Decimal)": null }, "geometry": { "type": "Point", "coordinates": [ 84.749800982427772, 27.804707757549103 ] } },
{ "type": "Feature", "properties": { "S. No.": null, "Bridge Name (Upstream to Downstream)": null, "Bridge Type": "Suspension", "District": null, "Location": null, "Jurisdiction": null, "NH\/Local": null, "Northing (DMS)": null, "Easting (DMS)": null, "Length,M": null, "Status": null, "Remarks": null, "Latitude (Decimal)": null, "Longitude (Decimal)": null }, "geometry": { "type": "Point", "coordinates": [ 84.737615173834442, 27.803145767960746 ] } },
{ "type": "Feature", "properties": { "S. No.": null, "Bridge Name (Upstream to Downstream)": null, "Bridge Type": "Suspension", "District": null, "Location": null, "Jurisdiction": null, "NH\/Local": null, "Northing (DMS)": null, "Easting (DMS)": null, "Length,M": null, "Status": null, "Remarks": null, "Latitude (Decimal)": null, "Longitude (Decimal)": null }, "geometry": { "type": "Point", "coordinates": [ 84.728787130489522, 27.797150379753681 ] } },
{ "type": "Feature", "properties": { "S. No.": null, "Bridge Name (Upstream to Downstream)": null, "Bridge Type": "Suspension", "District": null, "Location": null, "Jurisdiction": null, "NH\/Local": null, "Northing (DMS)": null, "Easting (DMS)": null, "Length,M": null, "Status": null, "Remarks": null, "Latitude (Decimal)": null, "Longitude (Decimal)": null }, "geometry": { "type": "Point", "coordinates": [ 84.715414097412093, 27.801612121377936 ] } },
{ "type": "Feature", "properties": { "S. No.": null, "Bridge Name (Upstream to Downstream)": null, "Bridge Type": "Suspension", "District": null, "Location": null, "Jurisdiction": null, "NH\/Local": null, "Northing (DMS)": null, "Easting (DMS)": null, "Length,M": null, "Status": null, "Remarks": null, "Latitude (Decimal)": null, "Longitude (Decimal)": null }, "geometry": { "type": "Point", "coordinates": [ 84.699798063094207, 27.807949240773397 ] } },
{ "type": "Feature", "properties": { "S. No.": null, "Bridge Name (Upstream to Downstream)": null, "Bridge Type": "RCC", "District": null, "Location": null, "Jurisdiction": null, "NH\/Local": null, "Northing (DMS)": null, "Easting (DMS)": null, "Length,M": null, "Status": null, "Remarks": null, "Latitude (Decimal)": null, "Longitude (Decimal)": null }, "geometry": { "type": "Point", "coordinates": [ 84.696900772099511, 27.807203113543547 ] } },
{ "type": "Feature", "properties": { "S. No.": null, "Bridge Name (Upstream to Downstream)": null, "Bridge Type": "Suspension", "District": null, "Location": null, "Jurisdiction": null, "NH\/Local": null, "Northing (DMS)": null, "Easting (DMS)": null, "Length,M": null, "Status": null, "Remarks": null, "Latitude (Decimal)": null, "Longitude (Decimal)": null }, "geometry": { "type": "Point", "coordinates": [ 84.690563398583009, 27.809677737594853 ] } },
{ "type": "Feature", "properties": { "S. No.": null, "Bridge Name (Upstream to Downstream)": null, "Bridge Type": "Suspension", "District": null, "Location": null, "Jurisdiction": null, "NH\/Local": null, "Northing (DMS)": null, "Easting (DMS)": null, "Length,M": null, "Status": null, "Remarks": null, "Latitude (Decimal)": null, "Longitude (Decimal)": null }, "geometry": { "type": "Point", "coordinates": [ 84.677099676682559, 27.815621927856817 ] } },
{ "type": "Feature", "properties": { "S. No.": null, "Bridge Name (Upstream to Downstream)": null, "Bridge Type": "RCC", "District": null, "Location": null, "Jurisdiction": null, "NH\/Local": null, "Northing (DMS)": null, "Easting (DMS)": null, "Length,M": null, "Status": null, "Remarks": null, "Latitude (Decimal)": null, "Longitude (Decimal)": null }, "geometry": { "type": "Point", "coordinates": [ 84.669198597998786, 27.817150989535126 ] } },
{ "type": "Feature", "properties": { "S. No.": null, "Bridge Name (Upstream to Downstream)": null, "Bridge Type": "Suspension", "District": null, "Location": null, "Jurisdiction": null, "NH\/Local": null, "Northing (DMS)": null, "Easting (DMS)": null, "Length,M": null, "Status": null, "Remarks": null, "Latitude (Decimal)": null, "Longitude (Decimal)": null }, "geometry": { "type": "Point", "coordinates": [ 84.667686534505776, 27.821867877719587 ] } },
{ "type": "Feature", "properties": { "S. No.": null, "Bridge Name (Upstream to Downstream)": null, "Bridge Type": "RCC Arch", "District": null, "Location": null, "Jurisdiction": null, "NH\/Local": null, "Northing (DMS)": null, "Easting (DMS)": null, "Length,M": null, "Status": null, "Remarks": null, "Latitude (Decimal)": null, "Longitude (Decimal)": null }, "geometry": { "type": "Point", "coordinates": [ 84.664768189697241, 27.825235258309583 ] } },
{ "type": "Feature", "properties": { "S. No.": null, "Bridge Name (Upstream to Downstream)": null, "Bridge Type": "RCC", "District": null, "Location": null, "Jurisdiction": null, "NH\/Local": null, "Northing (DMS)": null, "Easting (DMS)": null, "Length,M": null, "Status": null, "Remarks": null, "Latitude (Decimal)": null, "Longitude (Decimal)": null }, "geometry": { "type": "Point", "coordinates": [ 84.664858806873852, 27.825340831998844 ] } },
{ "type": "Feature", "properties": { "S. No.": null, "Bridge Name (Upstream to Downstream)": null, "Bridge Type": "Suspension", "District": null, "Location": null, "Jurisdiction": null, "NH\/Local": null, "Northing (DMS)": null, "Easting (DMS)": null, "Length,M": null, "Status": null, "Remarks": null, "Latitude (Decimal)": null, "Longitude (Decimal)": null }, "geometry": { "type": "Point", "coordinates": [ 84.662427892529962, 27.843863334736909 ] } },
{ "type": "Feature", "properties": { "S. No.": null, "Bridge Name (Upstream to Downstream)": null, "Bridge Type": "Suspension", "District": null, "Location": null, "Jurisdiction": null, "NH\/Local": null, "Northing (DMS)": null, "Easting (DMS)": null, "Length,M": null, "Status": null, "Remarks": null, "Latitude (Decimal)": null, "Longitude (Decimal)": null }, "geometry": { "type": "Point", "coordinates": [ 84.651995978085239, 27.85263991788257 ] } },
{ "type": "Feature", "properties": { "S. No.": null, "Bridge Name (Upstream to Downstream)": null, "Bridge Type": "Suspension", "District": null, "Location": null, "Jurisdiction": null, "NH\/Local": null, "Northing (DMS)": null, "Easting (DMS)": null, "Length,M": null, "Status": null, "Remarks": null, "Latitude (Decimal)": null, "Longitude (Decimal)": null }, "geometry": { "type": "Point", "coordinates": [ 84.639887366868308, 27.860001311406737 ] } },
{ "type": "Feature", "properties": { "S. No.": null, "Bridge Name (Upstream to Downstream)": null, "Bridge Type": "RCC", "District": null, "Location": null, "Jurisdiction": null, "NH\/Local": null, "Northing (DMS)": null, "Easting (DMS)": null, "Length,M": null, "Status": null, "Remarks": null, "Latitude (Decimal)": null, "Longitude (Decimal)": null }, "geometry": { "type": "Point", "coordinates": [ 84.633968774533457, 27.860922056095884 ] } },
{ "type": "Feature", "properties": { "S. No.": null, "Bridge Name (Upstream to Downstream)": null, "Bridge Type": "Suspension", "District": null, "Location": null, "Jurisdiction": null, "NH\/Local": null, "Northing (DMS)": null, "Easting (DMS)": null, "Length,M": null, "Status": null, "Remarks": null, "Latitude (Decimal)": null, "Longitude (Decimal)": null }, "geometry": { "type": "Point", "coordinates": [ 84.632095018977822, 27.869494229631083 ] } },
{ "type": "Feature", "properties": { "S. No.": null, "Bridge Name (Upstream to Downstream)": null, "Bridge Type": "Suspension", "District": null, "Location": null, "Jurisdiction": null, "NH\/Local": null, "Northing (DMS)": null, "Easting (DMS)": null, "Length,M": null, "Status": null, "Remarks": null, "Latitude (Decimal)": null, "Longitude (Decimal)": null }, "geometry": { "type": "Point", "coordinates": [ 84.608413676511248, 27.871478792506036 ] } },
{ "type": "Feature", "properties": { "S. No.": null, "Bridge Name (Upstream to Downstream)": null, "Bridge Type": "Suspension", "District": null, "Location": null, "Jurisdiction": null, "NH\/Local": null, "Northing (DMS)": null, "Easting (DMS)": null, "Length,M": null, "Status": null, "Remarks": null, "Latitude (Decimal)": null, "Longitude (Decimal)": null }, "geometry": { "type": "Point", "coordinates": [ 84.593004580269664, 27.878447584731049 ] } },
{ "type": "Feature", "properties": { "S. No.": null, "Bridge Name (Upstream to Downstream)": null, "Bridge Type": "RCC", "District": null, "Location": null, "Jurisdiction": null, "NH\/Local": null, "Northing (DMS)": null, "Easting (DMS)": null, "Length,M": null, "Status": null, "Remarks": null, "Latitude (Decimal)": null, "Longitude (Decimal)": null }, "geometry": { "type": "Point", "coordinates": [ 84.576793123764659, 27.863183480049983 ] } },
{ "type": "Feature", "properties": { "S. No.": null, "Bridge Name (Upstream to Downstream)": null, "Bridge Type": "RCC", "District": null, "Location": null, "Jurisdiction": null, "NH\/Local": null, "Northing (DMS)": null, "Easting (DMS)": null, "Length,M": null, "Status": null, "Remarks": null, "Latitude (Decimal)": null, "Longitude (Decimal)": null }, "geometry": { "type": "Point", "coordinates": [ 84.557141607842482, 27.854050838227547 ] } },
{ "type": "Feature", "properties": { "S. No.": null, "Bridge Name (Upstream to Downstream)": null, "Bridge Type": "RCC", "District": null, "Location": null, "Jurisdiction": null, "NH\/Local": null, "Northing (DMS)": null, "Easting (DMS)": null, "Length,M": null, "Status": null, "Remarks": null, "Latitude (Decimal)": null, "Longitude (Decimal)": null }, "geometry": { "type": "Point", "coordinates": [ 84.558360774154963, 27.850296707508924 ] } },
{ "type": "Feature", "properties": { "S. No.": null, "Bridge Name (Upstream to Downstream)": null, "Bridge Type": "RCC", "District": null, "Location": null, "Jurisdiction": null, "NH\/Local": null, "Northing (DMS)": null, "Easting (DMS)": null, "Length,M": null, "Status": null, "Remarks": null, "Latitude (Decimal)": null, "Longitude (Decimal)": null }, "geometry": { "type": "Point", "coordinates": [ 84.55847266780134, 27.850331592354866 ] } }
]
}
