{
"type": "FeatureCollection",
"name": "Heli_sites",
"crs": { "type": "name", "properties": { "name": "urn:ogc:def:crs:OGC:1.3:CRS84" } },
"features": [
{ "type": "Feature", "properties": { "Description": "Probable Site for Heli", "Longitude": 85.212, "latitude": 28.094, "Group": 1 }, "geometry": { "type": "Point", "coordinates": [ 85.21157779608447, 28.094150873376929 ] } },
{ "type": "Feature", "properties": { "Description": "Probable Site for Heli", "Longitude": 85.199, "latitude": 28.083, "Group": 1 }, "geometry": { "type": "Point", "coordinates": [ 85.198854476442733, 28.082545686970818 ] } },
{ "type": "Feature", "properties": { "Description": "Probable Site for Heli", "Longitude": 85.19, "latitude": 28.088, "Group": 1 }, "geometry": { "type": "Point", "coordinates": [ 85.189955937534592, 28.087742420119024 ] } },
{ "type": "Feature", "properties": { "Description": "Probable Location for Heli", "Longitude": 85.202, "latitude": 28.113, "Group": 1 }, "geometry": { "type": "Point", "coordinates": [ 85.20237873033328, 28.113371101461798 ] } },
{ "type": "Feature", "properties": { "Description": "Probable site for Heli", "Longitude": 85.196, "latitude": 28.084, "Group": 1 }, "geometry": { "type": "Point", "coordinates": [ 85.195789641621332, 28.083730465637011 ] } },
{ "type": "Feature", "properties": { "Description": "Probable location for Heli", "Longitude": 85.191, "latitude": 28.099, "Group": 1 }, "geometry": { "type": "Point", "coordinates": [ 85.19085090410104, 28.098862790242297 ] } }
]
}
