{
"type": "FeatureCollection",
"name": "Hydropower_Status",
"crs": { "type": "name", "properties": { "name": "urn:ogc:def:crs:OGC:1.3:CRS84" } },
"features": [
{ "type": "Feature", "properties": { "name": "Upper Trishuli 3B Audit Tunnel", "district": null, "municipality": null, "wardNo": null, "capacityMW": 37.0, "river": null, "licenseNo": null, "licenseType": "Construction", "promoter": null, "damageStatus": "damaged", "damageSource": "online khabar", "Q": null }, "geometry": { "type": "Point", "coordinates": [ 85.181606105207976, 28.010303700181069 ] } },
{ "type": "Feature", "properties": { "name": "Devighat Hydropower Stations", "district": "NUWAKOT", "municipality": "Bidur", "wardNo": 12, "capacityMW": 14.1, "river": "Trishuli", "licenseNo": "1_gtd", "licenseType": "Operation", "promoter": "Nepal Electricity Authority", "damageStatus": "reported_damaged", "damageSource": "Wikipedia – 2026 Nepal floods (news-sourced summary, 26 Aug 2026): Devighat Hydropower Station listed among damaged facilities", "Q": 45.6 }, "geometry": { "type": "Point", "coordinates": [ 85.133985967484918, 27.88828805526304 ] } },
{ "type": "Feature", "properties": { "name": "Upper Trishuli 3A", "district": "RASUWA", "municipality": "Uttargaya", "wardNo": 2, "capacityMW": 60.0, "river": "Trishuli", "licenseNo": "43", "licenseType": "operational", "promoter": "Nepal Electricity Authority", "damageStatus": "reported_damaged", "damageSource": "Wikipedia – 2026 Nepal floods (news-sourced summary, 26 Aug 2026): Trishuli 3A listed among damaged facilities; a 220kV substation at the Trishuli 3B hub was also reported damaged", "Q": 51.0 }, "geometry": { "type": "Point", "coordinates": [ 85.206736308304627, 28.063171211029736 ] } },
{ "type": "Feature", "properties": { "name": "Upper Trishuli-I Cascade HEP", "district": "RASUWA", "municipality": "Kalika", "wardNo": 1, "capacityMW": 24.6, "river": "Trishuli Ganga", "licenseNo": "1006", "licenseType": "License", "promoter": "Sahan Engineering Concern Pvt. Ltd", "damageStatus": "unknown", "damageSource": null, "Q": null }, "geometry": { "type": "Point", "coordinates": [ 85.20902778, 28.0725 ] } },
{ "type": "Feature", "properties": { "name": "Rasuwagadhi Hydropower Project", "district": "RASUWA", "municipality": "Gosaikunda", "wardNo": null, "capacityMW": 111.0, "river": "Bhote Koshi", "licenseNo": null, "licenseType": "operational", "promoter": "Rasuwagadhi Hydropower Company (NEA subsidiary)", "damageStatus": "reported_damaged", "damageSource": "Wikipedia – 2026 Nepal floods (news-sourced summary, 26 Aug 2026): Rasuwagadhi listed among damaged facilities", "Q": 80.0 }, "geometry": { "type": "Point", "coordinates": [ 85.376824679055403, 28.274192933168468 ] } },
{ "type": "Feature", "properties": { "name": "Langtang Khola Power House", "district": null, "municipality": null, "wardNo": null, "capacityMW": 20.0, "river": null, "licenseNo": null, "licenseType": "Construction", "promoter": null, "damageStatus": "damaged", "damageSource": null, "Q": null }, "geometry": { "type": "Point", "coordinates": [ 85.340465841485084, 28.163866768293243 ] } },
{ "type": "Feature", "properties": { "name": "Mailung Khola Headworks", "district": null, "municipality": null, "wardNo": null, "capacityMW": 5.0, "river": null, "licenseNo": null, "licenseType": "Operational", "promoter": null, "damageStatus": "not damaged", "damageSource": null, "Q": null }, "geometry": { "type": "Point", "coordinates": [ 85.199411879829952, 28.082192599901006 ] } },
{ "type": "Feature", "properties": { "name": "UpperTrihuli3A powerhouse", "district": null, "municipality": null, "wardNo": null, "capacityMW": 60.0, "river": null, "licenseNo": null, "licenseType": "operational", "promoter": null, "damageStatus": "damaged", "damageSource": null, "Q": null }, "geometry": { "type": "Point", "coordinates": [ 85.186212054544839, 28.025332271369642 ] } },
{ "type": "Feature", "properties": { "name": "Trishuli 216MW Headworks", "district": null, "municipality": null, "wardNo": null, "capacityMW": 216.0, "river": null, "licenseNo": null, "licenseType": "Construction", "promoter": null, "damageStatus": "damaged", "damageSource": null, "Q": null }, "geometry": { "type": "Point", "coordinates": [ 85.29661028637102, 28.125938099968337 ] } },
{ "type": "Feature", "properties": { "name": "Chilime Hydropower Intake", "district": null, "municipality": null, "wardNo": null, "capacityMW": 22.1, "river": null, "licenseNo": null, "licenseType": "Operational", "promoter": null, "damageStatus": "not damaged", "damageSource": null, "Q": null }, "geometry": { "type": "Point", "coordinates": [ 85.299948557485649, 28.186507440627736 ] } },
{ "type": "Feature", "properties": { "name": "Sanjen Lower Power House", "district": null, "municipality": null, "wardNo": null, "capacityMW": 42.5, "river": null, "licenseNo": null, "licenseType": "operational", "promoter": null, "damageStatus": "not damaged", "damageSource": null, "Q": null }, "geometry": { "type": "Point", "coordinates": [ 85.299729141288623, 28.185875676327672 ] } },
{ "type": "Feature", "properties": { "name": "Chilime Hydropower Plant Site Office", "district": null, "municipality": null, "wardNo": null, "capacityMW": 22.1, "river": null, "licenseNo": null, "licenseType": "Operational", "promoter": null, "damageStatus": "damaged", "damageSource": null, "Q": null }, "geometry": { "type": "Point", "coordinates": [ 85.340610035733846, 28.166027996567678 ] } },
{ "type": "Feature", "properties": { "name": "Rasuwagadhi Power HOuse", "district": null, "municipality": null, "wardNo": null, "capacityMW": 111.0, "river": null, "licenseNo": null, "licenseType": "operational", "promoter": null, "damageStatus": "damaged", "damageSource": null, "Q": null }, "geometry": { "type": "Point", "coordinates": [ 85.357788495493921, 28.239462437456908 ] } },
{ "type": "Feature", "properties": { "name": "Rasuwa gadhi Hydropower tailrace exit", "district": null, "municipality": null, "wardNo": null, "capacityMW": 111.0, "river": null, "licenseNo": null, "licenseType": "operational", "promoter": null, "damageStatus": "damaged", "damageSource": null, "Q": null }, "geometry": { "type": "Point", "coordinates": [ 85.358987970704362, 28.234571815304587 ] } },
{ "type": "Feature", "properties": { "name": "langtangkhola Hydropower Dam", "district": null, "municipality": null, "wardNo": null, "capacityMW": 20.0, "river": null, "licenseNo": null, "licenseType": "Construction", "promoter": null, "damageStatus": "not damaged", "damageSource": null, "Q": 12.0 }, "geometry": { "type": "Point", "coordinates": [ 85.368818322034372, 28.1517477902458 ] } },
{ "type": "Feature", "properties": { "name": "Upper Trishuli 3B Hydroelectric Project", "district": null, "municipality": null, "wardNo": null, "capacityMW": 37.0, "river": null, "licenseNo": null, "licenseType": "Construction", "promoter": null, "damageStatus": "damaged", "damageSource": null, "Q": 51.0 }, "geometry": { "type": "Point", "coordinates": [ 85.183294834984338, 27.995958689488045 ] } },
{ "type": "Feature", "properties": { "name": "Trishuli Hydropower DAM", "district": null, "municipality": null, "wardNo": null, "capacityMW": 24.0, "river": null, "licenseNo": null, "licenseType": "operational", "promoter": null, "damageStatus": "damaged", "damageSource": null, "Q": 45.66 }, "geometry": { "type": "Point", "coordinates": [ 85.170394604624079, 27.96315933707896 ] } },
{ "type": "Feature", "properties": { "name": "Trishuli Hydropower Power House", "district": null, "municipality": null, "wardNo": null, "capacityMW": 24.0, "river": null, "licenseNo": null, "licenseType": "operational", "promoter": null, "damageStatus": "damaged", "damageSource": null, "Q": null }, "geometry": { "type": "Point", "coordinates": [ 85.145889225853793, 27.921363876568478 ] } },
{ "type": "Feature", "properties": { "name": "Super Trishuli Hydropower Dam", "district": null, "municipality": null, "wardNo": null, "capacityMW": 100.0, "river": null, "licenseNo": null, "licenseType": "Construction", "promoter": null, "damageStatus": "partially damaged", "damageSource": null, "Q": 725.0 }, "geometry": { "type": "Point", "coordinates": [ 84.643840408681797, 27.861201716089816 ] } },
{ "type": "Feature", "properties": { "name": "Middle Trishuli Ganga HEP Project ", "district": null, "municipality": null, "wardNo": null, "capacityMW": 15.625, "river": null, "licenseNo": null, "licenseType": "Construction", "promoter": null, "damageStatus": "damaged", "damageSource": null, "Q": null }, "geometry": { "type": "Point", "coordinates": [ 85.183143669418158, 27.99447258801877 ] } },
{ "type": "Feature", "properties": { "name": "Middle Trishuli Ganga Powerhouse", "district": null, "municipality": null, "wardNo": null, "capacityMW": 15.625, "river": null, "licenseNo": null, "licenseType": "Construction", "promoter": null, "damageStatus": "damaged", "damageSource": null, "Q": null }, "geometry": { "type": "Point", "coordinates": [ 85.18253751429657, 27.973622685319263 ] } }
]
}
