{
"type": "FeatureCollection",
"name": "lake1",
"crs": { "type": "name", "properties": { "name": "urn:ogc:def:crs:EPSG::32645" } },
"features": [
{ "type": "Feature", "properties": { "Area": 197213.588, "Perimeter": 2195.356, "Date": "2026-08-28" }, "geometry": { "type": "Polygon", "coordinates": [ [ [ 353720.18521239340771, 3130846.664148990064859 ], [ 353758.919789418869186, 3130839.370270913466811 ], [ 353778.87469594576396, 3130827.003343692980707 ], [ 353791.025154826580547, 3130808.379570172168314 ], [ 353811.121030769776553, 3130806.592150680255145 ], [ 353824.856835404993035, 3130791.027809267863631 ], [ 353831.027046666713431, 3130789.412208661902696 ], [ 353846.481058009434491, 3130787.682106057181954 ], [ 353840.462725866062101, 3130801.61174530396238 ], [ 353828.312184597016312, 3130820.235474028624594 ], [ 353839.143253596092109, 3130820.101876080501825 ], [ 353871.636458786437288, 3130819.701141676865518 ], [ 353890.222982267499901, 3130821.01144298305735 ], [ 353908.809500045375898, 3130822.321773061994463 ], [ 353908.999265071994159, 3130837.714283100795001 ], [ 353892.130873404094018, 3130850.238122225739062 ], [ 353895.263412821572274, 3130853.278463280294091 ], [ 353916.963436062447727, 3130856.089892731979489 ], [ 353941.758026700350456, 3130858.863217213656753 ], [ 353958.81867961678654, 3130864.139501527417451 ], [ 353966.966218708199449, 3130860.452921666204929 ], [ 353980.436805293196812, 3130863.221061237622052 ], [ 353987.60134339844808, 3130859.546608831733465 ], [ 353989.458485471899621, 3130836.722620627377182 ], [ 353992.458242256718222, 3130828.98823978472501 ], [ 354012.269650022732094, 3130804.112380383070558 ], [ 354032.062181767541915, 3130777.69725005235523 ], [ 354038.061788001446985, 3130762.228434394579381 ], [ 354051.91167564119678, 3130755.89987948583439 ], [ 354062.553233993588947, 3130740.373881569132209 ], [ 354074.950625954777934, 3130741.760708832647651 ], [ 354077.654205690952949, 3130745.689515641424805 ], [ 354081.286075857351534, 3130753.128753996919841 ], [ 354090.561603459529579, 3130751.693845009431243 ], [ 354101.989852172497194, 3130745.389877002220601 ], [ 354107.245257524424233, 3130740.922844133339822 ], [ 354126.043746243871283, 3130722.201619986444712 ], [ 354126.377848319360055, 3130713.392827766481787 ], [ 354126.733624134212732, 3130706.344700047746301 ], [ 354127.537286753766239, 3130699.731289667543024 ], [ 354128.794254914915655, 3130693.992765634320676 ], [ 354135.81414898915682, 3130689.063774168491364 ], [ 354148.703567210934125, 3130657.648405864834785 ], [ 354148.61689001088962, 3130650.605692464392632 ], [ 354146.31786286062561, 3130643.590203227940947 ], [ 354144.49380820337683, 3130639.210285557899624 ], [ 354146.187845517648384, 3130633.026119080837816 ], [ 354147.86021552287275, 3130625.081267253495753 ], [ 354151.712440146133304, 3130614.468157068360597 ], [ 354158.705307510565035, 3130607.338293306995183 ], [ 354164.359935162239708, 3130599.344421573448926 ], [ 354170.511206701397896, 3130595.746820696163923 ], [ 354174.881761790369637, 3130591.290656539611518 ], [ 354180.153512482647784, 3130588.144119746983051 ], [ 354188.927133003948256, 3130581.872827095910907 ], [ 354196.832063918700442, 3130576.932942669373006 ], [ 354200.409381289849989, 3130563.844626839272678 ], [ 354197.99723279743921, 3130554.178728821221739 ], [ 354202.540913308796007, 3130550.700860943645239 ], [ 354203.589143281453289, 3130542.703367083799094 ], [ 354209.174050113128033, 3130530.657754708547145 ], [ 354208.460528133786283, 3130519.259942990262061 ], [ 354208.355303867429029, 3130510.706288357730955 ], [ 354207.718945518950932, 3130505.581144251395017 ], [ 354209.84348476678133, 3130491.867072050459683 ], [ 354206.34801754145883, 3130487.347422660328448 ], [ 354195.456746844341978, 3130487.481409018859267 ], [ 354185.655797568033449, 3130483.039339229464531 ], [ 354178.175806932325941, 3130480.850044821389019 ], [ 354179.440787979168817, 3130467.050859691109508 ], [ 354179.318855287856422, 3130457.140756169799715 ], [ 354178.546324958617333, 3130452.194456323049963 ], [ 354178.433101535832975, 3130442.992206165101379 ], [ 354171.291325403610244, 3130440.956161042675376 ], [ 354161.311997426324524, 3130439.663009389303625 ], [ 354152.729663764708675, 3130436.228754523675889 ], [ 354144.806621408089995, 3130428.538548703305423 ], [ 354139.825662260293029, 3130428.59984860708937 ], [ 354135.425588642945513, 3130418.034388955682516 ], [ 354135.364604737260379, 3130413.079317153897136 ], [ 354135.268773013202008, 3130405.292771609034389 ], [ 354132.344095778884366, 3130398.956988115329295 ], [ 354112.428921486774925, 3130399.910087535623461 ], [ 354096.062871168076526, 3130400.111552401911467 ], [ 354091.7673229733482, 3130398.040506723336875 ], [ 354089.589046941604465, 3130394.5274438993074 ], [ 354090.213468511181418, 3130387.439994035288692 ], [ 354090.855320179194678, 3130381.768279158510268 ], [ 354092.651900966651738, 3130372.139711203053594 ], [ 354092.527394083910622, 3130362.02604471007362 ], [ 354088.785201149992645, 3130358.393857998307794 ], [ 354082.202399305999279, 3130349.27925457758829 ], [ 354080.297340478398837, 3130344.704883088357747 ], [ 354080.229422395932488, 3130339.188325906172395 ], [ 354081.074416205810849, 3130332.740960535593331 ], [ 354084.771342085674405, 3130332.695446157827973 ], [ 354089.279310087789781, 3130323.444282460026443 ], [ 354089.109526541666128, 3130309.652860693167895 ], [ 354087.193145897006616, 3130304.159043725114316 ], [ 354085.265444453514647, 3130297.745794910937548 ], [ 354083.371698931208812, 3130294.090832766145468 ], [ 354090.416670508799143, 3130286.190914635546505 ], [ 354066.874678220774513, 3130281.807568146847188 ], [ 354055.953613939578645, 3130285.057496183551848 ], [ 354040.393203499377705, 3130293.037748702336103 ], [ 354024.736901719763409, 3130293.230563505087048 ], [ 354012.154308108147234, 3130288.712355285417289 ], [ 354005.719122259586584, 3130274.772057488560677 ], [ 353991.494121692725457, 3130264.043168170377612 ], [ 353983.589200362912379, 3130257.909621591679752 ], [ 353974.041880041768309, 3130245.565376047510654 ], [ 353959.855196119577158, 3130237.951493191532791 ], [ 353950.288643448729999, 3130224.049743344541639 ], [ 353940.81803314643912, 3130217.935494201723486 ], [ 353928.216129839420319, 3130211.859838168602437 ], [ 353918.668714996194467, 3130199.515584566164762 ], [ 353892.014381506014615, 3130196.728637678083032 ], [ 353885.790206634323113, 3130199.920846187509596 ], [ 353884.339618509635329, 3130202.144197789952159 ], [ 353882.222636808641255, 3130210.257013299968094 ], [ 353877.131995182833634, 3130216.93617248814553 ], [ 353870.617963549448177, 3130228.043809372466058 ], [ 353864.870015964203048, 3130241.347457544878125 ], [ 353857.662442799657583, 3130256.139398332685232 ], [ 353853.319781118247192, 3130263.544474624097347 ], [ 353846.130364757031202, 3130279.806476784870028 ], [ 353838.183960130321793, 3130294.607495819218457 ], [ 353827.291123848990537, 3130310.179990889504552 ], [ 353821.425416949787177, 3130313.928083108272403 ], [ 353814.109153857571073, 3130319.899517121259123 ], [ 353806.93796132231364, 3130337.631544740870595 ], [ 353807.083024945110083, 3130349.392124847043306 ], [ 353811.534418766328599, 3130350.807514169253409 ], [ 353816.715622249117587, 3130351.478755920659751 ], [ 353816.112734779017046, 3130362.513400287367404 ], [ 353813.977701546042226, 3130369.156054311897606 ], [ 353811.140060887497384, 3130378.74795552669093 ], [ 353808.293358699942473, 3130387.604816471226513 ], [ 353804.005180378910154, 3130399.42003175849095 ], [ 353798.275533847743645, 3130414.193594613112509 ], [ 353797.636400818242691, 3130422.288057862315327 ], [ 353793.438923074980266, 3130441.453549144323915 ], [ 353786.240640105796047, 3130456.980327299796045 ], [ 353781.961580592440441, 3130469.530513356905431 ], [ 353776.241068404284306, 3130485.039031471591443 ], [ 353776.340824867016636, 3130493.124332902021706 ], [ 353779.450463235669304, 3130505.583323613740504 ], [ 353782.541958842077293, 3130516.57225051894784 ], [ 353789.318710408115294, 3130526.78056499408558 ], [ 353791.707598878769204, 3130540.718686661217362 ], [ 353793.266939689172432, 3130547.315671960823238 ], [ 353794.844414543011226, 3130555.382700394839048 ], [ 353794.971363807911985, 3130565.67302194237709 ], [ 353794.971363807911985, 3130565.67302194237709 ], [ 353788.430411530425772, 3130574.575329308398068 ], [ 353781.132469438831322, 3130582.016707010101527 ], [ 353773.971173083875328, 3130590.609976641833782 ], [ 353776.607166375091765, 3130601.368475765455514 ], [ 353779.985282166220713, 3130604.647108286153525 ], [ 353783.353156183788087, 3130607.095789209008217 ], [ 353785.866261101211421, 3130607.894860790111125 ], [ 353789.275090953335166, 3130613.663347523659468 ], [ 353788.53295922477264, 3130621.143198288045824 ], [ 353782.703187418868765, 3130622.045201940927655 ], [ 353777.76914577028947, 3130627.916616559959948 ], [ 353776.182495735934936, 3130634.576803892385215 ], [ 353772.927275630179793, 3130641.257576216012239 ], [ 353772.927275630179793, 3130641.257576216012239 ], [ 353777.119186624884605, 3130642.866004072595388 ], [ 353782.979667950770818, 3130644.453845908865333 ], [ 353783.061588357202709, 3130651.093436065595597 ], [ 353779.765408319886774, 3130654.454404523596168 ], [ 353773.173053858918138, 3130661.176341667305678 ], [ 353766.549983099685051, 3130665.408436588011682 ], [ 353764.118820134084672, 3130671.248952967114747 ], [ 353764.241717606084421, 3130681.2083152057603 ], [ 353766.939152167411521, 3130696.946403687819839 ], [ 353767.031324164476246, 3130704.415910036768764 ], [ 353759.57120821607532, 3130711.552621265407652 ], [ 353756.496346515952609, 3130719.481096147093922 ], [ 353756.600197419174947, 3130727.89637342421338 ], [ 353752.996639951947145, 3130735.831363371107727 ], [ 353752.545828077127226, 3130742.149338142946362 ], [ 353748.420067283790559, 3130750.616798942908645 ], [ 353748.491469356114976, 3130756.402287829201669 ], [ 353747.015714447130449, 3130765.363067625556141 ], [ 353746.081645471509546, 3130775.369221058674157 ], [ 353741.923444829531945, 3130781.206900155171752 ], [ 353741.427201608312316, 3130783.843186896294355 ], [ 353740.982890612678602, 3130790.687089157290757 ], [ 353738.469222457497381, 3130801.238750324118882 ], [ 353738.514663897105493, 3130804.920409960206598 ], [ 353735.446335428627208, 3130813.374781566672027 ], [ 353731.842820910678711, 3130821.309723539743572 ], [ 353726.679184988082852, 3130831.368040720000863 ], [ 353718.859083511400968, 3130840.407084906939417 ], [ 353720.18521239340771, 3130846.664148990064859 ] ] ] } }
]
}
