{
"type": "FeatureCollection",
"name": "new_scratch_layer",
"crs": { "type": "name", "properties": { "name": "urn:ogc:def:crs:OGC:1.3:CRS84" } },
"features": [
{ "type": "Feature", "properties": { "id": "new_scratch_layer.1", "tessellate": -1, "extrude": 0, "visibility": -1 }, "geometry": { "type": "Polygon", "coordinates": [ [ [ 85.498162463955794, 28.309031918923999 ], [ 85.498271664062301, 28.309125492446299 ], [ 85.4983196293623, 28.309207524876701 ], [ 85.498348491582703, 28.309338249929301 ], [ 85.498396228087103, 28.309436580754902 ], [ 85.498456318551106, 28.309529613831401 ], [ 85.498453800251596, 28.309708896437701 ], [ 85.498372698576702, 28.309800376144501 ], [ 85.498267270521893, 28.3098752872021 ], [ 85.498186702847207, 28.3099287371477 ], [ 85.498117496739894, 28.310047515807799 ], [ 85.498091720186494, 28.3101341704768 ], [ 85.498083596718601, 28.310275355849601 ], [ 85.498069563391596, 28.310400175249399 ], [ 85.498061821532204, 28.310514196590901 ], [ 85.498035510446897, 28.310638880868499 ], [ 85.498010039014602, 28.310703804289801 ], [ 85.497947734442207, 28.310768322341701 ], [ 85.497892408438204, 28.310773147082902 ], [ 85.497843068587898, 28.310788904975301 ], [ 85.497750527699495, 28.310820488274999 ], [ 85.497748847956203, 28.3109400099517 ], [ 85.497791514579802, 28.310962214153299 ], [ 85.497840549127702, 28.310968187497899 ], [ 85.497864799191504, 28.310990188976699 ], [ 85.497875397305194, 28.311109845787801 ], [ 85.4977641341181, 28.311162957601201 ], [ 85.497666819604802, 28.311187752932 ], [ 85.497598780826493, 28.311182698531599 ], [ 85.497546363386604, 28.311104623695002 ], [ 85.497468777740906, 28.311086547833 ], [ 85.497454669140694, 28.311051949040401 ], [ 85.497412161854399, 28.310961066957201 ], [ 85.497378596398804, 28.310926253945599 ], [ 85.497310739356394, 28.3109082851065 ], [ 85.4972870839417, 28.310860664884299 ], [ 85.4972593510672, 28.310757029127199 ], [ 85.497231194608702, 28.310683526735499 ], [ 85.497163579833796, 28.310648338760998 ], [ 85.497124787208904, 28.310639300733499 ], [ 85.497091100897293, 28.310613097190998 ], [ 85.497062399859402, 28.310578337671402 ], [ 85.4970289556898, 28.3105349150471 ], [ 85.497010891007605, 28.3104356911449 ], [ 85.496992221075999, 28.310379514909499 ], [ 85.496910135051493, 28.3103355565841 ], [ 85.496901435696898, 28.3102622684093 ], [ 85.496902585788902, 28.310180477839399 ], [ 85.496902948974807, 28.3101546492381 ], [ 85.496923011019703, 28.310111815845001 ], [ 85.496928177852794, 28.310090345578701 ], [ 85.496953164584198, 28.3100432609812 ], [ 85.496978151292794, 28.309996176377901 ], [ 85.497017730509199, 28.309949252464701 ], [ 85.497057128117902, 28.309915242840301 ], [ 85.497125650224206, 28.309885859340199 ], [ 85.497193930220106, 28.3098736948746 ], [ 85.497232964644894, 28.309865513802201 ], [ 85.497252844951802, 28.309835594655102 ], [ 85.497293271187999, 28.309728403903499 ], [ 85.497289133191899, 28.309676693133401 ], [ 85.497289798847206, 28.309629340685799 ], [ 85.497300374362894, 28.309569181042601 ], [ 85.497320738692594, 28.309504823736699 ], [ 85.497330769567597, 28.309483407002499 ], [ 85.497350770793801, 28.309444878299299 ], [ 85.497375515137904, 28.3094150126804 ], [ 85.497410229806405, 28.3093680350832 ], [ 85.497454672742293, 28.3093211645728 ], [ 85.497494130481897, 28.309282850036499 ], [ 85.497548120128201, 28.309249000891601 ], [ 85.497601988740001, 28.309223761261599 ], [ 85.497656220316102, 28.3091726929954 ], [ 85.497671054735093, 28.309155634541099 ], [ 85.497710209856905, 28.309138843781799 ], [ 85.497754471083795, 28.309104887471101 ], [ 85.497774048630603, 28.3090964920803 ], [ 85.497852237808502, 28.3090715200264 ], [ 85.498162463955794, 28.309031918923999 ] ] ] } }
]
}
