{
"type": "FeatureCollection",
"name": "lake2",
"crs": { "type": "name", "properties": { "name": "urn:ogc:def:crs:EPSG::32645" } },
"features": [
{ "type": "Feature", "properties": { "Area": 68573.725, "Perimeter": 1546.214, "Date": "2026-08-28" }, "geometry": { "type": "Polygon", "coordinates": [ [ [ 351249.140069094952196, 3135148.080300072673708 ], [ 351278.082597894710489, 3135122.766045620664954 ], [ 351318.048565793782473, 3135087.610316876322031 ], [ 351350.596237111836672, 3135016.50809926353395 ], [ 351386.679224316496402, 3135004.965636507607996 ], [ 351430.860224474570714, 3134972.529349543619901 ], [ 351422.240151391306426, 3134951.845320977270603 ], [ 351386.052520580589771, 3134955.072114070877433 ], [ 351386.052520580589771, 3134955.072114070877433 ], [ 351377.414947133278474, 3134933.002146270126104 ], [ 351344.797330346540548, 3134887.668691490776837 ], [ 351324.056383368792012, 3134900.404739381745458 ], [ 351299.118532942607999, 3134911.807400162797421 ], [ 351281.216285712027457, 3134928.666298008523881 ], [ 351281.216285712027457, 3134928.666298008523881 ], [ 351256.139144930872135, 3134928.981530825607479 ], [ 351240.744523873319849, 3134923.6304467539303 ], [ 351212.602163026691414, 3134901.805766062811017 ], [ 351200.499309430364519, 3134936.611926407553256 ], [ 351185.174396006274037, 3134936.804667379241437 ], [ 351172.513797339517623, 3134927.260814587585628 ], [ 351159.940351280674804, 3134924.646662328857929 ], [ 351115.411051269446034, 3134929.365385389886796 ], [ 351115.411051269446034, 3134929.365385389886796 ], [ 351086.189257484453265, 3134932.505449065007269 ], [ 351048.643322078161873, 3134938.522691018413752 ], [ 351026.42233153647976, 3134944.347084246575832 ], [ 351009.756601547356695, 3134948.71540548093617 ], [ 350997.078409301699139, 3134937.785804629791528 ], [ 350971.896521132439375, 3134929.786008876748383 ], [ 350946.871733272913843, 3134934.259714385028929 ], [ 350929.074764929478988, 3134959.434761470649391 ], [ 350905.530547257396393, 3134970.820670302957296 ], [ 350887.314517604885623, 3134962.733299697749317 ], [ 350867.810102836112492, 3134962.979128088802099 ], [ 350859.608298593549989, 3134975.557908815797418 ], [ 350866.80125542008318, 3134993.487237027846277 ], [ 350858.599475173628889, 3135006.065987620037049 ], [ 350837.649543690145947, 3135002.171637004707009 ], [ 350815.341378662735224, 3135001.066751630045474 ], [ 350823.892607825458981, 3135016.206592383328825 ], [ 350837.999001468240749, 3135029.890232798177749 ], [ 350864.451661755796522, 3135028.170614955946803 ], [ 350884.008371929987334, 3135032.082560150418431 ], [ 350927.213925207266584, 3135032.924244724214077 ], [ 350966.292346321395598, 3135037.976513621397316 ], [ 350996.872117696562782, 3135032.046765811275691 ], [ 351021.896709720022045, 3135027.573192050680518 ], [ 351059.634268080350012, 3135036.801092000678182 ], [ 351082.046983777545393, 3135046.221982581540942 ], [ 351105.730730531970039, 3135045.923902545124292 ], [ 351123.929027719888836, 3135052.625613473821431 ], [ 351147.647631578729488, 3135055.099464427214116 ], [ 351167.169308885117061, 3135056.240014366339892 ], [ 351184.02668907912448, 3135067.11710169352591 ], [ 351198.16744698502589, 3135083.572926892433316 ], [ 351206.735547424992546, 3135100.098827256821096 ], [ 351218.072501315153204, 3135115.203753340058029 ], [ 351229.513992399326526, 3135138.624153999146074 ], [ 351235.173727190704085, 3135145.483646649401635 ], [ 351249.140069094952196, 3135148.080300072673708 ] ] ] } }
]
}
