{
"type": "FeatureCollection",
"name": "open_spaces",
"crs": { "type": "name", "properties": { "name": "urn:ogc:def:crs:OGC:1.3:CRS84" } },
"features": [
{ "type": "Feature", "properties": { "id": "3691b831-2483-3a01-8ec5-dbb432b6da95", "name": null, "name_en": null, "subtype": "recreation", "class": "pitch", "surface": null, "source": "OpenStreetMap", "adm0_pcode": "NPL", "adm0_name": "Nepal", "adm1_pcode": "NP03", "adm1_name": "Bagmati", "adm2_pcode": "NP0330", "adm2_name": "Dhading", "adm3_pcode": "NP0330410", "adm3_name": "Galchhi", "adm4_pcode": null, "adm4_name": null, "name_latin": null }, "geometry": { "type": "Polygon", "coordinates": [ [ [ 84.9848747, 27.8028826 ], [ 84.9848943, 27.8028153 ], [ 84.9850348, 27.8028472 ], [ 84.9850153, 27.8029145 ], [ 84.9848747, 27.8028826 ] ] ] } },
{ "type": "Feature", "properties": { "id": "aa988277-187d-37bc-83ca-5a4d0638a252", "name": null, "name_en": null, "subtype": "managed", "class": "grass", "surface": null, "source": "OpenStreetMap", "adm0_pcode": "NPL", "adm0_name": "Nepal", "adm1_pcode": "NP03", "adm1_name": "Bagmati", "adm2_pcode": "NP0330", "adm2_name": "Dhading", "adm3_pcode": "NP0330410", "adm3_name": "Galchhi", "adm4_pcode": null, "adm4_name": null, "name_latin": null }, "geometry": { "type": "Polygon", "coordinates": [ [ [ 84.9848559, 27.8023186 ], [ 84.9848726, 27.8020772 ], [ 84.9851201, 27.8021092 ], [ 84.9850994, 27.802336 ], [ 84.9848559, 27.8023186 ] ] ] } },
{ "type": "Feature", "properties": { "id": "98004542-8189-34bb-9683-1d547373e159", "name": null, "name_en": null, "subtype": "agriculture", "class": "meadow", "surface": null, "source": "OpenStreetMap", "adm0_pcode": "NPL", "adm0_name": "Nepal", "adm1_pcode": "NP03", "adm1_name": "Bagmati", "adm2_pcode": "NP0330", "adm2_name": "Dhading", "adm3_pcode": "NP0330407", "adm3_name": "Siddhalek", "adm4_pcode": null, "adm4_name": null, "name_latin": null }, "geometry": { "type": "Polygon", "coordinates": [ [ [ 84.8729904, 27.8057048 ], [ 84.872877, 27.8056241 ], [ 84.8725411, 27.805522 ], [ 84.8728176, 27.8054064 ], [ 84.8731394, 27.8052418 ], [ 84.8733114, 27.805115 ], [ 84.8735265, 27.8048861 ], [ 84.8736321, 27.8046326 ], [ 84.8737282, 27.8050072 ], [ 84.8739177, 27.8052493 ], [ 84.8738715, 27.8053376 ], [ 84.8736055, 27.8051872 ], [ 84.8735341, 27.8051721 ], [ 84.8733708, 27.8054012 ], [ 84.8729904, 27.8057048 ] ] ] } },
{ "type": "Feature", "properties": { "id": "3dd06704-fcf4-33fe-a265-130024e7b523", "name": null, "name_en": null, "subtype": "agriculture", "class": "meadow", "surface": null, "source": "OpenStreetMap", "adm0_pcode": "NPL", "adm0_name": "Nepal", "adm1_pcode": "NP04", "adm1_name": "Gandaki", "adm2_pcode": "NP0436", "adm2_name": "Gorkha", "adm3_pcode": "NP0436409", "adm3_name": "Gandaki", "adm4_pcode": null, "adm4_name": null, "name_latin": null }, "geometry": { "type": "Polygon", "coordinates": [ [ [ 84.6668423, 27.8185292 ], [ 84.6673232, 27.8181218 ], [ 84.6678489, 27.8177992 ], [ 84.6683907, 27.8175738 ], [ 84.6688199, 27.8173223 ], [ 84.6692169, 27.8170638 ], [ 84.6693402, 27.8170543 ], [ 84.6698447, 27.817125 ], [ 84.6697757, 27.8171641 ], [ 84.6697315, 27.8171983 ], [ 84.6696776, 27.8172606 ], [ 84.6696251, 27.8173314 ], [ 84.6695782, 27.8173778 ], [ 84.6695009, 27.8174377 ], [ 84.669418, 27.8174987 ], [ 84.6692896, 27.8175696 ], [ 84.6691211, 27.8176404 ], [ 84.6688974, 27.8177259 ], [ 84.6687593, 27.817765 ], [ 84.6686074, 27.8178138 ], [ 84.6683657, 27.8179079 ], [ 84.6681655, 27.8179897 ], [ 84.6679335, 27.8181131 ], [ 84.6677126, 27.8182401 ], [ 84.6675179, 27.8183598 ], [ 84.6672955, 27.8185185 ], [ 84.6671878, 27.8186077 ], [ 84.6670221, 27.8187384 ], [ 84.6669434, 27.8188263 ], [ 84.6668937, 27.8189399 ], [ 84.666884, 27.8190181 ], [ 84.6668854, 27.8190816 ], [ 84.6669116, 27.8191732 ], [ 84.6669489, 27.8192855 ], [ 84.6669917, 27.8193906 ], [ 84.6670124, 27.8194675 ], [ 84.667, 27.8195029 ], [ 84.6669558, 27.8195261 ], [ 84.6668964, 27.8195298 ], [ 84.6668453, 27.8195139 ], [ 84.6668012, 27.8195176 ], [ 84.6667694, 27.819531 ], [ 84.6667583, 27.8195774 ], [ 84.6667625, 27.8196275 ], [ 84.6668163, 27.8197069 ], [ 84.6668522, 27.8197728 ], [ 84.6668868, 27.8198852 ], [ 84.6669033, 27.8199512 ], [ 84.6669392, 27.8201502 ], [ 84.6669448, 27.8202516 ], [ 84.6669172, 27.8203933 ], [ 84.6668868, 27.8204959 ], [ 84.6668536, 27.8205789 ], [ 84.6668302, 27.8206436 ], [ 84.6668067, 27.8207511 ], [ 84.6668081, 27.8207853 ], [ 84.6668274, 27.8208146 ], [ 84.6668564, 27.8208281 ], [ 84.6669241, 27.8208366 ], [ 84.6669945, 27.8208378 ], [ 84.6670345, 27.8208464 ], [ 84.6670787, 27.820883 ], [ 84.667116, 27.820927 ], [ 84.6671699, 27.8210039 ], [ 84.6672196, 27.8210784 ], [ 84.6672555, 27.8211554 ], [ 84.6672748, 27.821214 ], [ 84.6672734, 27.8212787 ], [ 84.6672914, 27.8213325 ], [ 84.6673259, 27.8213935 ], [ 84.667348, 27.821424 ], [ 84.6674101, 27.821512 ], [ 84.6674447, 27.8215853 ], [ 84.6674695, 27.8216671 ], [ 84.6674612, 27.8217257 ], [ 84.6674474, 27.8218161 ], [ 84.6674173, 27.8219066 ], [ 84.6673701, 27.8220457 ], [ 84.6673245, 27.8221812 ], [ 84.6672472, 27.8223156 ], [ 84.6671892, 27.8224243 ], [ 84.6671132, 27.8225611 ], [ 84.6670414, 27.8227149 ], [ 84.6669517, 27.8229323 ], [ 84.6668757, 27.8231167 ], [ 84.6667929, 27.8233598 ], [ 84.6666534, 27.8236578 ], [ 84.6665871, 27.8238349 ], [ 84.6665112, 27.8240315 ], [ 84.6664035, 27.824222 ], [ 84.666322, 27.8243527 ], [ 84.6662074, 27.8245236 ], [ 84.6661148, 27.8246482 ], [ 84.666041, 27.8247429 ], [ 84.6659919, 27.8248082 ], [ 84.6659194, 27.82489 ], [ 84.6658504, 27.8249633 ], [ 84.6657675, 27.8250665 ], [ 84.6657013, 27.8251489 ], [ 84.6656446, 27.825199 ], [ 84.6655749, 27.8252564 ], [ 84.665501, 27.8253114 ], [ 84.6654603, 27.825348 ], [ 84.6654168, 27.8254011 ], [ 84.6653871, 27.8254451 ], [ 84.6652499, 27.8253521 ], [ 84.6655235, 27.8250034 ], [ 84.6656965, 27.824854 ], [ 84.6657756, 27.8246974 ], [ 84.6658544, 27.8246353 ], [ 84.6659724, 27.8244755 ], [ 84.6660238, 27.8243949 ], [ 84.6661245, 27.824217 ], [ 84.6661156, 27.8241463 ], [ 84.6661245, 27.8240973 ], [ 84.6659714, 27.8240559 ], [ 84.6662316, 27.8237106 ], [ 84.6664998, 27.8232504 ], [ 84.666945, 27.822451 ], [ 84.6671596, 27.8221308 ], [ 84.6672803, 27.8218604 ], [ 84.6672723, 27.8216089 ], [ 84.6670909, 27.821174 ], [ 84.6670527, 27.8211208 ], [ 84.6669392, 27.8210549 ], [ 84.6668232, 27.8210005 ], [ 84.666701, 27.8209447 ], [ 84.6666043, 27.8208678 ], [ 84.6664863, 27.8207367 ], [ 84.6664408, 27.8206139 ], [ 84.666422, 27.8204537 ], [ 84.6663887, 27.8200496 ], [ 84.6663755, 27.81978 ], [ 84.6663892, 27.8194279 ], [ 84.6664809, 27.8190767 ], [ 84.6665708, 27.8188563 ], [ 84.6666677, 27.8187215 ], [ 84.6668423, 27.8185292 ] ] ] } },
{ "type": "Feature", "properties": { "id": "bc4ee14e-2acc-3431-a7ea-6402d3ddc0d5", "name": "River Fun Beach Resort", "name_en": null, "subtype": "recreation", "class": "beach_resort", "surface": null, "source": "OpenStreetMap", "adm0_pcode": "NPL", "adm0_name": "Nepal", "adm1_pcode": "NP03", "adm1_name": "Bagmati", "adm2_pcode": "NP0335", "adm2_name": "Chitawan", "adm3_pcode": "NP0335401", "adm3_name": "Ichchha Kamana", "adm4_pcode": null, "adm4_name": null, "name_latin": "River Fun Beach Resort" }, "geometry": { "type": "Polygon", "coordinates": [ [ [ 84.6358822, 27.8612717 ], [ 84.6359875, 27.8616414 ], [ 84.6354488, 27.8619664 ], [ 84.6349642, 27.8616824 ], [ 84.6349298, 27.8614697 ], [ 84.635144, 27.8612265 ], [ 84.6357506, 27.8609292 ], [ 84.6358822, 27.8612717 ] ] ] } },
{ "type": "Feature", "properties": { "id": "7eebb6dd-c52a-3861-b30c-4bc256850edf", "name": null, "name_en": null, "subtype": "agriculture", "class": "meadow", "surface": null, "source": "OpenStreetMap", "adm0_pcode": "NPL", "adm0_name": "Nepal", "adm1_pcode": "NP03", "adm1_name": "Bagmati", "adm2_pcode": "NP0335", "adm2_name": "Chitawan", "adm3_pcode": "NP0335401", "adm3_name": "Ichchha Kamana", "adm4_pcode": null, "adm4_name": null, "name_latin": null }, "geometry": { "type": "Polygon", "coordinates": [ [ [ 84.62335, 27.8791093 ], [ 84.6238542, 27.8781799 ], [ 84.6240366, 27.8774307 ], [ 84.6243907, 27.8768332 ], [ 84.6248091, 27.8763306 ], [ 84.6252597, 27.8761504 ], [ 84.6255494, 27.8760935 ], [ 84.6258927, 27.8761788 ], [ 84.6261609, 27.8764159 ], [ 84.6264935, 27.8769565 ], [ 84.6266437, 27.8773264 ], [ 84.6265686, 27.8776488 ], [ 84.6264077, 27.8778859 ], [ 84.6259249, 27.8781609 ], [ 84.6253777, 27.8783032 ], [ 84.6246696, 27.8784549 ], [ 84.6241868, 27.8786541 ], [ 84.6237362, 27.8789386 ], [ 84.623468, 27.8792231 ], [ 84.6231783, 27.8794033 ], [ 84.6228565, 27.879574 ], [ 84.6226526, 27.8797542 ], [ 84.6227599, 27.8795076 ], [ 84.6228994, 27.8793464 ], [ 84.6230496, 27.879261 ], [ 84.6232105, 27.8792136 ], [ 84.62335, 27.8791093 ] ] ] } },
{ "type": "Feature", "properties": { "id": "4224344d-5eae-3a0c-9938-5cebb9b04e2f", "name": null, "name_en": null, "subtype": "recreation", "class": "pitch", "surface": "recreation_grass", "source": "OpenStreetMap", "adm0_pcode": "NPL", "adm0_name": "Nepal", "adm1_pcode": "NP03", "adm1_name": "Bagmati", "adm2_pcode": "NP0328", "adm2_name": "Nuwakot", "adm3_pcode": "NP0328301", "adm3_name": "Bidur", "adm4_pcode": null, "adm4_name": null, "name_latin": null }, "geometry": { "type": "Polygon", "coordinates": [ [ [ 85.1128969, 27.8634458 ], [ 85.113286, 27.8631043 ], [ 85.1138712, 27.8636255 ], [ 85.1134821, 27.8639669 ], [ 85.1128969, 27.8634458 ] ] ] } },
{ "type": "Feature", "properties": { "id": "46d72881-af2b-3bab-9c43-71d9db8d182a", "name": null, "name_en": null, "subtype": "agriculture", "class": "meadow", "surface": null, "source": "OpenStreetMap", "adm0_pcode": "NPL", "adm0_name": "Nepal", "adm1_pcode": "NP03", "adm1_name": "Bagmati", "adm2_pcode": "NP0328", "adm2_name": "Nuwakot", "adm3_pcode": "NP0328301", "adm3_name": "Bidur", "adm4_pcode": null, "adm4_name": null, "name_latin": null }, "geometry": { "type": "Polygon", "coordinates": [ [ [ 85.1282776, 27.8824433 ], [ 85.1281596, 27.8823437 ], [ 85.1280625, 27.8821675 ], [ 85.1279397, 27.8820924 ], [ 85.127848, 27.8819542 ], [ 85.1277251, 27.8818506 ], [ 85.1272257, 27.8812998 ], [ 85.1268877, 27.880892 ], [ 85.126641, 27.8802329 ], [ 85.126582, 27.8798251 ], [ 85.1265551, 27.8791897 ], [ 85.1264425, 27.8786966 ], [ 85.1263727, 27.8781276 ], [ 85.1265015, 27.8779047 ], [ 85.1265557, 27.8776399 ], [ 85.1265069, 27.8774732 ], [ 85.1265551, 27.877274 ], [ 85.1265712, 27.8770844 ], [ 85.1264854, 27.8766671 ], [ 85.1264747, 27.8763446 ], [ 85.1264055, 27.8760371 ], [ 85.1262333, 27.8756807 ], [ 85.1260992, 27.8753014 ], [ 85.1260455, 27.8751354 ], [ 85.126244, 27.8751544 ], [ 85.1263781, 27.8752635 ], [ 85.1265873, 27.8752587 ], [ 85.1267434, 27.8752689 ], [ 85.1269092, 27.8753204 ], [ 85.1269843, 27.8754484 ], [ 85.1270379, 27.875529 ], [ 85.1272209, 27.8755866 ], [ 85.1274027, 27.8757139 ], [ 85.1276607, 27.875819 ], [ 85.1282133, 27.8760893 ], [ 85.1284694, 27.8762427 ], [ 85.1286955, 27.8764252 ], [ 85.1288457, 27.8767477 ], [ 85.1290067, 27.8768899 ], [ 85.1290287, 27.8771277 ], [ 85.1291354, 27.8773357 ], [ 85.1292642, 27.8774447 ], [ 85.1292159, 27.8775064 ], [ 85.1289262, 27.8774732 ], [ 85.1287438, 27.8774305 ], [ 85.1285829, 27.8774637 ], [ 85.1285561, 27.877587 ], [ 85.1285668, 27.8777719 ], [ 85.1283415, 27.8778051 ], [ 85.1283039, 27.8779521 ], [ 85.1283228, 27.8780631 ], [ 85.1283581, 27.8782705 ], [ 85.128422, 27.8784974 ], [ 85.1286478, 27.8787589 ], [ 85.1280786, 27.8789052 ], [ 85.1280284, 27.8793182 ], [ 85.1279438, 27.8797498 ], [ 85.1278962, 27.8799958 ], [ 85.1278431, 27.8800677 ], [ 85.1276983, 27.8801672 ], [ 85.1276173, 27.8803704 ], [ 85.1276025, 27.8807597 ], [ 85.1277037, 27.8811156 ], [ 85.1278592, 27.88131 ], [ 85.1278539, 27.8814902 ], [ 85.128096, 27.8816917 ], [ 85.1282878, 27.881921 ], [ 85.1286606, 27.8821755 ], [ 85.1285673, 27.8822346 ], [ 85.1282776, 27.8824433 ] ] ] } },
{ "type": "Feature", "properties": { "id": "f5721733-5c9e-33c8-bf40-34485f320494", "name": "football ground/paila ko pokhari", "name_en": null, "subtype": "recreation", "class": "pitch", "surface": "recreation_grass", "source": "OpenStreetMap", "adm0_pcode": "NPL", "adm0_name": "Nepal", "adm1_pcode": "NP03", "adm1_name": "Bagmati", "adm2_pcode": "NP0328", "adm2_name": "Nuwakot", "adm3_pcode": "NP0328301", "adm3_name": "Bidur", "adm4_pcode": null, "adm4_name": null, "name_latin": "football ground/paila ko pokhari" }, "geometry": { "type": "Polygon", "coordinates": [ [ [ 85.1404998, 27.8923521 ], [ 85.1413017, 27.892051 ], [ 85.141468, 27.8924446 ], [ 85.1406634, 27.8927361 ], [ 85.1404998, 27.8923521 ] ] ] } },
{ "type": "Feature", "properties": { "id": "32c31061-64c6-33b6-a6b8-9dcbbe831dbd", "name": null, "name_en": null, "subtype": "agriculture", "class": "meadow", "surface": null, "source": "OpenStreetMap", "adm0_pcode": "NPL", "adm0_name": "Nepal", "adm1_pcode": "NP03", "adm1_name": "Bagmati", "adm2_pcode": "NP0328", "adm2_name": "Nuwakot", "adm3_pcode": "NP0328301", "adm3_name": "Bidur", "adm4_pcode": null, "adm4_name": null, "name_latin": null }, "geometry": { "type": "Polygon", "coordinates": [ [ [ 85.1493027, 27.9203858 ], [ 85.1493456, 27.920381 ], [ 85.1495052, 27.9203985 ], [ 85.1495991, 27.9204199 ], [ 85.1496662, 27.9204602 ], [ 85.1497064, 27.9205052 ], [ 85.1497439, 27.9205858 ], [ 85.1497855, 27.9206536 ], [ 85.1498365, 27.9206986 ], [ 85.1499156, 27.9207303 ], [ 85.1500537, 27.9207531 ], [ 85.1502884, 27.9208086 ], [ 85.1505969, 27.9208939 ], [ 85.1504775, 27.9210446 ], [ 85.1502388, 27.9209451 ], [ 85.1501101, 27.9210612 ], [ 85.1499961, 27.920965 ], [ 85.149238, 27.9205937 ], [ 85.1491954, 27.9204829 ], [ 85.1493027, 27.9203858 ] ] ] } },
{ "type": "Feature", "properties": { "id": "1b573bb1-86f6-3cdb-b71f-db2674573acd", "name": null, "name_en": null, "subtype": "agriculture", "class": "meadow", "surface": null, "source": "OpenStreetMap", "adm0_pcode": "NPL", "adm0_name": "Nepal", "adm1_pcode": "NP03", "adm1_name": "Bagmati", "adm2_pcode": "NP0330", "adm2_name": "Dhading", "adm3_pcode": "NP0330410", "adm3_name": "Galchhi", "adm4_pcode": null, "adm4_name": null, "name_latin": null }, "geometry": { "type": "Polygon", "coordinates": [ [ [ 85.0058502, 27.8053941 ], [ 85.0059253, 27.8053988 ], [ 85.0061644, 27.8054771 ], [ 85.0062985, 27.8055388 ], [ 85.006387, 27.8055815 ], [ 85.0071162, 27.8057761 ], [ 85.0071917, 27.8057191 ], [ 85.0072449, 27.8057238 ], [ 85.0075139, 27.8057523 ], [ 85.0074568, 27.8058164 ], [ 85.0074032, 27.8060299 ], [ 85.007143, 27.805992 ], [ 85.0070491, 27.8060157 ], [ 85.0069905, 27.806298 ], [ 85.0068913, 27.8063787 ], [ 85.0068242, 27.8063455 ], [ 85.0068211, 27.8060774 ], [ 85.0068054, 27.8059208 ], [ 85.0067192, 27.8059469 ], [ 85.0066521, 27.8062553 ], [ 85.0065882, 27.8063051 ], [ 85.0064272, 27.8062672 ], [ 85.0061992, 27.8062007 ], [ 85.0057375, 27.8060584 ], [ 85.0058019, 27.8058567 ], [ 85.0057992, 27.8057334 ], [ 85.0056919, 27.8057001 ], [ 85.0057295, 27.8056029 ], [ 85.0058019, 27.8054439 ], [ 85.0058502, 27.8053941 ] ] ] } },
{ "type": "Feature", "properties": { "id": "b3270a3d-1205-3d60-ba2c-ad0c96dbae5c", "name": null, "name_en": null, "subtype": "agriculture", "class": "meadow", "surface": null, "source": "OpenStreetMap", "adm0_pcode": "NPL", "adm0_name": "Nepal", "adm1_pcode": "NP03", "adm1_name": "Bagmati", "adm2_pcode": "NP0330", "adm2_name": "Dhading", "adm3_pcode": "NP0330410", "adm3_name": "Galchhi", "adm4_pcode": null, "adm4_name": null, "name_latin": null }, "geometry": { "type": "Polygon", "coordinates": [ [ [ 85.0035542, 27.8096739 ], [ 85.003581, 27.8095648 ], [ 85.0037393, 27.8093892 ], [ 85.0038546, 27.8093085 ], [ 85.0038734, 27.8092469 ], [ 85.0037397, 27.8091331 ], [ 85.003627, 27.8090287 ], [ 85.003632, 27.8089645 ], [ 85.0036642, 27.8088768 ], [ 85.0037232, 27.8087083 ], [ 85.0037393, 27.8085944 ], [ 85.0037366, 27.8084782 ], [ 85.0038707, 27.8084284 ], [ 85.0038707, 27.8083857 ], [ 85.0038224, 27.8082647 ], [ 85.0038224, 27.8081223 ], [ 85.00386, 27.8079918 ], [ 85.0039677, 27.8078022 ], [ 85.0039677, 27.8077262 ], [ 85.0040397, 27.8076739 ], [ 85.004155, 27.8076312 ], [ 85.0041818, 27.8075079 ], [ 85.0042435, 27.8072848 ], [ 85.0042891, 27.807235 ], [ 85.0045117, 27.8071781 ], [ 85.0045815, 27.8071069 ], [ 85.0047236, 27.8069646 ], [ 85.0047473, 27.8069581 ], [ 85.0048014, 27.8069432 ], [ 85.0048528, 27.8069955 ], [ 85.0047585, 27.8070595 ], [ 85.0046968, 27.8071472 ], [ 85.0046516, 27.8072399 ], [ 85.0046834, 27.8072967 ], [ 85.0046704, 27.8073846 ], [ 85.0046114, 27.8074178 ], [ 85.0045014, 27.8074321 ], [ 85.0043964, 27.8074391 ], [ 85.0043428, 27.8075079 ], [ 85.0043351, 27.8076313 ], [ 85.0043271, 27.8077784 ], [ 85.0043566, 27.8079113 ], [ 85.0043539, 27.807992 ], [ 85.0042815, 27.8080252 ], [ 85.004201, 27.8079943 ], [ 85.0041179, 27.8079753 ], [ 85.0040504, 27.8080037 ], [ 85.0040289, 27.8081413 ], [ 85.0041201, 27.8082457 ], [ 85.0041286, 27.8083502 ], [ 85.0041067, 27.8084995 ], [ 85.0040213, 27.8086254 ], [ 85.0039726, 27.8087107 ], [ 85.0039328, 27.8087938 ], [ 85.0039623, 27.8089148 ], [ 85.0040182, 27.8091259 ], [ 85.0041018, 27.8093063 ], [ 85.0040906, 27.8093987 ], [ 85.004024, 27.8095103 ], [ 85.0040535, 27.8096052 ], [ 85.0040075, 27.8097593 ], [ 85.0038573, 27.809942 ], [ 85.003758, 27.8098874 ], [ 85.0035971, 27.8097664 ], [ 85.0035542, 27.8096739 ] ] ] } },
{ "type": "Feature", "properties": { "id": "395a5cb8-af76-33a5-981c-79e85d6778f9", "name": "Summit River Lodge", "name_en": null, "subtype": "recreation", "class": "resort", "surface": null, "source": "OpenStreetMap", "adm0_pcode": "NPL", "adm0_name": "Nepal", "adm1_pcode": "NP03", "adm1_name": "Bagmati", "adm2_pcode": "NP0335", "adm2_name": "Chitawan", "adm3_pcode": "NP0335401", "adm3_name": "Ichchha Kamana", "adm4_pcode": null, "adm4_name": null, "name_latin": "Summit River Lodge" }, "geometry": { "type": "Polygon", "coordinates": [ [ [ 84.6124128, 27.879332 ], [ 84.61241, 27.8792277 ], [ 84.6125488, 27.8792249 ], [ 84.6125516, 27.8793292 ], [ 84.6124128, 27.879332 ] ] ] } },
{ "type": "Feature", "properties": { "id": "7306aae6-a85c-362f-a3b6-ccbc3f26cb8d", "name": "Summit River Lodge", "name_en": null, "subtype": "recreation", "class": "resort", "surface": null, "source": "OpenStreetMap", "adm0_pcode": "NPL", "adm0_name": "Nepal", "adm1_pcode": "NP04", "adm1_name": "Gandaki", "adm2_pcode": "NP0436", "adm2_name": "Gorkha", "adm3_pcode": "NP0436408", "adm3_name": "Shahid Lakhan", "adm4_pcode": null, "adm4_name": null, "name_latin": "Summit River Lodge" }, "geometry": { "type": "Polygon", "coordinates": [ [ [ 84.6129048, 27.8798979 ], [ 84.6126657, 27.8799189 ], [ 84.6122339, 27.8798115 ], [ 84.612009, 27.8797276 ], [ 84.611962, 27.8795932 ], [ 84.6121, 27.8794541 ], [ 84.6122008, 27.879249 ], [ 84.6125116, 27.8791347 ], [ 84.6126416, 27.8791876 ], [ 84.6126533, 27.8793474 ], [ 84.6128971, 27.8795067 ], [ 84.612945, 27.8793108 ], [ 84.61294, 27.8792152 ], [ 84.613018, 27.8791596 ], [ 84.613111, 27.8791685 ], [ 84.6132117, 27.8792819 ], [ 84.6132167, 27.8794732 ], [ 84.6132444, 27.8796155 ], [ 84.6134003, 27.8797956 ], [ 84.6133956, 27.8799789 ], [ 84.613184, 27.8799779 ], [ 84.6129048, 27.8798979 ] ] ] } },
{ "type": "Feature", "properties": { "id": "b007a2fd-4a54-3b1e-b4a5-b0d7aa3592d9", "name": null, "name_en": null, "subtype": "agriculture", "class": "meadow", "surface": null, "source": "OpenStreetMap", "adm0_pcode": "NPL", "adm0_name": "Nepal", "adm1_pcode": "NP03", "adm1_name": "Bagmati", "adm2_pcode": "NP0329", "adm2_name": "Rasuwa", "adm3_pcode": "NP0329402", "adm3_name": "Gosaikunda", "adm4_pcode": null, "adm4_name": null, "name_latin": null }, "geometry": { "type": "Polygon", "coordinates": [ [ [ 85.240068, 28.0925824 ], [ 85.2397515, 28.092166 ], [ 85.2396952, 28.0920973 ], [ 85.2399178, 28.0920784 ], [ 85.2400144, 28.0920216 ], [ 85.2399393, 28.0919199 ], [ 85.2400788, 28.0918678 ], [ 85.2401406, 28.0918831 ], [ 85.2402129, 28.0919009 ], [ 85.2403316, 28.0919601 ], [ 85.2403336, 28.0921612 ], [ 85.2406162, 28.092079 ], [ 85.2408787, 28.0921802 ], [ 85.2407688, 28.0925374 ], [ 85.240068, 28.0925824 ] ] ] } }
]
}
