{
"type": "FeatureCollection",
"name": "lake1",
"crs": { "type": "name", "properties": { "name": "urn:ogc:def:crs:OGC:1.3:CRS84" } },
"features": [
{ "type": "Feature", "properties": { "Area": 197213.588, "Perimeter": 2195.356, "Date": "2026-08-28" }, "geometry": { "type": "Polygon", "coordinates": [ [ [ 85.508248284385061, 28.295560896379904 ], [ 85.508644105074367, 28.295499391828464 ], [ 85.508849103073899, 28.295390016777787 ], [ 85.508975320755241, 28.295223311710874 ], [ 85.509180424487454, 28.295209419610178 ], [ 85.509322419379004, 28.295070498503474 ], [ 85.509385528219696, 28.295056606382836 ], [ 85.509543300321397, 28.29504271426039 ], [ 85.509480191480691, 28.295167743297217 ], [ 85.50935397379935, 28.295334448451179 ], [ 85.509464414270553, 28.295334448451179 ], [ 85.509795735684122, 28.295334448451175 ], [ 85.509985062206141, 28.29534834053554 ], [ 85.510174388728188, 28.295362232618121 ], [ 85.510174388728188, 28.295501153344013 ], [ 85.510000839416335, 28.295612289794189 ], [ 85.510032393836639, 28.295640073888595 ], [ 85.510253274779032, 28.295667857975761 ], [ 85.510505710141743, 28.295695642055655 ], [ 85.510678982678158, 28.295745151906626 ], [ 85.51076251108833, 28.295712790863519 ], [ 85.51089949768101, 28.295739268081334 ], [ 85.510973002681965, 28.295706907036436 ], [ 85.510994803657027, 28.295501153344016 ], [ 85.511026358077387, 28.295431693003728 ], [ 85.511231461809601, 28.295209419610181 ], [ 85.511436565541814, 28.294973253620899 ], [ 85.511499674382492, 28.294834332205944 ], [ 85.511641669274013, 28.294778763589189 ], [ 85.511752109745217, 28.294639841920361 ], [ 85.511878327426544, 28.294653734095416 ], [ 85.511905397288615, 28.294689487486245 ], [ 85.511941490437977, 28.294757021636141 ], [ 85.512036234955175, 28.294745103848104 ], [ 85.512153537690736, 28.294689487486245 ], [ 85.512207677414807, 28.294649761495698 ], [ 85.512401678092843, 28.294482912173482 ], [ 85.512406189736552, 28.294403460023343 ], [ 85.512410701380205, 28.294339898260546 ], [ 85.512419724667566, 28.294280309073443 ], [ 85.512433259598566, 28.294228665084297 ], [ 85.512505445897403, 28.29418496630468 ], [ 85.512640795207645, 28.293902910113697 ], [ 85.512640795207645, 28.293839348051968 ], [ 85.512618236989269, 28.293775785952281 ], [ 85.512600190414574, 28.293736059620709 ], [ 85.512618236989269, 28.293680442731588 ], [ 85.51263628356395, 28.293608935260014 ], [ 85.512676888357049, 28.293513591889859 ], [ 85.512749074655844, 28.293450029595636 ], [ 85.512807726023595, 28.293378521969263 ], [ 85.512870889035071, 28.293346740786568 ], [ 85.512916005471823, 28.293307014294864 ], [ 85.512970145195908, 28.293279205741847 ], [ 85.513060378069412, 28.293223588614005 ], [ 85.513141587655568, 28.293179889421737 ], [ 85.513179699624089, 28.293062179444288 ], [ 85.513156320391644, 28.29297468794492 ], [ 85.513203078856534, 28.292943808575025 ], [ 85.513214768472764, 28.292871756677105 ], [ 85.513273216553927, 28.292763678738787 ], [ 85.513267371745812, 28.292660747266922 ], [ 85.513267371745812, 28.292583548597712 ], [ 85.513261526937711, 28.292537229369312 ], [ 85.513284906170156, 28.292413711328365 ], [ 85.513249837321482, 28.292372538616192 ], [ 85.5131387859673, 28.292372538616185 ], [ 85.513039424229348, 28.292331365888096 ], [ 85.512963441723869, 28.292310779518079 ], [ 85.512978068886682, 28.292186398052891 ], [ 85.512978068886682, 28.292096957126056 ], [ 85.512970813542893, 28.292052236634436 ], [ 85.512970813542893, 28.291969184243051 ], [ 85.512898260104663, 28.291950018297381 ], [ 85.512796685291107, 28.291937240998333 ], [ 85.512709621165257, 28.291905297744041 ], [ 85.512629812383196, 28.291835022550835 ], [ 85.512579024976446, 28.291835022550835 ], [ 85.512535492913514, 28.291739192667151 ], [ 85.512535492913514, 28.291694472025231 ], [ 85.512535492913514, 28.291624196692851 ], [ 85.512506471538202, 28.291566698659121 ], [ 85.512303321911162, 28.29157308733107 ], [ 85.512136449003236, 28.291573087331066 ], [ 85.51209291694029, 28.29155392131408 ], [ 85.512071150908838, 28.291521977944747 ], [ 85.512078406252655, 28.291458091177322 ], [ 85.512085661596473, 28.291406981735783 ], [ 85.512105185675267, 28.291320294494497 ], [ 85.512105185675267, 28.291229016374984 ], [ 85.512067490983611, 28.291195824312112 ], [ 85.512001525273078, 28.291112844109673 ], [ 85.511982677927222, 28.291071353984186 ], [ 85.511982677927222, 28.291021565812276 ], [ 85.511992101600129, 28.29096347958226 ], [ 85.512029796291841, 28.29096347958226 ], [ 85.512076914656532, 28.290880499198707 ], [ 85.512076914656532, 28.290756028502088 ], [ 85.512058067310662, 28.290706240182676 ], [ 85.512039219964791, 28.290648153780602 ], [ 85.512020372618935, 28.290614961536626 ], [ 85.512093185078626, 28.290544456430734 ], [ 85.511853733135453, 28.290502286273409 ], [ 85.511741988895295, 28.290530399713461 ], [ 85.511582354266523, 28.290600683281152 ], [ 85.51142271963775, 28.290600683281152 ], [ 85.511295011934763, 28.290558513146113 ], [ 85.511231158083262, 28.290432002640763 ], [ 85.511087486917347, 28.290333605477109 ], [ 85.511007669602975, 28.290277378485609 ], [ 85.510911888825689, 28.290164924413521 ], [ 85.510768217659816, 28.290094640558145 ], [ 85.510672436882572, 28.289968129501528 ], [ 85.5105766561053, 28.289911902316984 ], [ 85.510448948402285, 28.28985567510275 ], [ 85.510353167625027, 28.289743220585191 ], [ 85.510081788756111, 28.289715106937226 ], [ 85.51001793490461, 28.289743220585187 ], [ 85.510002867386632, 28.289763122413671 ], [ 85.509980266109679, 28.289836095752914 ], [ 85.509927529796784, 28.28989580117512 ], [ 85.50985972596591, 28.28999531013768 ], [ 85.509799455894054, 28.290114720769985 ], [ 85.509724118304192, 28.290247399093214 ], [ 85.509678915750257, 28.290313738192829 ], [ 85.509603578160451, 28.290459684066445 ], [ 85.509520706811614, 28.290592361959728 ], [ 85.509407700426848, 28.29073167356972 ], [ 85.509347430354964, 28.290764842973793 ], [ 85.509272092765102, 28.290817913998819 ], [ 85.509196755175282, 28.290977126915134 ], [ 85.509196755175282, 28.29108326872705 ], [ 85.509241957729188, 28.291096536446101 ], [ 85.509294694042083, 28.291103170305 ], [ 85.509287160283094, 28.291202678138962 ], [ 85.509264559006141, 28.291262382794674 ], [ 85.50923442397017, 28.291348622793819 ], [ 85.509204288934257, 28.291428228884872 ], [ 85.50915908638035, 28.291534370247003 ], [ 85.509098816308494, 28.291667046800818 ], [ 85.509091282549491, 28.291740018834929 ], [ 85.509046079995585, 28.291912497989429 ], [ 85.508970742405737, 28.292051807871715 ], [ 85.50892553985183, 28.292164582404812 ], [ 85.508865269779974, 28.292303891957186 ], [ 85.508865269779974, 28.292376863554729 ], [ 85.50889540481586, 28.292489637743429 ], [ 85.50892553985183, 28.292589144281287 ], [ 85.50899334368269, 28.292682016966047 ], [ 85.509015944959657, 28.292808058337158 ], [ 85.509031012477621, 28.292867762092435 ], [ 85.509046079995585, 28.292940733303404 ], [ 85.509046079995585, 28.29303360568138 ], [ 85.509046079995585, 28.29303360568138 ], [ 85.508978276164697, 28.293113210512299 ], [ 85.508902938574877, 28.293179547825897 ], [ 85.508828849080999, 28.293256294798613 ], [ 85.508854369423489, 28.293353671286539 ], [ 85.508888396546766, 28.293383633264906 ], [ 85.508922423670086, 28.293406104743134 ], [ 85.508947944012561, 28.293413595234831 ], [ 85.508981971135881, 28.293466028661918 ], [ 85.508973464355066, 28.293533443030199 ], [ 85.508913916889256, 28.293540933512926 ], [ 85.508862876204276, 28.293593366877275 ], [ 85.508845862642659, 28.293653290690614 ], [ 85.508811835519339, 28.29371321447022 ], [ 85.508811835519339, 28.29371321447022 ], [ 85.508854369423489, 28.293728195409862 ], [ 85.508913916889256, 28.293743176347355 ], [ 85.508913916889256, 28.293803100076371 ], [ 85.508879889765936, 28.293833061928225 ], [ 85.508811835519339, 28.293892985606622 ], [ 85.508743781272727, 28.293930437888491 ], [ 85.508718260930223, 28.293982871060962 ], [ 85.508718260930223, 28.294072756439377 ], [ 85.508743781272727, 28.294215074799993 ], [ 85.508743781272727, 28.294282488693852 ], [ 85.508666827654679, 28.294346058509582 ], [ 85.508634481968528, 28.294417261378861 ], [ 85.508634481968528, 28.294493211053585 ], [ 85.508596745334671, 28.294564413824425 ], [ 85.508591354386951, 28.294621376006781 ], [ 85.508548226805416, 28.294697325535857 ], [ 85.508548226805416, 28.294749540805643 ], [ 85.508532053962341, 28.294830237081303 ], [ 85.508521272066986, 28.294920426964051 ], [ 85.508478144485409, 28.294972642124399 ], [ 85.508472753537731, 28.294996376279727 ], [ 85.508467362590011, 28.295058085058784 ], [ 85.50844040785158, 28.295153021572126 ], [ 85.50844040785158, 28.295186249331788 ], [ 85.508408062165387, 28.295262198457763 ], [ 85.508370325531573, 28.295333400714146 ], [ 85.508316416054598, 28.295423590170511 ], [ 85.508235551839235, 28.295504285935117 ], [ 85.508248284385061, 28.295560896379904 ] ] ] } }
]
}
