{
"type": "FeatureCollection",
"name": "lake2",
"crs": { "type": "name", "properties": { "name": "urn:ogc:def:crs:OGC:1.3:CRS84" } },
"features": [
{ "type": "Feature", "properties": { "Area": 68573.725, "Perimeter": 1546.214, "Date": "2026-08-28" }, "geometry": { "type": "Polygon", "coordinates": [ [ [ 85.482504883489071, 28.334098025913672 ], [ 85.482803303817491, 28.333872881591226 ], [ 85.483215408080454, 28.333560180351995 ], [ 85.48355645988434, 28.332922266970566 ], [ 85.483925932671838, 28.332822201778953 ], [ 85.484380668410353, 28.332534513828183 ], [ 85.484295405459378, 28.332346890831978 ], [ 85.483925932671838, 28.332371907250632 ], [ 85.483925932671838, 28.332371907250632 ], [ 85.483840669720891, 28.332171775736658 ], [ 85.483513828408874, 28.331759003298771 ], [ 85.483300671031458, 28.331871577759014 ], [ 85.483044882178532, 28.331971643845794 ], [ 85.48286014578477, 28.332121742799281 ], [ 85.48286014578477, 28.332121742799281 ], [ 85.482604356931901, 28.332121742799284 ], [ 85.482448041521792, 28.332071709838356 ], [ 85.482163831685213, 28.331871577759014 ], [ 85.4820359372588, 28.332184283967322 ], [ 85.481879621848677, 28.332184283967326 ], [ 85.481751727422221, 28.332096726321755 ], [ 85.481623832995766, 28.332071709838349 ], [ 85.481169097257293, 28.332109234561258 ], [ 85.481169097257293, 28.332109234561258 ], [ 85.480870676928902, 28.332134251035825 ], [ 85.480486993649578, 28.332184283967319 ], [ 85.480259625780334, 28.332234316875269 ], [ 85.480089099878384, 28.332271841540752 ], [ 85.479961205451957, 28.332171775736661 ], [ 85.47970541659906, 28.332096726321755 ], [ 85.479449627746177, 28.332134251035828 ], [ 85.479264891352415, 28.332359399042041 ], [ 85.479023312991345, 28.332459464669451 ], [ 85.478838576597582, 28.332384415457728 ], [ 85.478639629711978, 28.332384415457735 ], [ 85.478554366761031, 28.332496989255446 ], [ 85.478625419220137, 28.332659595641612 ], [ 85.47854015626919, 28.332772169147816 ], [ 85.478326998891788, 28.332734644658984 ], [ 85.478099631022516, 28.332722136493114 ], [ 85.478184893973506, 28.332859726236833 ], [ 85.478326998891788, 28.332984807667476 ], [ 85.478596998236512, 28.33297229953104 ], [ 85.478795945122073, 28.333009823935932 ], [ 85.479236470368733, 28.333022332067959 ], [ 85.479634364139898, 28.333072364581298 ], [ 85.47994699496013, 28.333022332067955 ], [ 85.480202783813027, 28.332984807667472 ], [ 85.480586467092365, 28.333072364581302 ], [ 85.480813834961623, 28.333159921422997 ], [ 85.481055413322665, 28.333159921422993 ], [ 85.481240149716442, 28.333222461980039 ], [ 85.481481728077526, 28.333247478192547 ], [ 85.481680674963101, 28.3332599862966 ], [ 85.481851200865037, 28.333360051075957 ], [ 85.481993305783291, 28.333510148068317 ], [ 85.482078568734281, 28.333660244848673 ], [ 85.482192252668895, 28.33379783337773 ], [ 85.48230593660351, 28.334010469844969 ], [ 85.482362778570817, 28.334073009901406 ], [ 85.482504883489071, 28.334098025913672 ] ] ] } }
]
}
