{
"type": "FeatureCollection",
"name": "blocking_issues",
"crs": { "type": "name", "properties": { "name": "urn:ogc:def:crs:OGC:1.3:CRS84" } },
"features": [
{ "type": "Feature", "properties": { "fid_1": 1.0, "project_na": "Babai IP", "chainage_s": "2+030", "chainage_e": "2+055", "Issue_type": "Community dispute", "issue_desc": "Land Owner refused to allow for construction although compensation already received by him.", "Severity": "Medium", "responsibl": "CDO office, Municipality", "status": "Pending", "photo": null, "remarks": "Hasanpur Branch of Contract no.BIP/WORKS/NCB-01/080/081", "layer": null, "path": null }, "geometry": { "type": "Point", "coordinates": [ 81.314453682200721, 28.218354056858196 ] } },
{ "type": "Feature", "properties": { "fid_1": 2.0, "project_na": "Babai IP", "chainage_s": "2+085", "chainage_e": "2+212", "Issue_type": "Conservation area", "issue_desc": "Suspension of contract works within Krishnashar Conservation Area(Canal construction in 150 m have been suspended).  (Lengthy process of EMP amendment.)", "Severity": "High", "responsibl": "MoFE/ NP Depart/ Cabinet", "status": "In progress", "photo": null, "remarks": "Suhelwa Branch of Contract no.BIP/WORKS/NCB-01/080/081", "layer": null, "path": null }, "geometry": { "type": "Point", "coordinates": [ 81.327425446424243, 28.238799686814236 ] } },
{ "type": "Feature", "properties": { "fid_1": 7.0, "project_na": "BBDMP-Headworks", "chainage_s": null, "chainage_e": null, "Issue_type": "Contractor issue", "issue_desc": "Consultant  बाट Trunnion Block को Design Drawings पेश भएको तर Contruction Methodology को अभाबमा Design स्वीकृत गर्न नसकीएको अबस्था तथा निर्माण", "Severity": "High", "responsibl": "NEAEC, BBDMP, DWRI", "status": "In progress", "photo": "D:\\2. MINOR PROJECT\\25. QGIS UPDATE\\Photos\\Trunnion-1.PNG", "remarks": null, "layer": null, "path": null }, "geometry": { "type": "Point", "coordinates": [ 81.779118886711572, 28.458600669968305 ] } },
{ "type": "Feature", "properties": { "fid_1": 8.0, "project_na": "BBDMP_Headworks", "chainage_s": null, "chainage_e": null, "Issue_type": "Contractor issue", "issue_desc": "1. Contractor has not installed temporary bridge structure to work on other bank. if the contractor installs the temporary bridge within few month then it would allow", "Severity": "High", "responsibl": "GYT-Raman J.V., BBDMP", "status": "Pending", "photo": null, "remarks": null, "layer": null, "path": null }, "geometry": { "type": "Point", "coordinates": [ 81.779676135881203, 28.457880604622357 ] } },
{ "type": "Feature", "properties": { "fid_1": 9.0, "project_na": "BBDMP-Surge Shaft", "chainage_s": null, "chainage_e": null, "Issue_type": "Contractor issue", "issue_desc": "1.  the surge shaft is approximately 50m deep. This type of structure has never been contructed in fragile geology of Chure Range, bringing technical challenges. 2. There was significant delay in suppling required drawing and taking necessary techincal d", "Severity": "High", "responsibl": "GYT-Raman J/V, NEAEC, BBDMP", "status": "In progress", "photo": "E:\\Site Photo\\IMG-20250516-WA0064.jpg", "remarks": null, "layer": null, "path": null }, "geometry": { "type": "Point", "coordinates": [ 81.721020527740734, 28.361844995941727 ] } },
{ "type": "Feature", "properties": { "fid_1": 10.0, "project_na": "BBDMP_Powerhouse_penstock", "chainage_s": null, "chainage_e": null, "Issue_type": "Contractor issue", "issue_desc": "Anchor Block 2 ,3 र 4 मा HM   Contractor बाट काम सम्पन् नभएको अबस्था रहेको छ । निर्माण ब्यबसाहीले Powerhouse मा आवश्यक जनशक्तa", "Severity": "High", "responsibl": "GYT-Raman J/V, BBDMP, NEAEC", "status": "In progress", "photo": "E:\\Site Photo\\IMG-20250516-WA0091.jpg", "remarks": null, "layer": null, "path": null }, "geometry": { "type": "Point", "coordinates": [ 81.72027848941525, 28.355267510590544 ] } },
{ "type": "Feature", "properties": { "fid_1": 11.0, "project_na": "Shreewani Gochekhola", "chainage_s": null, "chainage_e": null, "Issue_type": "Contractor issue", "issue_desc": "1. Contractor has failed to complete remaining electrical works.", "Severity": "Medium", "responsibl": "KB Constructions, Birendranagar-1, Surkhet", "status": "In progress", "photo": null, "remarks": null, "layer": null, "path": null }, "geometry": { "type": "Point", "coordinates": [ 81.841449205520732, 28.417171337468972 ] } },
{ "type": "Feature", "properties": { "fid_1": 12.0, "project_na": "Janajyoti M.V Lift", "chainage_s": null, "chainage_e": null, "Issue_type": "Utility", "issue_desc": "Eleectrical Installation, Low Voltage.", "Severity": "Medium", "responsibl": "BBDMP", "status": "Pending", "photo": null, "remarks": null, "layer": null, "path": null }, "geometry": { "type": "Point", "coordinates": [ 81.754514552817128, 28.481854295993376 ] } },
{ "type": "Feature", "properties": { "fid_1": 13.0, "project_na": "Janajyoti M.V Lift", "chainage_s": null, "chainage_e": null, "Issue_type": "Contractor issue", "issue_desc": "1. Sump well was washed out , the contractor is out of communication.", "Severity": "High", "responsibl": "KB Construction,Birendranagar-1, Surkhet", "status": "In progress", "photo": null, "remarks": null, "layer": null, "path": null }, "geometry": { "type": "Point", "coordinates": [ 81.754509554864811, 28.481851054078351 ] } },
{ "type": "Feature", "properties": { "fid_1": 7.0, "project_na": "Churintar Bhottar LISP", "chainage_s": "RVT", "chainage_e": null, "Issue_type": "Contractor issue", "issue_desc": "Contractor Blacklisted", "Severity": "High", "responsibl": "IWRMPT, Bhanu", "status": "Resolved", "photo": null, "remarks": "Re-tender after Reppraisal needed", "layer": null, "path": null }, "geometry": { "type": "Point", "coordinates": [ 84.722886220393491, 27.812024701034748 ] } },
{ "type": "Feature", "properties": { "fid_1": 8.0, "project_na": "Khaltephant LIP", "chainage_s": "RVT", "chainage_e": null, "Issue_type": "Contractor issue", "issue_desc": "Finalised for blacklisting", "Severity": "Low", "responsibl": "IWRMP, Bhanu, tanahun", "status": "Pending", "photo": null, "remarks": "SUbstantially completed, but contract cannot be finalised", "layer": null, "path": null }, "geometry": { "type": "Point", "coordinates": [ 84.437965266897933, 28.103378470274283 ] } },
{ "type": "Feature", "properties": { "fid_1": 9.0, "project_na": "Rishing Patan LIP", "chainage_s": "RVT", "chainage_e": null, "Issue_type": "Contractor issue", "issue_desc": "Contract decided for blacklisting", "Severity": "Low", "responsibl": "IWRMP, Bhanu, Tanahun", "status": "In progress", "photo": null, "remarks": "Substantially Completed but contract could not be finalised", "layer": null, "path": null }, "geometry": { "type": "Point", "coordinates": [ 84.116451855669624, 27.966058109188307 ] } },
{ "type": "Feature", "properties": { "fid_1": 0.0, "project_na": "Narayani River Flood Protection Works at Kushumghat to Thumsi Section section\n", "chainage_s": "0+000", "chainage_e": "6+140", "Issue_type": "Other", "issue_desc": "Lack of budget, more than 6 months delay in bill payment, progress slow in past", "Severity": "Medium", "responsibl": "Ministry of Finance, Lined Ministry and Department of Water Resources and Irrigation", "status": "In progress", "photo": "C:\\Users\\Acer\\Downloads\\image jungle.jpeg", "remarks": "Project is trying to complete project by using different tools like fornightly meeting, works in shift, coordinating with different agencies", "layer": null, "path": null }, "geometry": { "type": "Point", "coordinates": [ 84.374137321681772, 27.689190700639422 ] } },
{ "type": "Feature", "properties": { "fid_1": 0.0, "project_na": "Narayani River Flood Protection Works at Kushumghat to Thumsi Section section\n", "chainage_s": "1+860", "chainage_e": "2+445", "Issue_type": "Forest", "issue_desc": "Case against contractor is in district court, District forest office argued to run the project through this alignment", "Severity": "High", "responsibl": "District forest office, District administrative office, IWRMP", "status": "Pending", "photo": null, "remarks": "Now project made decision from district disaster committee and the work is restarted but the old case is in court.", "layer": null, "path": null }, "geometry": { "type": "Point", "coordinates": [ 84.379768655531635, 27.685950755136776 ] } },
{ "type": "Feature", "properties": { "fid_1": 0.0, "project_na": "Narayani River Flood Protection Works at Sisahi,Bhagedi and Baluwa Section\n", "chainage_s": "0+000", "chainage_e": "5+600", "Issue_type": "Forest", "issue_desc": "Chitwan National Park is allowing construction works only for few days for multiyear project, unneccessarily disturbance in construction site, rarely  3-6 working months in a year due to national park issue", "Severity": "High", "responsibl": "Chitwan National Park", "status": "Pending", "photo": null, "remarks": null, "layer": null, "path": null }, "geometry": { "type": "Point", "coordinates": [ 84.212718608246519, 27.608037779954181 ] } },
{ "type": "Feature", "properties": { "fid_1": 0.0, "project_na": "Narayani River Flood Protection Works at Sisahi,Bhagedi and Baluwa Section\n", "chainage_s": "0+000", "chainage_e": "5+600", "Issue_type": "Other", "issue_desc": "Contractors mobilization affected due to pending bills and budget constraints of IWRMP, chitwan", "Severity": "High", "responsibl": "Ministry, Ministry of Finance, Project", "status": "In progress", "photo": null, "remarks": null, "layer": null, "path": null }, "geometry": { "type": "Point", "coordinates": [ 84.210018653660981, 27.606070670184721 ] } },
{ "type": "Feature", "properties": { "fid_1": 0.0, "project_na": "Narayani River Flood Protection Works at Sisahi,Bhagedi and Baluwa Section\n", "chainage_s": "1+000", "chainage_e": "3+500", "Issue_type": "Other", "issue_desc": "Lack of construction material like big boulder, unavailability of big boulders at source but included in district rate", "Severity": "High", "responsibl": "District rate fixation committee, DWRI, MOEWRI, Implementing office", "status": "Pending", "photo": null, "remarks": null, "layer": null, "path": null }, "geometry": { "type": "Point", "coordinates": [ 84.20091594962976, 27.600400765555097 ] } },
{ "type": "Feature", "properties": { "fid_1": 5.0, "project_na": "Narayani River Management office", "chainage_s": "3+000", "chainage_e": "3+3500", "Issue_type": "Contractor issue", "issue_desc": null, "Severity": "Medium", "responsibl": null, "status": "In progress", "photo": "C:\\Users\\ASUS\\Pictures\\Camera Roll\\WIN_20250124_16_06_45_Pro.jpg", "remarks": null, "layer": null, "path": null }, "geometry": { "type": "Point", "coordinates": [ 84.351691475870282, 27.698613366259504 ] } },
{ "type": "Feature", "properties": { "fid_1": 7.0, "project_na": "IWRMP, Bharatpur Chitwan,  Narayani River Management Works on Right Bank at Kushumghat to Thumsi Section Nawalparasi (Bardaghat Susta East)", "chainage_s": "1", "chainage_e": "6+140", "Issue_type": "Forest", "issue_desc": null, "Severity": null, "responsibl": null, "status": null, "photo": null, "remarks": null, "layer": null, "path": null }, "geometry": { "type": "Point", "coordinates": [ 84.398883678603454, 27.693434465756425 ] } },
{ "type": "Feature", "properties": { "fid_1": 7.0, "project_na": "Construction of Sahja Headworks and Structures Work", "chainage_s": "0+000", "chainage_e": "0+180", "Issue_type": "Other", "issue_desc": "Headworks gate item was kept under lump sum during estimation. The contractor submitted the design three times. Recently, the design was forwarded to DWRI. Gate work will start after approval", "Severity": "High", "responsibl": "DWRI, the Kamala Irrigation Management Office, and the contractor should all be responsible", "status": "Pending", "photo": "E:\\KIMO_FY-2082-83\\Sahaja\\Photos\\8.jpeg", "remarks": null, "layer": null, "path": null }, "geometry": { "type": "Point", "coordinates": [ 86.298029348241286, 26.701798304877144 ] } },
{ "type": "Feature", "properties": { "fid_1": 5.0, "project_na": "Narayani River Management office", "chainage_s": "3+000", "chainage_e": "3+3500", "Issue_type": "Contractor issue", "issue_desc": null, "Severity": "Medium", "responsibl": null, "status": "In progress", "photo": "C:\\Users\\ASUS\\Pictures\\Camera Roll\\WIN_20250124_16_06_45_Pro.jpg", "remarks": null, "layer": null, "path": null }, "geometry": { "type": "Point", "coordinates": [ 84.351691475870282, 27.698613366259504 ] } },
{ "type": "Feature", "properties": { "fid_1": 6.0, "project_na": null, "chainage_s": null, "chainage_e": null, "Issue_type": "Forest", "issue_desc": null, "Severity": "High", "responsibl": null, "status": null, "photo": null, "remarks": null, "layer": null, "path": null }, "geometry": { "type": "Point", "coordinates": [ 84.354252366024951, 27.697660969094542 ] } },
{ "type": "Feature", "properties": { "fid_1": 7.0, "project_na": "Construction of Canal and associated structures from Ch.28+800 toCh.34+000 along Tanakpur Main Canal", "chainage_s": "28+800", "chainage_e": "34+000", "Issue_type": "Land acquisition", "issue_desc": "Land Rate Dispute with locals", "Severity": "High", "responsibl": null, "status": null, "photo": null, "remarks": null, "layer": null, "path": null }, "geometry": { "type": "Point", "coordinates": [ 80.418337696205896, 28.924088469187261 ] } },
{ "type": "Feature", "properties": { "fid_1": 8.0, "project_na": "Construction of Canal and associated structures from Ch.34+000 to Ch.39+400 along Tanakpur Main Canal", "chainage_s": "34+000", "chainage_e": "39+500", "Issue_type": "Land acquisition", "issue_desc": "Land Rate Dispute With Locals", "Severity": "High", "responsibl": null, "status": null, "photo": null, "remarks": null, "layer": null, "path": null }, "geometry": { "type": "Point", "coordinates": [ 80.433806368355121, 28.902543326929685 ] } },
{ "type": "Feature", "properties": { "fid_1": 9.0, "project_na": "Construction of Canal and associated structures from Ch.39+400 to Ch.44+000 along Tanakpur Main Canal", "chainage_s": "39+400", "chainage_e": "44+000", "Issue_type": "Land acquisition", "issue_desc": "Land use is different in paper and field.", "Severity": "High", "responsibl": null, "status": null, "photo": null, "remarks": null, "layer": null, "path": null }, "geometry": { "type": "Point", "coordinates": [ 80.48574809176344, 28.860847642111512 ] } },
{ "type": "Feature", "properties": { "fid_1": 10.0, "project_na": "NULLMIPIII/LIFT/NCB-10/2078-79", "chainage_s": null, "chainage_e": null, "Issue_type": "Contractor issue", "issue_desc": "Contractor did not work in time", "Severity": "Medium", "responsibl": null, "status": null, "photo": null, "remarks": null, "layer": null, "path": null }, "geometry": { "type": "Point", "coordinates": [ 80.06941739038443, 28.877525916038767 ] } },
{ "type": "Feature", "properties": { "fid_1": 11.0, "project_na": "MIPIII/LIFT/NCB-11/2078-79", "chainage_s": null, "chainage_e": null, "Issue_type": "Contractor issue", "issue_desc": "Contractor did not finish work on time", "Severity": "Medium", "responsibl": null, "status": null, "photo": null, "remarks": null, "layer": null, "path": null }, "geometry": { "type": "Point", "coordinates": [ 80.070662568685378, 28.866248158285039 ] } },
{ "type": "Feature", "properties": { "fid_1": 12.0, "project_na": "MIP-III/BC/NCB-03/078-79", "chainage_s": null, "chainage_e": null, "Issue_type": "Land acquisition", "issue_desc": "This branch have most of the land that is \"Ailani\" so it is difficult to give compensation", "Severity": "High", "responsibl": null, "status": "Pending", "photo": null, "remarks": null, "layer": null, "path": null }, "geometry": { "type": "Point", "coordinates": [ 80.297092906222701, 28.974023676704977 ] } },
{ "type": "Feature", "properties": { "fid_1": 13.0, "project_na": "MIP-III/BC/NCB-03/078-79", "chainage_s": null, "chainage_e": null, "Issue_type": "Land acquisition", "issue_desc": "This branch have most of the land that is \"Ailani\" so it is difficult to give compensation", "Severity": "High", "responsibl": null, "status": "Pending", "photo": null, "remarks": null, "layer": null, "path": null }, "geometry": { "type": "Point", "coordinates": [ 80.308605469027398, 28.97276426779494 ] } },
{ "type": "Feature", "properties": { "fid_1": 14.0, "project_na": "MIP-III/BC/NCB-03/078-79", "chainage_s": null, "chainage_e": null, "Issue_type": "Land acquisition", "issue_desc": "This branch have most of the land that is \"Ailani\" so it is difficult to give compensation", "Severity": "High", "responsibl": null, "status": "Pending", "photo": null, "remarks": null, "layer": null, "path": null }, "geometry": { "type": "Point", "coordinates": [ 80.272602027870391, 28.98259050341505 ] } },
{ "type": "Feature", "properties": { "fid_1": 15.0, "project_na": "MIP-III/BC/NCB-02/078-79", "chainage_s": null, "chainage_e": null, "Issue_type": "Land acquisition", "issue_desc": "This branch have most of the land that is \"Ailani and Seto Purja\" so it is difficult to give compensation", "Severity": "High", "responsibl": null, "status": "Pending", "photo": null, "remarks": null, "layer": null, "path": null }, "geometry": { "type": "Point", "coordinates": [ 80.256485863004599, 28.983515493009985 ] } },
{ "type": "Feature", "properties": { "fid_1": 16.0, "project_na": "MIP-III/BC/NCB-02/078-79", "chainage_s": null, "chainage_e": null, "Issue_type": "Land acquisition", "issue_desc": "This branch have most of the land that is \"Ailani\" so it is difficult to give compensation", "Severity": "High", "responsibl": null, "status": "Pending", "photo": null, "remarks": null, "layer": null, "path": null }, "geometry": { "type": "Point", "coordinates": [ 80.199734193702625, 28.996088236196616 ] } },
{ "type": "Feature", "properties": { "fid_1": 9.0, "project_na": "Miip_Rautahat", "chainage_s": null, "chainage_e": null, "Issue_type": "Other", "issue_desc": "Price Bid Evaluation is reviewing  by DWRI", "Severity": "High", "responsibl": "DWRI Review Committee", "status": "Pending", "photo": null, "remarks": null, "layer": null, "path": null }, "geometry": { "type": "Point", "coordinates": [ 85.227056992676765, 26.891283206324442 ] } },
{ "type": "Feature", "properties": { "fid_1": 10.0, "project_na": "Miip_Sarlahi", "chainage_s": null, "chainage_e": null, "Issue_type": "Other", "issue_desc": "Price bid evaluation  is reviewing by DWRI", "Severity": "High", "responsibl": "DWRI Review Committe", "status": "Pending", "photo": null, "remarks": null, "layer": null, "path": null }, "geometry": { "type": "Point", "coordinates": [ 85.453371098118865, 26.821268820762835 ] } },
{ "type": "Feature", "properties": { "fid_1": 5.0, "project_na": "Narayani River Management office", "chainage_s": "3+000", "chainage_e": "3+3500", "Issue_type": "Contractor issue", "issue_desc": null, "Severity": "Medium", "responsibl": null, "status": "In progress", "photo": "C:\\Users\\ASUS\\Pictures\\Camera Roll\\WIN_20250124_16_06_45_Pro.jpg", "remarks": null, "layer": null, "path": null }, "geometry": { "type": "Point", "coordinates": [ 84.351691475870282, 27.698613366259504 ] } },
{ "type": "Feature", "properties": { "fid_1": 6.0, "project_na": null, "chainage_s": null, "chainage_e": null, "Issue_type": "Forest", "issue_desc": null, "Severity": "High", "responsibl": null, "status": null, "photo": null, "remarks": null, "layer": null, "path": null }, "geometry": { "type": "Point", "coordinates": [ 84.354252366024951, 27.697660969094542 ] } },
{ "type": "Feature", "properties": { "fid_1": 7.0, "project_na": "Narayani Irrigation Mangement Office", "chainage_s": "0+000", "chainage_e": "0+045", "Issue_type": "Community dispute", "issue_desc": "Intervention of local level (Rajpur Municipality)", "Severity": "High", "responsibl": "DAO Rautahat & Rajpur Municipality", "status": "Pending", "photo": "D:\\2. PROJECTS_All\\2. Project_NIMO_081-82\\3. Procurement_2081-82\\2. NCB_NIMO_2081-82\\1. Evaluation_NCB_NIMO\\10. NCB-09_FDR\\1. Estimate_FDR_Rautahat\\1.jpg", "remarks": null, "layer": null, "path": null }, "geometry": { "type": "Point", "coordinates": [ 85.253592998956805, 26.826998227204705 ] } },
{ "type": "Feature", "properties": { "fid_1": 118.0, "project_na": "Rajapur Irrigation System", "chainage_s": "5+000", "chainage_e": "5+250", "Issue_type": null, "issue_desc": "Alignment Shifting", "Severity": "Medium", "responsibl": "RIMO", "status": "Resolved", "photo": null, "remarks": "Pathabhar Settling Basin", "layer": null, "path": null }, "geometry": { "type": "Point", "coordinates": [ 81.223016708655976, 28.562483063710939 ] } },
{ "type": "Feature", "properties": { "fid_1": 1.0, "project_na": "Rajapur Irrigation System", "chainage_s": "0+000", "chainage_e": "0+000", "Issue_type": "Forest", "issue_desc": "IEE", "Severity": "Medium", "responsibl": "DWRI, RIMO", "status": "In progress", "photo": null, "remarks": "Undersluice and Gabion Works (IEE is in progress)", "layer": null, "path": null }, "geometry": { "type": "Point", "coordinates": [ 81.211643313125293, 28.476759095543798 ] } },
{ "type": "Feature", "properties": { "fid_1": 2.0, "project_na": "Rajapur Irrigation System", "chainage_s": "0", "chainage_e": "0", "Issue_type": "Forest", "issue_desc": "IEE is in progress", "Severity": "Medium", "responsibl": "DWRI, RIMO", "status": "In progress", "photo": null, "remarks": "Construction of Undersluice", "layer": null, "path": null }, "geometry": { "type": "Point", "coordinates": [ 81.194183906402358, 28.426269519136913 ] } },
{ "type": "Feature", "properties": { "fid_1": 3.0, "project_na": "Rajapur Irrigation System", "chainage_s": "0+400", "chainage_e": "0+400", "Issue_type": "Other", "issue_desc": "IEE", "Severity": "Medium", "responsibl": "DWRI, RIMO", "status": "In progress", "photo": null, "remarks": "Construction of Escape in Chargaoun was slowed due to IEE Issues", "layer": null, "path": null }, "geometry": { "type": "Point", "coordinates": [ 81.214674806117785, 28.531893005498969 ] } },
{ "type": "Feature", "properties": { "fid_1": 4.0, "project_na": "Rajapur Irrigation System", "chainage_s": "0+400", "chainage_e": "0+400", "Issue_type": "Community dispute", "issue_desc": "Alignment", "Severity": "Medium", "responsibl": "RIMO", "status": "Resolved", "photo": null, "remarks": "Nayagaoun Escape", "layer": null, "path": null }, "geometry": { "type": "Point", "coordinates": [ 81.180997892310828, 28.497370862307058 ] } },
{ "type": "Feature", "properties": { "fid_1": 5.0, "project_na": "Rajapur Irrigation System", "chainage_s": "0+000", "chainage_e": "0+000", "Issue_type": "Forest", "issue_desc": "IEE", "Severity": "Medium", "responsibl": "DWRI, RIMO", "status": "In progress", "photo": null, "remarks": "Drain Syphon at Muraiya", "layer": null, "path": null }, "geometry": { "type": "Point", "coordinates": [ 81.129329978512317, 28.452676090934933 ] } },
{ "type": "Feature", "properties": { "fid_1": 6.0, "project_na": "Rajapur Irrigation System", "chainage_s": "9+000", "chainage_e": "9+000", "Issue_type": "Forest", "issue_desc": "IEE", "Severity": "Medium", "responsibl": "DWRI, RIMO", "status": "In progress", "photo": null, "remarks": "Daulatpur HR/CR", "layer": null, "path": null }, "geometry": { "type": "Point", "coordinates": [ 81.100311473639337, 28.438196247252797 ] } },
{ "type": "Feature", "properties": { "fid_1": 7.0, "project_na": "Rajapur Irrigation System", "chainage_s": "0+000", "chainage_e": "0+000", "Issue_type": "Other", "issue_desc": "IEE", "Severity": "Medium", "responsibl": "DWRI, RIMO", "status": "In progress", "photo": null, "remarks": "Bagaipur Head Regulator", "layer": null, "path": null }, "geometry": { "type": "Point", "coordinates": [ 81.24687070127969, 28.585397916134589 ] } },
{ "type": "Feature", "properties": { "fid_1": 8.0, "project_na": "Rajapur Irrigation System", "chainage_s": "0+000", "chainage_e": "0+000", "Issue_type": "Forest", "issue_desc": "IEE", "Severity": "Medium", "responsibl": "DWRI, RIMO", "status": "In progress", "photo": null, "remarks": "Janaknagar Head Regulator", "layer": null, "path": null }, "geometry": { "type": "Point", "coordinates": [ 81.247557605756896, 28.58604910998147 ] } },
{ "type": "Feature", "properties": { "fid_1": 9.0, "project_na": "Rajapur Irrigation System", "chainage_s": "0+000", "chainage_e": "0+000", "Issue_type": "Forest", "issue_desc": "IEE", "Severity": "Medium", "responsibl": "DWRI,RIMO", "status": "In progress", "photo": null, "remarks": "Bankhet Head Regulator", "layer": null, "path": null }, "geometry": { "type": "Point", "coordinates": [ 81.246366551204673, 28.583596104772742 ] } },
{ "type": "Feature", "properties": { "fid_1": 117.0, "project_na": "Rajapur Irrigation System", "chainage_s": "0+000", "chainage_e": "0+000", "Issue_type": "Forest", "issue_desc": "IEE Required for initiation of construction work", "Severity": "High", "responsibl": "DWRI", "status": "In progress", "photo": null, "remarks": "Flood Flush Sluice (FFS)", "layer": null, "path": null }, "geometry": { "type": "Point", "coordinates": [ 81.248752760141002, 28.588916101240386 ] } },
{ "type": "Feature", "properties": { "fid_1": 5.0, "project_na": "Narayani River Management office", "chainage_s": "3+000", "chainage_e": "3+3500", "Issue_type": "Contractor issue", "issue_desc": null, "Severity": "Medium", "responsibl": null, "status": "In progress", "photo": "C:\\Users\\ASUS\\Pictures\\Camera Roll\\WIN_20250124_16_06_45_Pro.jpg", "remarks": null, "layer": null, "path": null }, "geometry": { "type": "Point", "coordinates": [ 84.351691475870282, 27.698613366259504 ] } },
{ "type": "Feature", "properties": { "fid_1": 7.0, "project_na": "RJKIP", "chainage_s": "0+850", "chainage_e": "2+850", "Issue_type": "Land acquisition", "issue_desc": "Social issues due to Land acquisition", "Severity": "Medium", "responsibl": "RJKIP, Bardagoriya RM", "status": "Pending", "photo": null, "remarks": null, "layer": null, "path": null }, "geometry": { "type": "Point", "coordinates": [ 81.066134424558996, 28.677039485245977 ] } },
{ "type": "Feature", "properties": { "fid_1": 8.0, "project_na": "RJKIP", "chainage_s": "0+850", "chainage_e": "2+850", "Issue_type": "Land acquisition", "issue_desc": "Social Issues", "Severity": "Medium", "responsibl": "Bardagoriya RM, RJKIP,DAO", "status": "Pending", "photo": null, "remarks": null, "layer": null, "path": null }, "geometry": { "type": "Point", "coordinates": [ 81.052510981870412, 28.676256028477955 ] } },
{ "type": "Feature", "properties": { "fid_1": 9.0, "project_na": "RJKIP", "chainage_s": "10+000", "chainage_e": "13+170", "Issue_type": "Land acquisition", "issue_desc": "Social Issues", "Severity": "Medium", "responsibl": "Ghodaghodi Mun  Ward 2, RJKIP, DAO", "status": "Pending", "photo": null, "remarks": null, "layer": null, "path": null }, "geometry": { "type": "Point", "coordinates": [ 80.985801088918166, 28.66906527365094 ] } },
{ "type": "Feature", "properties": { "fid_1": 10.0, "project_na": "RJKIP", "chainage_s": "12+000", "chainage_e": "12+050", "Issue_type": "Land acquisition", "issue_desc": "Social Issue", "Severity": "High", "responsibl": "Ghodaghodi ward 2, RJKIP, DAO", "status": "Pending", "photo": null, "remarks": null, "layer": null, "path": null }, "geometry": { "type": "Point", "coordinates": [ 80.977670911392508, 28.662340603058659 ] } },
{ "type": "Feature", "properties": { "fid_1": 11.0, "project_na": "RJKIP", "chainage_s": "4+150", "chainage_e": "5+500", "Issue_type": "Forest", "issue_desc": "Approval for Forest Clearence", "Severity": "High", "responsibl": "DFO,SDFO,community forest, RJKIP,MOFE,DOFSE,DOENV", "status": "In progress", "photo": null, "remarks": null, "layer": null, "path": null }, "geometry": { "type": "Point", "coordinates": [ 81.038256421229846, 28.667355089085579 ] } },
{ "type": "Feature", "properties": { "fid_1": 12.0, "project_na": "RJKIP", "chainage_s": "7+800", "chainage_e": "9+800", "Issue_type": "Forest", "issue_desc": "Approval for forest clearance", "Severity": "High", "responsibl": "DFO,SDFO,RJKIP,MOFE,DOFSE,DOENV,MOEWRI", "status": "In progress", "photo": null, "remarks": null, "layer": null, "path": null }, "geometry": { "type": "Point", "coordinates": [ 81.000897140161612, 28.668443223485649 ] } },
{ "type": "Feature", "properties": { "fid_1": 13.0, "project_na": "RJKIP", "chainage_s": "6+150", "chainage_e": "14+480", "Issue_type": "Other", "issue_desc": "Source Guaranee (Lamki Extension)", "Severity": "High", "responsibl": "MOF,NPC,MOEWRI,DWRI", "status": "Pending", "photo": null, "remarks": null, "layer": null, "path": null }, "geometry": { "type": "Point", "coordinates": [ 81.154470988712063, 28.645875316028711 ] } },
{ "type": "Feature", "properties": { "fid_1": 14.0, "project_na": "RJKIP", "chainage_s": "0+000", "chainage_e": "3+200", "Issue_type": "Other", "issue_desc": "Source Guarantee (Lamki Branch LS-5) at CH:9+500", "Severity": "High", "responsibl": "MOF,NPC,MOEWRI,DWRI,RJKIP", "status": "Pending", "photo": null, "remarks": null, "layer": null, "path": null }, "geometry": { "type": "Point", "coordinates": [ 81.093714097706908, 28.669369044504389 ] } },
{ "type": "Feature", "properties": { "fid_1": 15.0, "project_na": "RJKIP", "chainage_s": "0+000", "chainage_e": "3+200", "Issue_type": "Land acquisition", "issue_desc": "Land owners are not satisfied with the land acquisation rate, so only few land owners are approaching to the project office", "Severity": "Medium", "responsibl": null, "status": "In progress", "photo": null, "remarks": null, "layer": null, "path": null }, "geometry": { "type": "Point", "coordinates": [ 81.07732316652762, 28.649162388695547 ] } },
{ "type": "Feature", "properties": { "fid_1": 16.0, "project_na": "RJKIP", "chainage_s": "0+000", "chainage_e": "5+000", "Issue_type": "Land acquisition", "issue_desc": "Land acqusation for branch canals of Lamki extension including LS-4 is under process", "Severity": "High", "responsibl": "Land Management office, survey office, local municipality(Lamki), ward office, local communities,RJKIP,DAO", "status": "In progress", "photo": null, "remarks": null, "layer": null, "path": null }, "geometry": { "type": "Point", "coordinates": [ 81.121044406721509, 28.656960685229226 ] } },
{ "type": "Feature", "properties": { "fid_1": 7.0, "project_na": "Construction of Check Dam, Revetment with Launching Apron For Bhusbang Landslide Management Works at Pyuthan Rural Municipality-9 and 10 Bhusbang.", "chainage_s": null, "chainage_e": null, "Issue_type": "Community dispute", "issue_desc": null, "Severity": "Low", "responsibl": null, "status": "Resolved", "photo": null, "remarks": null, "layer": null, "path": null }, "geometry": { "type": "Point", "coordinates": [ 82.915807644065239, 28.113931103005367 ] } },
{ "type": "Feature", "properties": { "fid_1": 7.0, "project_na": "Sikta Irrigation Project", "chainage_s": "0+000", "chainage_e": "0+075", "Issue_type": "Land acquisition", "issue_desc": null, "Severity": "Low", "responsibl": null, "status": "In progress", "photo": null, "remarks": null, "layer": null, "path": null }, "geometry": { "type": "Point", "coordinates": [ 81.610926141218172, 28.170645955751233 ] } },
{ "type": "Feature", "properties": { "fid_1": 8.0, "project_na": "Sikta Irrigation Project", "chainage_s": "0+070", "chainage_e": "0+100", "Issue_type": "Land acquisition", "issue_desc": null, "Severity": "Low", "responsibl": null, "status": "In progress", "photo": null, "remarks": null, "layer": null, "path": null }, "geometry": { "type": "Point", "coordinates": [ 81.607329081142041, 28.16571024854882 ] } },
{ "type": "Feature", "properties": { "fid_1": 9.0, "project_na": "Sikta Irrigation Project", "chainage_s": "2+900", "chainage_e": "2+950", "Issue_type": "Land acquisition", "issue_desc": null, "Severity": "Low", "responsibl": null, "status": "In progress", "photo": null, "remarks": null, "layer": null, "path": null }, "geometry": { "type": "Point", "coordinates": [ 81.628847168805564, 28.174852499204118 ] } },
{ "type": "Feature", "properties": { "fid_1": 10.0, "project_na": "Sikta Irrigation Project", "chainage_s": "3+000", "chainage_e": "3+025", "Issue_type": "Land acquisition", "issue_desc": null, "Severity": "Low", "responsibl": null, "status": "In progress", "photo": null, "remarks": null, "layer": null, "path": null }, "geometry": { "type": "Point", "coordinates": [ 81.628575671664947, 28.173244017164585 ] } },
{ "type": "Feature", "properties": { "fid_1": 11.0, "project_na": "Sikta Irrigation Project", "chainage_s": "Bethani (Left Bank)", "chainage_e": null, "Issue_type": "Other", "issue_desc": null, "Severity": "Low", "responsibl": null, "status": "In progress", "photo": null, "remarks": null, "layer": null, "path": null }, "geometry": { "type": "Point", "coordinates": [ 81.714707082694943, 27.996567837730783 ] } },
{ "type": "Feature", "properties": { "fid_1": 7.0, "project_na": "Sunkoshi Marin Diversion Multipurpose Project", "chainage_s": null, "chainage_e": null, "Issue_type": "Contractor issue", "issue_desc": "Contract terminated due the non-performance of the Contractor", "Severity": "High", "responsibl": "DWRI/ SMDMP", "status": "In progress", "photo": null, "remarks": "Revised Estimate has been submitted to DWRI for approval", "layer": null, "path": null }, "geometry": { "type": "Point", "coordinates": [ 85.981725271337282, 27.343051758020462 ] } },
{ "type": "Feature", "properties": { "fid_1": 8.0, "project_na": "Sunkoshi Marin Diversion Multipurpose Project", "chainage_s": null, "chainage_e": null, "Issue_type": "Contractor issue", "issue_desc": "Contract terminated due the non-performance of the Contractor", "Severity": "High", "responsibl": "DWRI/ SMDMP", "status": "In progress", "photo": "E:\\SMDMP_SUJAN\\2.0 ICB-02 Patel-Raman JV\\15.0 Photoes & Videos\\2025-04-02 Surge Shaft Site\\IMG_2740.HEIC", "remarks": "Revised Estimate has been submitted to DWRI for approval", "layer": null, "path": null }, "geometry": { "type": "Point", "coordinates": [ 85.874953242048875, 27.261512403918275 ] } },
{ "type": "Feature", "properties": { "fid_1": 7.0, "project_na": "Construction of Headworks, Canal, Canal Structures of Lohandra Augmentation Sub-Project, SMIP", "chainage_s": "0+800", "chainage_e": "1+100", "Issue_type": "Land acquisition", "issue_desc": "No provision for land acquisition", "Severity": "Low", "responsibl": "SMIP", "status": "In progress", "photo": null, "remarks": "For the construction of settling basin, most of farmers are agree to donate their land but few are asking for compensation. We are closely work with WUA over this issue and try to resolve it very shortly.", "layer": null, "path": null }, "geometry": { "type": "Point", "coordinates": [ 87.402309680015861, 26.616444976295131 ] } },
{ "type": "Feature", "properties": { "fid_1": 7.0, "project_na": "Sunsari Morang Irrigation Project", "chainage_s": "52RD", "chainage_e": "52RD", "Issue_type": "Other", "issue_desc": "Design Variation & Approval", "Severity": "Medium", "responsibl": "Consultant", "status": "Resolved", "photo": "D:\\Lohendra Pramod\\Lohandra_Contract_SMIP\\Data Spatial\\52RD1.jpeg", "remarks": "Design Variation done", "layer": null, "path": null }, "geometry": { "type": "Point", "coordinates": [ 87.190723565946911, 26.709721087373552 ] } }
]
}
