{
"type": "FeatureCollection",
"name": "rehab_projects",
"crs": { "type": "name", "properties": { "name": "urn:ogc:def:crs:OGC:1.3:CRS84" } },
"features": [
{ "type": "Feature", "properties": { "fid_1": 5.0, "Contract_I": null, "project_na": "Brihat", "structure_": "VRB", "structur_1": "Box Culvert", "chainage": "20+000", "defect_typ": "Leakage", "defect_sev": "Severe", "structur_2": null, "maintenanc": "Urgent", "inspection": null, "photo": null, "inspector_": null, "remarks": null }, "geometry": { "type": "Point", "coordinates": [ 83.678343479983823, 27.479713269684179 ] } },
{ "type": "Feature", "properties": { "fid_1": 14.0, "Contract_I": null, "project_na": "Jhanjh", "structure_": "Barrage", "structur_1": "Jhanjh Barrage", "chainage": "0", "defect_typ": "Other", "defect_sev": "Severe", "structur_2": "63", "maintenanc": "Urgent", "inspection": "2026-03-25", "photo": null, "inspector_": "Office Team", "remarks": "Concrete blocks in the d/s has been degraded and needs urgent maintenance" }, "geometry": { "type": "Point", "coordinates": [ 85.3109057962252, 26.95313781950102 ] } },
{ "type": "Feature", "properties": { "fid_1": 15.0, "Contract_I": null, "project_na": "Jhanjh", "structure_": "Canal", "structur_1": "Main Canal", "chainage": "4+200", "defect_typ": "Other", "defect_sev": "Severe", "structur_2": "50", "maintenanc": "Urgent", "inspection": null, "photo": null, "inspector_": null, "remarks": "Severe encroachment of main and brach canal. Canal section needs maintenance" }, "geometry": { "type": "Point", "coordinates": [ 85.306528138216251, 26.918214562697987 ] } },
{ "type": "Feature", "properties": { "fid_1": 10.0, "Contract_I": null, "project_na": "Manushmara II", "structure_": "Barrage", "structur_1": "Manpur Barrage", "chainage": "0", "defect_typ": "Other", "defect_sev": "Moderate", "structur_2": "42", "maintenanc": "Routine", "inspection": "2026-4-05", "photo": null, "inspector_": "Office Team", "remarks": "Technical Study Needed" }, "geometry": { "type": "Point", "coordinates": [ 85.422241998725724, 26.91859098818599 ] } },
{ "type": "Feature", "properties": { "fid_1": 11.0, "Contract_I": null, "project_na": "Manushmara II", "structure_": "Canal", "structur_1": "Gadaiya Branch Canal", "chainage": "2+200", "defect_typ": "Other", "defect_sev": "Severe", "structur_2": "42", "maintenanc": "Urgent", "inspection": "2026-04-05", "photo": null, "inspector_": "Office Team", "remarks": "Gadaiya Canal d/s is washed out" }, "geometry": { "type": "Point", "coordinates": [ 85.403510159914774, 26.830673994719234 ] } },
{ "type": "Feature", "properties": { "fid_1": 12.0, "Contract_I": null, "project_na": "Manushmara II", "structure_": "Canal Regulator", "structur_1": "Canal Regulator", "chainage": null, "defect_typ": "Crack", "defect_sev": "Severe", "structur_2": "42", "maintenanc": "Urgent", "inspection": null, "photo": null, "inspector_": null, "remarks": "Major rehab needed for 10 nos of such regulating structures" }, "geometry": { "type": "Point", "coordinates": [ 85.432089628829758, 26.894001094315382 ] } },
{ "type": "Feature", "properties": { "fid_1": 13.0, "Contract_I": null, "project_na": "Manushmara II", "structure_": "Direct Outlet", "structur_1": "Direct Outlet", "chainage": null, "defect_typ": "Other", "defect_sev": "Severe", "structur_2": "40", "maintenanc": "Urgent", "inspection": null, "photo": null, "inspector_": "Office Team", "remarks": "About 20 nos of such outlets are severely damaged and in a state of defunct. Severe encroachment of such structures by farmers and farming practices" }, "geometry": { "type": "Point", "coordinates": [ 85.426934812487957, 26.913896095430655 ] } },
{ "type": "Feature", "properties": { "fid_1": 1.0, "Contract_I": null, "project_na": "Narayani Irrigation Management Office", "structure_": "Earthen Canal", "structur_1": "MSC and BSC", "chainage": "11+000", "defect_typ": "Blockage", "defect_sev": "Moderate", "structur_2": "60", "maintenanc": "Routine", "inspection": null, "photo": null, "inspector_": null, "remarks": "Desilting and canal reshaping work in Block 1 to 12" }, "geometry": { "type": "Point", "coordinates": [ 84.844427681869277, 27.099179538141819 ] } },
{ "type": "Feature", "properties": { "fid_1": 2.0, "Contract_I": null, "project_na": "Narayani Irrigation Management Office", "structure_": "Tubewell", "structur_1": "Tubewell", "chainage": "24 Locations", "defect_typ": "Other", "defect_sev": "Severe", "structur_2": "50", "maintenanc": "Urgent", "inspection": null, "photo": null, "inspector_": null, "remarks": "Repair and maintenance of existing  non-functional tubewells" }, "geometry": { "type": "Point", "coordinates": [ 84.891229055204889, 27.076954808080696 ] } },
{ "type": "Feature", "properties": { "fid_1": 3.0, "Contract_I": null, "project_na": "Narayani Irrigation Management Office", "structure_": "Lining", "structur_1": "NEC and Block 1 to 12", "chainage": "NEC and Block 1 to 12", "defect_typ": "Leakage", "defect_sev": "Moderate", "structur_2": "50", "maintenanc": "Routine", "inspection": null, "photo": null, "inspector_": null, "remarks": "Construction of canal lining work at different locations in NEC and Block 1 to 12" }, "geometry": { "type": "Point", "coordinates": [ 84.88104146505394, 27.080219581149901 ] } },
{ "type": "Feature", "properties": { "fid_1": 4.0, "Contract_I": null, "project_na": "Narayani Irrigation Management Office", "structure_": "VRB and other canal structures", "structur_1": "NEC, MSC", "chainage": "Different locations in NEC and Block 1-12", "defect_typ": "Settlement", "defect_sev": "Severe", "structur_2": "60", "maintenanc": "Urgent", "inspection": null, "photo": null, "inspector_": null, "remarks": "Construction/repair and maintenance of different irrigation structures in NEC and Block 1 to 12" }, "geometry": { "type": "Point", "coordinates": [ 84.87100369240521, 27.087304700525717 ] } },
{ "type": "Feature", "properties": { "fid_1": 5.0, "Contract_I": null, "project_na": "Narayani Irrigation Management office", "structure_": "Service Road", "structur_1": "Canal Service Road", "chainage": "50 km wihtin Block 1-12", "defect_typ": "Settlement", "defect_sev": "Moderate", "structur_2": "50", "maintenanc": "Routine", "inspection": null, "photo": null, "inspector_": null, "remarks": "Upgrading of service road" }, "geometry": { "type": "Point", "coordinates": [ 84.868856308206745, 27.086338689756193 ] } },
{ "type": "Feature", "properties": { "fid_1": 6.0, "Contract_I": null, "project_na": "Narayani Irrigation Management Office", "structure_": "VRB in NEC", "structur_1": "VRB", "chainage": "5 Different location in NEC", "defect_typ": "Settlement", "defect_sev": "Moderate", "structur_2": "50", "maintenanc": "Routine", "inspection": null, "photo": null, "inspector_": null, "remarks": "Construction of VRB in NEC at Kotwali, Feta, Benauli, Kanchanpur CR and Ganganagar" }, "geometry": { "type": "Point", "coordinates": [ 84.897518269100189, 27.065626420074302 ] } },
{ "type": "Feature", "properties": { "fid_1": 7.0, "Contract_I": null, "project_na": "Narayani Irrigation Management Office", "structure_": "Command Area Protection", "structur_1": "Gabion and embankment", "chainage": "Different locations at Urea, Tilawe, Sikta, Bangdi, and Tiyar River", "defect_typ": "Other", "defect_sev": "Moderate", "structur_2": "50", "maintenanc": "Routine", "inspection": null, "photo": null, "inspector_": null, "remarks": "Command area protection work at Urea, Tilawe, Sikta, Bangdi, and Tiyar River" }, "geometry": { "type": "Point", "coordinates": [ 84.851855569336067, 27.106202590652178 ] } },
{ "type": "Feature", "properties": { "fid_1": 6.0, "Contract_I": null, "project_na": "Protection of Embankment, Slope, Stud.", "structure_": "Embankment, Sloping Revetment and studs", "structur_1": null, "chainage": "26+100", "defect_typ": "Other", "defect_sev": "Severe", "structur_2": "6 years", "maintenanc": "Urgent", "inspection": "2082-08", "photo": null, "inspector_": null, "remarks": null }, "geometry": { "type": "Point", "coordinates": [ 81.084874640248046, 28.435607324420154 ] } },
{ "type": "Feature", "properties": { "fid_1": 7.0, "Contract_I": "Gulariya-05, upstream of Suspension Bridge", "project_na": "Construction and Maintenance works to protect embankment and nearby village from flood", "structure_": "Embankment, Spur and revetment", "structur_1": "embankment, spur and revetment", "chainage": null, "defect_typ": "Other", "defect_sev": "Severe", "structur_2": "15 years", "maintenanc": "Urgent", "inspection": "2082-10", "photo": null, "inspector_": null, "remarks": null }, "geometry": { "type": "Point", "coordinates": [ 81.377301387523104, 28.233241501041839 ] } },
{ "type": "Feature", "properties": { "fid_1": 8.0, "Contract_I": "Embankment Protection works", "project_na": "Embankment Protection at Upstream of Ambasa River Bridge at East-West Highway.", "structure_": "Embankment", "structur_1": "Embankment, Stud", "chainage": null, "defect_typ": "Other", "defect_sev": "Severe", "structur_2": "No Structure Present, need to Construct new structure", "maintenanc": "Urgent", "inspection": "2082-11", "photo": null, "inspector_": null, "remarks": null }, "geometry": { "type": "Point", "coordinates": [ 81.320449662442314, 28.4744995359071 ] } },
{ "type": "Feature", "properties": { "fid_1": 9.0, "Contract_I": "Embankment and village protection", "project_na": "Protection of Embankment and Village", "structure_": "Embankment", "structur_1": "Embankment and other structures like stud and spurs need to be constructed", "chainage": null, "defect_typ": "Other", "defect_sev": "Severe", "structur_2": "not present any structure", "maintenanc": "Urgent", "inspection": "2082-09", "photo": null, "inspector_": null, "remarks": null }, "geometry": { "type": "Point", "coordinates": [ 81.308643162786893, 28.460934746947682 ] } },
{ "type": "Feature", "properties": { "fid_1": 10.0, "Contract_I": "Village protection work at Thakurbaba-2, bardiya", "project_na": "Village Protection works near Thakurbaba-2 office, bardiya.", "structure_": "no embankment and other structures present", "structur_1": "no Protection Structures present", "chainage": null, "defect_typ": "Other", "defect_sev": "Severe", "structur_2": "no Structure present", "maintenanc": "Urgent", "inspection": "2082-9", "photo": null, "inspector_": "Engineers and Sub-engineers and people's representatives", "remarks": null }, "geometry": { "type": "Point", "coordinates": [ 81.313434206125365, 28.464734539940231 ] } },
{ "type": "Feature", "properties": { "fid_1": 11.0, "Contract_I": "Village Protection Near Bardiya National Park", "project_na": "Village Protection work by constructing embankment, stud and spurs, slope revetment near Bardiya National Park.", "structure_": "Embankment, Slope, Spurs", "structur_1": "Embankment, Slope, Spurs", "chainage": null, "defect_typ": "Other", "defect_sev": "Severe", "structur_2": "No structures Present", "maintenanc": "Urgent", "inspection": "2082-09", "photo": null, "inspector_": null, "remarks": null }, "geometry": { "type": "Point", "coordinates": [ 81.312513759375648, 28.485031570832103 ] } },
{ "type": "Feature", "properties": { "fid_1": 12.0, "Contract_I": "Protection work", "project_na": "protection works", "structure_": "Embankment, Stud, slope", "structur_1": "Embankment, Stud, slope", "chainage": "10+100", "defect_typ": "Other", "defect_sev": "Severe", "structur_2": "more than 7 years", "maintenanc": "Urgent", "inspection": "2082-04", "photo": null, "inspector_": null, "remarks": null }, "geometry": { "type": "Point", "coordinates": [ 81.167133325462686, 28.508222698715972 ] } },
{ "type": "Feature", "properties": { "fid_1": 13.0, "Contract_I": "Village Protection work", "project_na": "Village Protection works at srilanka, Tikapur-08, Kailali.", "structure_": "Construction of Embankment, Launching, slope revetment, spur", "structur_1": "Embankment, Launching, Slope Revetment, Spurs.", "chainage": "3+000 to 3+500", "defect_typ": "Other", "defect_sev": "Severe", "structur_2": "No any Structure Present", "maintenanc": "Urgent", "inspection": "2082-02", "photo": null, "inspector_": "engineers, sub-engineers and peoples' representatives", "remarks": null }, "geometry": { "type": "Point", "coordinates": [ 81.054977479035898, 28.415992164301358 ] } },
{ "type": "Feature", "properties": { "fid_1": 4.0, "Contract_I": null, "project_na": null, "structure_": "Spur", "structur_1": null, "chainage": null, "defect_typ": "Other", "defect_sev": "Moderate", "structur_2": null, "maintenanc": "Urgent", "inspection": null, "photo": null, "inspector_": null, "remarks": null }, "geometry": { "type": "Point", "coordinates": [ 84.353305259955334, 27.698052510151243 ] } }
]
}
