{
"type": "FeatureCollection",
"name": "Ncell_tower",
"crs": { "type": "name", "properties": { "name": "urn:ogc:def:crs:OGC:1.3:CRS84" } },
"features": [
{ "type": "Feature", "properties": { "Site ID": "GAN226", "Down Time": "8/27/26 12:49", "Site Name": "CHIPLETI", "District": "GORKHA", "Municipality": null, "Ward": null, "Province": null, "latitude": 27.83195, "longitude": 84.71457 }, "geometry": { "type": "Point", "coordinates": [ 84.71457, 27.83195 ] } },
{ "type": "Feature", "properties": { "Site ID": "GAN183", "Down Time": "8/27/26 12:49", "Site Name": "GHYAL CHOWK", "District": "GORKHA", "Municipality": null, "Ward": null, "Province": null, "latitude": 27.8392, "longitude": 84.75103 }, "geometry": { "type": "Point", "coordinates": [ 84.75103, 27.8392 ] } },
{ "type": "Feature", "properties": { "Site ID": "BAG027", "Down Time": "8/27/26 12:47", "Site Name": "KUMPURDANDA", "District": "DHADING", "Municipality": null, "Ward": null, "Province": null, "latitude": 27.8436, "longitude": 84.8952 }, "geometry": { "type": "Point", "coordinates": [ 84.8952, 27.8436 ] } },
{ "type": "Feature", "properties": { "Site ID": "BAG454", "Down Time": "8/27/26 12:47", "Site Name": "NALANG_BHALMEE DANDA", "District": "DHADING", "Municipality": null, "Ward": null, "Province": null, "latitude": 27.87482, "longitude": 84.85051 }, "geometry": { "type": "Point", "coordinates": [ 84.85051, 27.87482 ] } },
{ "type": "Feature", "properties": { "Site ID": "BAG122", "Down Time": "8/27/26 12:47", "Site Name": "KATUNJE", "District": "DHADING", "Municipality": null, "Ward": null, "Province": null, "latitude": 27.97857, "longitude": 84.9312 }, "geometry": { "type": "Point", "coordinates": [ 84.9312, 27.97857 ] } },
{ "type": "Feature", "properties": { "Site ID": "COW014", "Down Time": "8/27/26 12:47", "Site Name": "GAJURI", "District": "DHADING", "Municipality": null, "Ward": null, "Province": null, "latitude": 27.805441, "longitude": 84.878637 }, "geometry": { "type": "Point", "coordinates": [ 84.878637, 27.805441 ] } },
{ "type": "Feature", "properties": { "Site ID": "BAG125", "Down Time": "8/27/26 12:47", "Site Name": "RAMKOT", "District": "DHADING", "Municipality": null, "Ward": null, "Province": null, "latitude": 27.91191, "longitude": 84.85906 }, "geometry": { "type": "Point", "coordinates": [ 84.85906, 27.91191 ] } },
{ "type": "Feature", "properties": { "Site ID": "BAG405", "Down Time": "8/27/26 12:47", "Site Name": "MALEKHU", "District": "DHADING", "Municipality": null, "Ward": null, "Province": null, "latitude": 27.8123, "longitude": 84.8322 }, "geometry": { "type": "Point", "coordinates": [ 84.8322, 27.8123 ] } },
{ "type": "Feature", "properties": { "Site ID": "BAG032", "Down Time": "8/27/26 12:47", "Site Name": "CHAINPUR_SUNKHANI", "District": "DHADING", "Municipality": null, "Ward": null, "Province": null, "latitude": 27.9503, "longitude": 84.8452 }, "geometry": { "type": "Point", "coordinates": [ 84.8452, 27.9503 ] } },
{ "type": "Feature", "properties": { "Site ID": "BAG123", "Down Time": "8/27/26 12:47", "Site Name": "PATLE", "District": "DHADING", "Municipality": null, "Ward": null, "Province": null, "latitude": 27.86165, "longitude": 84.8132 }, "geometry": { "type": "Point", "coordinates": [ 84.8132, 27.86165 ] } },
{ "type": "Feature", "properties": { "Site ID": "BAG409", "Down Time": "8/27/26 12:47", "Site Name": "BENIGHAT", "District": "DHADING", "Municipality": null, "Ward": null, "Province": null, "latitude": 27.8122, "longitude": 84.7858 }, "geometry": { "type": "Point", "coordinates": [ 84.7858, 27.8122 ] } },
{ "type": "Feature", "properties": { "Site ID": "BAG050", "Down Time": "8/27/26 12:47", "Site Name": "DANDA KHARKA", "District": "NUWAKOT", "Municipality": "RURAL MUNICIPALITY", "Ward": 6, "Province": "BAGMATI", "latitude": 27.96305, "longitude": 85.03115 }, "geometry": { "type": "Point", "coordinates": [ 85.03115, 27.96305 ] } },
{ "type": "Feature", "properties": { "Site ID": "BAG224", "Down Time": "8/27/26 12:47", "Site Name": "DHOLA", "District": "DHADING", "Municipality": null, "Ward": null, "Province": null, "latitude": 27.92864, "longitude": 84.82417 }, "geometry": { "type": "Point", "coordinates": [ 84.82417, 27.92864 ] } },
{ "type": "Feature", "properties": { "Site ID": "BAG004", "Down Time": "8/27/26 12:47", "Site Name": "DHADING", "District": "DHADING", "Municipality": null, "Ward": null, "Province": null, "latitude": 27.9111, "longitude": 84.8931 }, "geometry": { "type": "Point", "coordinates": [ 84.8931, 27.9111 ] } },
{ "type": "Feature", "properties": { "Site ID": "BAG463", "Down Time": "8/27/26 12:47", "Site Name": "DHUSHA", "District": "DHADING", "Municipality": null, "Ward": null, "Province": null, "latitude": 27.80129, "longitude": 84.74845 }, "geometry": { "type": "Point", "coordinates": [ 84.74845, 27.80129 ] } },
{ "type": "Feature", "properties": { "Site ID": "BAG103", "Down Time": "8/27/26 12:47", "Site Name": "SYADUL THUM", "District": "DHADING", "Municipality": null, "Ward": null, "Province": null, "latitude": 27.76921, "longitude": 84.77478 }, "geometry": { "type": "Point", "coordinates": [ 84.77478, 27.76921 ] } },
{ "type": "Feature", "properties": { "Site ID": "BAG044", "Down Time": "8/27/26 12:47", "Site Name": "MAIDI", "District": "DHADING", "Municipality": null, "Ward": null, "Province": null, "latitude": 27.90049, "longitude": 84.79658 }, "geometry": { "type": "Point", "coordinates": [ 84.79658, 27.90049 ] } },
{ "type": "Feature", "properties": { "Site ID": "BAG119", "Down Time": "8/27/26 12:47", "Site Name": "KOT DANDA/ SANKOSH", "District": "DHADING", "Municipality": null, "Ward": null, "Province": null, "latitude": 27.93465, "longitude": 84.8978 }, "geometry": { "type": "Point", "coordinates": [ 84.8978, 27.93465 ] } },
{ "type": "Feature", "properties": { "Site ID": "BAG152", "Down Time": "8/27/26 11:34", "Site Name": "KIRANCHOWK", "District": "DHADING", "Municipality": null, "Ward": null, "Province": null, "latitude": 27.75227, "longitude": 84.92226 }, "geometry": { "type": "Point", "coordinates": [ 84.92226, 27.75227 ] } },
{ "type": "Feature", "properties": { "Site ID": "BAG245", "Down Time": "8/27/26 11:34", "Site Name": "NEPALTAR", "District": "DHADING", "Municipality": null, "Ward": null, "Province": null, "latitude": 27.81191, "longitude": 84.8586 }, "geometry": { "type": "Point", "coordinates": [ 84.8586, 27.81191 ] } },
{ "type": "Feature", "properties": { "Site ID": "BAG408", "Down Time": "8/27/26 11:34", "Site Name": "BATASE_DANDA", "District": "DHADING", "Municipality": null, "Ward": null, "Province": null, "latitude": 27.8043, "longitude": 84.9563 }, "geometry": { "type": "Point", "coordinates": [ 84.9563, 27.8043 ] } },
{ "type": "Feature", "properties": { "Site ID": "BAG107", "Down Time": "8/27/26 11:34", "Site Name": "PIRA", "District": "DHADING", "Municipality": null, "Ward": null, "Province": null, "latitude": 27.78301, "longitude": 84.90959 }, "geometry": { "type": "Point", "coordinates": [ 84.90959, 27.78301 ] } },
{ "type": "Feature", "properties": { "Site ID": "BAG411", "Down Time": "8/27/26 4:43", "Site Name": "JOGIMARA", "District": "DHADING", "Municipality": null, "Ward": null, "Province": null, "latitude": 27.8009, "longitude": 84.7196 }, "geometry": { "type": "Point", "coordinates": [ 84.7196, 27.8009 ] } },
{ "type": "Feature", "properties": { "Site ID": "BAG118", "Down Time": "8/27/26 1:54", "Site Name": "BHOGTENI", "District": "DHADING", "Municipality": null, "Ward": null, "Province": null, "latitude": 27.96877, "longitude": 84.99141 }, "geometry": { "type": "Point", "coordinates": [ 84.99141, 27.96877 ] } },
{ "type": "Feature", "properties": { "Site ID": "BAG209", "Down Time": "8/26/26 17:35", "Site Name": "DHARKA", "District": "DHADING", "Municipality": null, "Ward": null, "Province": null, "latitude": 28.06467, "longitude": 85.00649 }, "geometry": { "type": "Point", "coordinates": [ 85.00649, 28.06467 ] } },
{ "type": "Feature", "properties": { "Site ID": "NAR430", "Down Time": "8/26/26 13:23", "Site Name": "CHAIBUNG", "District": "CHITWAN", "Municipality": null, "Ward": null, "Province": null, "latitude": 27.8459, "longitude": 84.65389 }, "geometry": { "type": "Point", "coordinates": [ 84.65389, 27.8459 ] } },
{ "type": "Feature", "properties": { "Site ID": "BAG120", "Down Time": "8/26/26 9:53", "Site Name": "MANE DADA/ TARKESHWAR", "District": "NUWAKOT", "Municipality": "RURAL MUNICIPALITY", "Ward": 5, "Province": "BAGMATI", "latitude": 27.89273, "longitude": 85.06361 }, "geometry": { "type": "Point", "coordinates": [ 85.06361, 27.89273 ] } },
{ "type": "Feature", "properties": { "Site ID": "BAG208", "Down Time": "8/26/26 9:53", "Site Name": "TIRU, UTTARGAYA", "District": "RASUWA", "Municipality": "RURAL MUNICIPALITY", "Ward": 1, "Province": "BAGMATI", "latitude": 28.09367, "longitude": 85.21162 }, "geometry": { "type": "Point", "coordinates": [ 85.21162, 28.09367 ] } },
{ "type": "Feature", "properties": { "Site ID": "BAG056", "Down Time": "8/26/26 9:53", "Site Name": "DEURALI, MYAGANG", "District": "NUWAKOT", "Municipality": "RURAL MUNICIPALITY", "Ward": 3, "Province": "BAGMATI", "latitude": 27.97989, "longitude": 85.08611 }, "geometry": { "type": "Point", "coordinates": [ 85.08611, 27.97989 ] } },
{ "type": "Feature", "properties": { "Site ID": "BAG002", "Down Time": "8/26/26 9:53", "Site Name": "BATTAR, BIDUR", "District": "NUWAKOT", "Municipality": "MUNICIPALITY", "Ward": 4, "Province": "BAGMATI", "latitude": 27.89599, "longitude": 85.14661 }, "geometry": { "type": "Point", "coordinates": [ 85.14661, 27.89599 ] } },
{ "type": "Feature", "properties": { "Site ID": "BAG114", "Down Time": "8/26/26 9:53", "Site Name": "JUGETAR", "District": "NUWAKOT", "Municipality": "MUNICIPALITY", "Ward": 9, "Province": "BAGMATI", "latitude": 27.94275, "longitude": 85.14937 }, "geometry": { "type": "Point", "coordinates": [ 85.14937, 27.94275 ] } },
{ "type": "Feature", "properties": { "Site ID": "BAG139", "Down Time": "8/26/26 9:53", "Site Name": "MAHAMANDAL", "District": "NUWAKOT", "Municipality": "MUNICIPALITY", "Ward": 2, "Province": "BAGMATI", "latitude": 27.91896, "longitude": 85.16674 }, "geometry": { "type": "Point", "coordinates": [ 85.16674, 27.91896 ] } },
{ "type": "Feature", "properties": { "Site ID": "BAG427", "Down Time": "8/26/26 9:53", "Site Name": "GOLJUNG/ AAMA CHHODINGMO", "District": "RASUWA", "Municipality": "RURAL MUNICIPALITY", "Ward": 5, "Province": "BAGMATI", "latitude": 28.1688, "longitude": 85.32436 }, "geometry": { "type": "Point", "coordinates": [ 85.32436, 28.1688 ] } },
{ "type": "Feature", "properties": { "Site ID": "BAG144", "Down Time": "8/26/26 9:53", "Site Name": "KHALCHET BHANJYANG, NAUKUNDA", "District": "RASUWA", "Municipality": "RURAL MUNICIPALITY", "Ward": 6, "Province": "BAGMATI", "latitude": 27.99927, "longitude": 85.24295 }, "geometry": { "type": "Point", "coordinates": [ 85.24295, 27.99927 ] } },
{ "type": "Feature", "properties": { "Site ID": "BAG443", "Down Time": "8/26/26 9:53", "Site Name": "GATLAN/ AAMA CHHODINGMO", "District": "RASUWA", "Municipality": "RURAL MUNICIPALITY", "Ward": 3, "Province": "BAGMATI", "latitude": 28.14417, "longitude": 85.26922 }, "geometry": { "type": "Point", "coordinates": [ 85.26922, 28.14417 ] } },
{ "type": "Feature", "properties": { "Site ID": "BAG061", "Down Time": "8/26/26 9:53", "Site Name": "DUE PIPLE_KOLTAK, BELKOTGADHI", "District": "NUWAKOT", "Municipality": "MUNICIPALITY", "Ward": 6, "Province": "BAGMATI", "latitude": 27.8371, "longitude": 85.06625 }, "geometry": { "type": "Point", "coordinates": [ 85.06625, 27.8371 ] } },
{ "type": "Feature", "properties": { "Site ID": "BAG196", "Down Time": "8/26/26 9:53", "Site Name": "BATTAR BAZAR", "District": "NUWAKOT", "Municipality": "MUNICIPALITY", "Ward": 4, "Province": "BAGMATI", "latitude": 27.90423, "longitude": 85.14574 }, "geometry": { "type": "Point", "coordinates": [ 85.14574, 27.90423 ] } },
{ "type": "Feature", "properties": { "Site ID": "BAG022", "Down Time": "8/26/26 9:53", "Site Name": "BIDUR", "District": "NUWAKOT", "Municipality": "MUNICIPALITY", "Ward": 4, "Province": "BAGMATI", "latitude": 27.9113, "longitude": 85.1418 }, "geometry": { "type": "Point", "coordinates": [ 85.1418, 27.9113 ] } },
{ "type": "Feature", "properties": { "Site ID": "BAG138", "Down Time": "8/26/26 9:52", "Site Name": "PIPALTAR", "District": "NUWAKOT", "Municipality": "MUNICIPALITY", "Ward": 5, "Province": "BAGMATI", "latitude": 27.87258, "longitude": 85.14091 }, "geometry": { "type": "Point", "coordinates": [ 85.14091, 27.87258 ] } },
{ "type": "Feature", "properties": { "Site ID": "BAG025", "Down Time": "8/26/26 9:52", "Site Name": "KHALTE (TRANSIT)", "District": "DHADING", "Municipality": null, "Ward": null, "Province": null, "latitude": 27.8845, "longitude": 84.9489 }, "geometry": { "type": "Point", "coordinates": [ 84.9489, 27.8845 ] } },
{ "type": "Feature", "properties": { "Site ID": "BAG214", "Down Time": "8/26/26 9:52", "Site Name": "BHOOMIDANDA", "District": "DHADING", "Municipality": null, "Ward": null, "Province": null, "latitude": 27.83761, "longitude": 84.9475 }, "geometry": { "type": "Point", "coordinates": [ 84.9475, 27.83761 ] } },
{ "type": "Feature", "properties": { "Site ID": "BAG102", "Down Time": "8/26/26 9:52", "Site Name": "SUNAULA BAZAR", "District": "DHADING", "Municipality": null, "Ward": null, "Province": null, "latitude": 27.8623, "longitude": 84.92938 }, "geometry": { "type": "Point", "coordinates": [ 84.92938, 27.8623 ] } },
{ "type": "Feature", "properties": { "Site ID": "BAG077", "Down Time": "8/26/26 9:52", "Site Name": "SIBALAYA DADA", "District": "NUWAKOT", "Municipality": "RURAL MUNICIPALITY", "Ward": 3, "Province": "BAGMATI", "latitude": 27.87289, "longitude": 85.00895 }, "geometry": { "type": "Point", "coordinates": [ 85.00895, 27.87289 ] } },
{ "type": "Feature", "properties": { "Site ID": "BAG451", "Down Time": "8/26/26 9:52", "Site Name": "BAHUDANDA", "District": "NUWAKOT", "Municipality": "MUNICIPALITY", "Ward": 8, "Province": "BAGMATI", "latitude": 27.84937, "longitude": 85.10679 }, "geometry": { "type": "Point", "coordinates": [ 85.10679, 27.84937 ] } },
{ "type": "Feature", "properties": { "Site ID": "BAG121", "Down Time": "8/26/26 9:52", "Site Name": "KHADKABHANJYANG", "District": "NUWAKOT", "Municipality": "MUNICIPALITY", "Ward": 3, "Province": "BAGMATI", "latitude": 27.88407, "longitude": 85.0956 }, "geometry": { "type": "Point", "coordinates": [ 85.0956, 27.88407 ] } },
{ "type": "Feature", "properties": { "Site ID": "BAG017", "Down Time": "8/26/26 9:39", "Site Name": "TRISHULI", "District": "NUWAKOT", "Municipality": "MUNICIPALITY", "Ward": 9, "Province": "BAGMATI", "latitude": 27.9221, "longitude": 85.1444 }, "geometry": { "type": "Point", "coordinates": [ 85.1444, 27.9221 ] } },
{ "type": "Feature", "properties": { "Site ID": "BAG023", "Down Time": "8/26/26 9:27", "Site Name": "DHUNCHE", "District": "RASUWA", "Municipality": "RURAL MUNICIPALITY", "Ward": 6, "Province": "BAGMATI", "latitude": 28.1127, "longitude": 85.2962 }, "geometry": { "type": "Point", "coordinates": [ 85.2962, 28.1127 ] } },
{ "type": "Feature", "properties": { "Site ID": "BAG073", "Down Time": "8/26/26 9:27", "Site Name": "TADI", "District": "NUWAKOT", "Municipality": "RURAL MUNICIPALITY", "Ward": 3, "Province": "BAGMATI", "latitude": 27.92176, "longitude": 85.30878 }, "geometry": { "type": "Point", "coordinates": [ 85.30878, 27.92176 ] } },
{ "type": "Feature", "properties": { "Site ID": "BAG186", "Down Time": "8/26/26 9:27", "Site Name": "KALIKASTHAN/ PANCHAKANYA", "District": "NUWAKOT", "Municipality": "RURAL MUNICIPALITY", "Ward": 2, "Province": "BAGMATI", "latitude": 27.89004, "longitude": 85.30007 }, "geometry": { "type": "Point", "coordinates": [ 85.30007, 27.89004 ] } },
{ "type": "Feature", "properties": { "Site ID": "BAG455", "Down Time": "8/26/26 9:27", "Site Name": "KALIKASTHAN", "District": "RASUWA", "Municipality": "RURAL MUNICIPALITY", "Ward": 2, "Province": "BAGMATI", "latitude": 28.00057, "longitude": 85.20823 }, "geometry": { "type": "Point", "coordinates": [ 85.20823, 28.00057 ] } },
{ "type": "Feature", "properties": { "Site ID": "BAG166", "Down Time": "8/26/26 9:27", "Site Name": "CHULI(KADENI), DUPCHESHWAR", "District": "NUWAKOT", "Municipality": "RURAL MUNICIPALITY", "Ward": 1, "Province": "BAGMATI", "latitude": 27.94905, "longitude": 85.42847 }, "geometry": { "type": "Point", "coordinates": [ 85.42847, 27.94905 ] } },
{ "type": "Feature", "properties": { "Site ID": "BAG143", "Down Time": "8/26/26 9:27", "Site Name": "HUN/ DUPCHESHWAR", "District": "NUWAKOT", "Municipality": "RURAL MUNICIPALITY", "Ward": 3, "Province": "BAGMATI", "latitude": 27.93001, "longitude": 85.39915 }, "geometry": { "type": "Point", "coordinates": [ 85.39915, 27.93001 ] } },
{ "type": "Feature", "properties": { "Site ID": "BAG466", "Down Time": "8/26/26 8:46", "Site Name": "RASUWAGADI", "District": "RASUWA", "Municipality": "RURAL MUNICIPALITY", "Ward": 2, "Province": "BAGMATI", "latitude": 28.2645, "longitude": 85.3742 }, "geometry": { "type": "Point", "coordinates": [ 85.3742, 28.2645 ] } },
{ "type": "Feature", "properties": { "Site ID": "BAG407", "Down Time": null, "Site Name": "BELKOTGADHI", "District": "NUWAKOT", "Municipality": "MUNICIPALITY", "Ward": 11, "Province": "BAGMATI", "latitude": 27.8173, "longitude": 85.1708 }, "geometry": { "type": "Point", "coordinates": [ 85.1708, 27.8173 ] } },
{ "type": "Feature", "properties": { "Site ID": "BAG041", "Down Time": null, "Site Name": "SURYAGADHI", "District": "NUWAKOT", "Municipality": "RURAL MUNICIPALITY", "Ward": 5, "Province": "BAGMATI", "latitude": 27.91656, "longitude": 85.23419 }, "geometry": { "type": "Point", "coordinates": [ 85.23419, 27.91656 ] } },
{ "type": "Feature", "properties": { "Site ID": "BAG416", "Down Time": null, "Site Name": "BELKOTGADHI", "District": "NUWAKOT", "Municipality": "MUNICIPALITY", "Ward": 13, "Province": "BAGMATI", "latitude": 27.85061, "longitude": 85.19139 }, "geometry": { "type": "Point", "coordinates": [ 85.19139, 27.85061 ] } },
{ "type": "Feature", "properties": { "Site ID": "BAG433", "Down Time": null, "Site Name": "KAKANI", "District": "NUWAKOT", "Municipality": "RURAL MUNICIPALITY", "Ward": 5, "Province": "BAGMATI", "latitude": 27.81333, "longitude": 85.26865 }, "geometry": { "type": "Point", "coordinates": [ 85.26865, 27.81333 ] } },
{ "type": "Feature", "properties": { "Site ID": "BAG439", "Down Time": null, "Site Name": "KAKANI", "District": "NUWAKOT", "Municipality": "RURAL MUNICIPALITY", "Ward": 4, "Province": "BAGMATI", "latitude": 27.83236, "longitude": 85.23923 }, "geometry": { "type": "Point", "coordinates": [ 85.23923, 27.83236 ] } },
{ "type": "Feature", "properties": { "Site ID": "BAG115", "Down Time": null, "Site Name": "BIDUR", "District": "NUWAKOT", "Municipality": "MUNICIPALITY", "Ward": 11, "Province": "BAGMATI", "latitude": 27.94593, "longitude": 85.19589 }, "geometry": { "type": "Point", "coordinates": [ 85.19589, 27.94593 ] } },
{ "type": "Feature", "properties": { "Site ID": "BAG130", "Down Time": null, "Site Name": "BELKOTGADHI", "District": "NUWAKOT", "Municipality": "MUNICIPALITY", "Ward": 4, "Province": "BAGMATI", "latitude": 27.80051, "longitude": 85.11736 }, "geometry": { "type": "Point", "coordinates": [ 85.11736, 27.80051 ] } },
{ "type": "Feature", "properties": { "Site ID": "BAG459", "Down Time": null, "Site Name": "BELKOTGADHI", "District": "NUWAKOT", "Municipality": "MUNICIPALITY", "Ward": 10, "Province": "BAGMATI", "latitude": 27.84764, "longitude": 85.14569 }, "geometry": { "type": "Point", "coordinates": [ 85.14569, 27.84764 ] } },
{ "type": "Feature", "properties": { "Site ID": "BAG153", "Down Time": null, "Site Name": "SHIVAPURI", "District": "NUWAKOT", "Municipality": "RURAL MUNICIPALITY", "Ward": 5, "Province": "BAGMATI", "latitude": 27.88338, "longitude": 85.34096 }, "geometry": { "type": "Point", "coordinates": [ 85.34096, 27.88338 ] } },
{ "type": "Feature", "properties": { "Site ID": "BAG248", "Down Time": null, "Site Name": "KAKANI", "District": "NUWAKOT", "Municipality": "RURAL MUNICIPALITY", "Ward": 1, "Province": "BAGMATI", "latitude": 27.79197, "longitude": 85.26707 }, "geometry": { "type": "Point", "coordinates": [ 85.26707, 27.79197 ] } }
]
}
