{
"type": "FeatureCollection",
"name": "NTC_Towers",
"crs": { "type": "name", "properties": { "name": "urn:ogc:def:crs:OGC:1.3:CRS84" } },
"features": [
{ "type": "Feature", "properties": { "Site ID": "CDR1002", "Site Name": "CDR1002_Samundradevi", "District": "NUWAKOT", "Latitude": 27.843521, "Longitude": 85.352 }, "geometry": { "type": "Point", "coordinates": [ 85.352, 27.843521 ] } },
{ "type": "Feature", "properties": { "Site ID": "CDR1032", "Site Name": "CDR1032_Sangkosh Danda", "District": "DHADING", "Latitude": 27.93898, "Longitude": 84.90999 }, "geometry": { "type": "Point", "coordinates": [ 84.90999, 27.93898 ] } },
{ "type": "Feature", "properties": { "Site ID": "CDR1036", "Site Name": "CDR1036_Dandakharka(Nuwakot)", "District": "NUWAKOT", "Latitude": 27.82144, "Longitude": 85.091327 }, "geometry": { "type": "Point", "coordinates": [ 85.091327, 27.82144 ] } },
{ "type": "Feature", "properties": { "Site ID": "CDR1055", "Site Name": "CDR1055_Ramche _Adamtar", "District": "DHADING", "Latitude": 27.783835, "Longitude": 84.911268 }, "geometry": { "type": "Point", "coordinates": [ 84.911268, 27.783835 ] } },
{ "type": "Feature", "properties": { "Site ID": "CDR1056", "Site Name": "CDR1056_Upper Syanjen Camp Micro", "District": "RASUWA", "Latitude": null, "Longitude": null }, "geometry": null },
{ "type": "Feature", "properties": { "Site ID": "CDR1057", "Site Name": "CDR1057_MalekhuBazarMicro", "District": "DHADING", "Latitude": 27.807692, "Longitude": 84.851069 }, "geometry": { "type": "Point", "coordinates": [ 84.851069, 27.807692 ] } },
{ "type": "Feature", "properties": { "Site ID": "CDR1065", "Site Name": "CDR1065_CHILIME KHOLA_3G", "District": "RASUWA", "Latitude": 28.18094, "Longitude": 85.3418 }, "geometry": { "type": "Point", "coordinates": [ 85.3418, 28.18094 ] } },
{ "type": "Feature", "properties": { "Site ID": "CDR1091", "Site Name": "CDR1091_Manakamana Danda", "District": "DHADING", "Latitude": 27.93723, "Longitude": 84.94799 }, "geometry": { "type": "Point", "coordinates": [ 84.94799, 27.93723 ] } },
{ "type": "Feature", "properties": { "Site ID": "CDR1125", "Site Name": "CDR1125_Kiranchwok2", "District": "DHADING", "Latitude": 27.704639, "Longitude": 84.959981 }, "geometry": { "type": "Point", "coordinates": [ 84.959981, 27.704639 ] } },
{ "type": "Feature", "properties": { "Site ID": "CDR114", "Site Name": "AGNICHOK", "District": "DHADING", "Latitude": 28.03332, "Longitude": 84.84422 }, "geometry": { "type": "Point", "coordinates": [ 84.84422, 28.03332 ] } },
{ "type": "Feature", "properties": { "Site ID": "CDR115", "Site Name": "BAIRENI-1 (THAMEL DANDA)", "District": "DHADING", "Latitude": 27.80426, "Longitude": 84.95636 }, "geometry": { "type": "Point", "coordinates": [ 84.95636, 27.80426 ] } },
{ "type": "Feature", "properties": { "Site ID": "CDR116", "Site Name": "BENIGHAT", "District": "DHADING", "Latitude": 27.8119, "Longitude": 84.78306 }, "geometry": { "type": "Point", "coordinates": [ 84.78306, 27.8119 ] } },
{ "type": "Feature", "properties": { "Site ID": "CDR117", "Site Name": "BUDATHUM", "District": "DHADING", "Latitude": 28.08, "Longitude": 84.8529 }, "geometry": { "type": "Point", "coordinates": [ 84.8529, 28.08 ] } },
{ "type": "Feature", "properties": { "Site ID": "CDR118", "Site Name": "CHHATREDEURALI", "District": "DHADING", "Latitude": 27.7556, "Longitude": 85.20774 }, "geometry": { "type": "Point", "coordinates": [ 85.20774, 27.7556 ] } },
{ "type": "Feature", "properties": { "Site ID": "CDR120", "Site Name": "DHADING BESI", "District": "DHADING", "Latitude": 27.91199, "Longitude": 84.89647 }, "geometry": { "type": "Point", "coordinates": [ 84.89647, 27.91199 ] } },
{ "type": "Feature", "properties": { "Site ID": "CDR121", "Site Name": "DHUSSA PRITHVI HIGHWAY", "District": "DHADING", "Latitude": 27.7842, "Longitude": 84.74352 }, "geometry": { "type": "Point", "coordinates": [ 84.74352, 27.7842 ] } },
{ "type": "Feature", "properties": { "Site ID": "CDR122", "Site Name": "DHUWAKOT", "District": "DHADING", "Latitude": 27.93478, "Longitude": 84.9938 }, "geometry": { "type": "Point", "coordinates": [ 84.9938, 27.93478 ] } },
{ "type": "Feature", "properties": { "Site ID": "CDR123", "Site Name": "GAJURI", "District": "DHADING", "Latitude": 27.80446, "Longitude": 84.87681 }, "geometry": { "type": "Point", "coordinates": [ 84.87681, 27.80446 ] } },
{ "type": "Feature", "properties": { "Site ID": "CDR124", "Site Name": "GAJURI2", "District": "DHADING", "Latitude": 27.76486, "Longitude": 84.86153 }, "geometry": { "type": "Point", "coordinates": [ 84.86153, 27.76486 ] } },
{ "type": "Feature", "properties": { "Site ID": "CDR125", "Site Name": "GOGANPANI", "District": "DHADING", "Latitude": 27.78991, "Longitude": 85.02146 }, "geometry": { "type": "Point", "coordinates": [ 85.02146, 27.78991 ] } },
{ "type": "Feature", "properties": { "Site ID": "CDR1257", "Site Name": "CDR1257_JIBJIBE MICRO", "District": "RASUWA", "Latitude": 27.9923651, "Longitude": 85.224108 }, "geometry": { "type": "Point", "coordinates": [ 85.224108, 27.9923651 ] } },
{ "type": "Feature", "properties": { "Site ID": "CDR126", "Site Name": "GUMDI", "District": "DHADING", "Latitude": 28.06284, "Longitude": 84.95511 }, "geometry": { "type": "Point", "coordinates": [ 84.95511, 28.06284 ] } },
{ "type": "Feature", "properties": { "Site ID": "CDR127", "Site Name": "JEEWANPUR", "District": "DHADING", "Latitude": 27.75434, "Longitude": 85.14316 }, "geometry": { "type": "Point", "coordinates": [ 85.14316, 27.75434 ] } },
{ "type": "Feature", "properties": { "Site ID": "CDR128", "Site Name": "JOGIMARA", "District": "DHADING", "Latitude": 27.80068, "Longitude": 84.66903 }, "geometry": { "type": "Point", "coordinates": [ 84.66903, 27.80068 ] } },
{ "type": "Feature", "properties": { "Site ID": "CDR129", "Site Name": "JYAMRUNG", "District": "DHADING", "Latitude": 27.97779, "Longitude": 84.8722 }, "geometry": { "type": "Point", "coordinates": [ 84.8722, 27.97779 ] } },
{ "type": "Feature", "properties": { "Site ID": "CDR130", "Site Name": "KALLERI (SUNAULOBAZAR)", "District": "DHADING", "Latitude": 27.83772, "Longitude": 84.94726 }, "geometry": { "type": "Point", "coordinates": [ 84.94726, 27.83772 ] } },
{ "type": "Feature", "properties": { "Site ID": "CDR131", "Site Name": "KARIGOAN(Salyankot)", "District": "DHADING", "Latitude": 28.02108, "Longitude": 84.90788 }, "geometry": { "type": "Point", "coordinates": [ 84.90788, 28.02108 ] } },
{ "type": "Feature", "properties": { "Site ID": "CDR132", "Site Name": "KATUNJE", "District": "DHADING", "Latitude": 27.96686, "Longitude": 84.96071 }, "geometry": { "type": "Point", "coordinates": [ 84.96071, 27.96686 ] } },
{ "type": "Feature", "properties": { "Site ID": "CDR133", "Site Name": "KIRANCHOWK", "District": "DHADING", "Latitude": 27.76124, "Longitude": 84.92625 }, "geometry": { "type": "Point", "coordinates": [ 84.92625, 27.76124 ] } },
{ "type": "Feature", "properties": { "Site ID": "CDR134", "Site Name": "KUMPUR", "District": "DHADING", "Latitude": 27.84463, "Longitude": 84.89445 }, "geometry": { "type": "Point", "coordinates": [ 84.89445, 27.84463 ] } },
{ "type": "Feature", "properties": { "Site ID": "CDR1346", "Site Name": "CDR1346_Chandanbari", "District": "RASUWA", "Latitude": 28.110374, "Longitude": 85.340236 }, "geometry": { "type": "Point", "coordinates": [ 85.340236, 28.110374 ] } },
{ "type": "Feature", "properties": { "Site ID": "CDR135", "Site Name": "LAPA", "District": "DHADING", "Latitude": 28.15438, "Longitude": 85.02846 }, "geometry": { "type": "Point", "coordinates": [ 85.02846, 28.15438 ] } },
{ "type": "Feature", "properties": { "Site ID": "CDR136", "Site Name": "MAHADEVBESI", "District": "DHADING", "Latitude": 27.75692, "Longitude": 85.05817 }, "geometry": { "type": "Point", "coordinates": [ 85.05817, 27.75692 ] } },
{ "type": "Feature", "properties": { "Site ID": "CDR138", "Site Name": "MAIDI", "District": "DHADING", "Latitude": 27.90027, "Longitude": 84.77984 }, "geometry": { "type": "Point", "coordinates": [ 84.77984, 27.90027 ] } },
{ "type": "Feature", "properties": { "Site ID": "CDR139", "Site Name": "MALEKHU", "District": "DHADING", "Latitude": 27.82315, "Longitude": 84.83314 }, "geometry": { "type": "Point", "coordinates": [ 84.83314, 27.82315 ] } },
{ "type": "Feature", "properties": { "Site ID": "CDR140", "Site Name": "NALANG", "District": "DHADING", "Latitude": 27.85647, "Longitude": 84.84464 }, "geometry": { "type": "Point", "coordinates": [ 84.84464, 27.85647 ] } },
{ "type": "Feature", "properties": { "Site ID": "CDR141", "Site Name": "NAUBISE", "District": "DHADING", "Latitude": 27.72816, "Longitude": 85.14846 }, "geometry": { "type": "Point", "coordinates": [ 85.14846, 27.72816 ] } },
{ "type": "Feature", "properties": { "Site ID": "CDR142", "Site Name": "PUCHHAR BAZAR", "District": "DHADING", "Latitude": 27.91209, "Longitude": 84.88544 }, "geometry": { "type": "Point", "coordinates": [ 84.88544, 27.91209 ] } },
{ "type": "Feature", "properties": { "Site ID": "CDR143", "Site Name": "SAALBAS", "District": "DHADING", "Latitude": 27.96442, "Longitude": 84.82335 }, "geometry": { "type": "Point", "coordinates": [ 84.82335, 27.96442 ] } },
{ "type": "Feature", "properties": { "Site ID": "CDR144", "Site Name": "THAKRE(HAPSECHAUR)", "District": "DHADING", "Latitude": 27.72322, "Longitude": 85.10037 }, "geometry": { "type": "Point", "coordinates": [ 85.10037, 27.72322 ] } },
{ "type": "Feature", "properties": { "Site ID": "CDR145", "Site Name": "RANIBARI(Thakre)", "District": "DHADING", "Latitude": 27.74038, "Longitude": 85.07343 }, "geometry": { "type": "Point", "coordinates": [ 85.07343, 27.74038 ] } },
{ "type": "Feature", "properties": { "Site ID": "CDR146", "Site Name": "Tipling", "District": "DHADING", "Latitude": 28.18795, "Longitude": 85.11237 }, "geometry": { "type": "Point", "coordinates": [ 85.11237, 28.18795 ] } },
{ "type": "Feature", "properties": { "Site ID": "CDR365", "Site Name": "BALKUMARI NUWAKOT", "District": "NUWAKOT", "Latitude": 27.9149, "Longitude": 85.37865 }, "geometry": { "type": "Point", "coordinates": [ 85.37865, 27.9149 ] } },
{ "type": "Feature", "properties": { "Site ID": "CDR366", "Site Name": "BATTAR", "District": "NUWAKOT", "Latitude": 27.89673, "Longitude": 85.14517 }, "geometry": { "type": "Point", "coordinates": [ 85.14517, 27.89673 ] } },
{ "type": "Feature", "properties": { "Site ID": "CDR367", "Site Name": "BHADRATAR(THAPREK)", "District": "NUWAKOT", "Latitude": 27.8879, "Longitude": 85.35657 }, "geometry": { "type": "Point", "coordinates": [ 85.35657, 27.8879 ] } },
{ "type": "Feature", "properties": { "Site ID": "CDR368", "Site Name": "BIDUR", "District": "NUWAKOT", "Latitude": 27.91205, "Longitude": 85.14204 }, "geometry": { "type": "Point", "coordinates": [ 85.14204, 27.91205 ] } },
{ "type": "Feature", "properties": { "Site ID": "CDR369", "Site Name": "Budhasing", "District": "NUWAKOT", "Latitude": 27.89238, "Longitude": 85.06313 }, "geometry": { "type": "Point", "coordinates": [ 85.06313, 27.89238 ] } },
{ "type": "Feature", "properties": { "Site ID": "CDR370", "Site Name": "Bungtang", "District": "NUWAKOT", "Latitude": 27.99424, "Longitude": 85.10349 }, "geometry": { "type": "Point", "coordinates": [ 85.10349, 27.99424 ] } },
{ "type": "Feature", "properties": { "Site ID": "CDR371", "Site Name": "Charghare", "District": "NUWAKOT", "Latitude": 27.9234, "Longitude": 85.10999 }, "geometry": { "type": "Point", "coordinates": [ 85.10999, 27.9234 ] } },
{ "type": "Feature", "properties": { "Site ID": "CDR372", "Site Name": "CHAUGADE", "District": "NUWAKOT", "Latitude": 27.89221, "Longitude": 85.23043 }, "geometry": { "type": "Point", "coordinates": [ 85.23043, 27.89221 ] } },
{ "type": "Feature", "properties": { "Site ID": "CDR373", "Site Name": "DUIPIPAL", "District": "NUWAKOT", "Latitude": 27.83673, "Longitude": 85.0616 }, "geometry": { "type": "Point", "coordinates": [ 85.0616, 27.83673 ] } },
{ "type": "Feature", "properties": { "Site ID": "CDR374", "Site Name": "Gerkhu(BagesworiChokade)", "District": "NUWAKOT", "Latitude": 27.94182, "Longitude": 85.21635 }, "geometry": { "type": "Point", "coordinates": [ 85.21635, 27.94182 ] } },
{ "type": "Feature", "properties": { "Site ID": "CDR375", "Site Name": "Ghyangphedi", "District": "NUWAKOT", "Latitude": 27.94868, "Longitude": 85.42793 }, "geometry": { "type": "Point", "coordinates": [ 85.42793, 27.94868 ] } },
{ "type": "Feature", "properties": { "Site ID": "CDR376", "Site Name": "JILING (MAHADEVKHARKA)", "District": "NUWAKOT", "Latitude": 27.84643, "Longitude": 85.10815 }, "geometry": { "type": "Point", "coordinates": [ 85.10815, 27.84643 ] } },
{ "type": "Feature", "properties": { "Site ID": "CDR377", "Site Name": "KAKANI", "District": "NUWAKOT", "Latitude": 27.81346, "Longitude": 85.27071 }, "geometry": { "type": "Point", "coordinates": [ 85.27071, 27.81346 ] } },
{ "type": "Feature", "properties": { "Site ID": "CDR378", "Site Name": "KALYANPUR", "District": "NUWAKOT", "Latitude": 27.95502, "Longitude": 85.08387 }, "geometry": { "type": "Point", "coordinates": [ 85.08387, 27.95502 ] } },
{ "type": "Feature", "properties": { "Site ID": "CDR379", "Site Name": "KHARANITAR", "District": "NUWAKOT", "Latitude": 27.92235, "Longitude": 85.30943 }, "geometry": { "type": "Point", "coordinates": [ 85.30943, 27.92235 ] } },
{ "type": "Feature", "properties": { "Site ID": "CDR380", "Site Name": "MADANPUR", "District": "NUWAKOT", "Latitude": 27.85071, "Longitude": 85.1913 }, "geometry": { "type": "Point", "coordinates": [ 85.1913, 27.85071 ] } },
{ "type": "Feature", "properties": { "Site ID": "CDR381", "Site Name": "NARJAMANDAP", "District": "NUWAKOT", "Latitude": 27.94569, "Longitude": 85.28432 }, "geometry": { "type": "Point", "coordinates": [ 85.28432, 27.94569 ] } },
{ "type": "Feature", "properties": { "Site ID": "CDR382", "Site Name": "NEUPANECHAUR", "District": "NUWAKOT", "Latitude": 28.02233, "Longitude": 85.14638 }, "geometry": { "type": "Point", "coordinates": [ 85.14638, 28.02233 ] } },
{ "type": "Feature", "properties": { "Site ID": "CDR383", "Site Name": "NUWAKOT DURBAR", "District": "NUWAKOT", "Latitude": 27.9219, "Longitude": 85.16769 }, "geometry": { "type": "Point", "coordinates": [ 85.16769, 27.9219 ] } },
{ "type": "Feature", "properties": { "Site ID": "CDR384", "Site Name": "OKARPAUWA", "District": "NUWAKOT", "Latitude": 27.79072, "Longitude": 85.26579 }, "geometry": { "type": "Point", "coordinates": [ 85.26579, 27.79072 ] } },
{ "type": "Feature", "properties": { "Site ID": "CDR385", "Site Name": "RANIPAUWA", "District": "NUWAKOT", "Latitude": 27.829342, "Longitude": 85.23952 }, "geometry": { "type": "Point", "coordinates": [ 85.23952, 27.829342 ] } },
{ "type": "Feature", "properties": { "Site ID": "CDR386", "Site Name": "SAMARI BHANJYANG", "District": "NUWAKOT", "Latitude": 27.955903, "Longitude": 85.036456 }, "geometry": { "type": "Point", "coordinates": [ 85.036456, 27.955903 ] } },
{ "type": "Feature", "properties": { "Site ID": "CDR387", "Site Name": "SUNKHANI", "District": "NUWAKOT", "Latitude": 27.82317, "Longitude": 85.3112 }, "geometry": { "type": "Point", "coordinates": [ 85.3112, 27.82317 ] } },
{ "type": "Feature", "properties": { "Site ID": "CDR388", "Site Name": "Talakhu", "District": "NUWAKOT", "Latitude": 27.83221, "Longitude": 85.44942 }, "geometry": { "type": "Point", "coordinates": [ 85.44942, 27.83221 ] } },
{ "type": "Feature", "properties": { "Site ID": "CDR389", "Site Name": "TARUKA", "District": "NUWAKOT", "Latitude": 27.87316, "Longitude": 85.00874 }, "geometry": { "type": "Point", "coordinates": [ 85.00874, 27.87316 ] } },
{ "type": "Feature", "properties": { "Site ID": "CDR390", "Site Name": "TRISULI BAZAR", "District": "NUWAKOT", "Latitude": 27.92111, "Longitude": 85.15031 }, "geometry": { "type": "Point", "coordinates": [ 85.15031, 27.92111 ] } },
{ "type": "Feature", "properties": { "Site ID": "CDR391", "Site Name": "TUPCHE", "District": "NUWAKOT", "Latitude": 27.95633, "Longitude": 85.14335 }, "geometry": { "type": "Point", "coordinates": [ 85.14335, 27.95633 ] } },
{ "type": "Feature", "properties": { "Site ID": "CDR462", "Site Name": "DHUNCHE", "District": "RASUWA", "Latitude": 28.11231, "Longitude": 85.29681 }, "geometry": { "type": "Point", "coordinates": [ 85.29681, 28.11231 ] } },
{ "type": "Feature", "properties": { "Site ID": "CDR463", "Site Name": "GOLJUNG", "District": "RASUWA", "Latitude": 28.16878, "Longitude": 85.32433 }, "geometry": { "type": "Point", "coordinates": [ 85.32433, 28.16878 ] } },
{ "type": "Feature", "properties": { "Site ID": "CDR464", "Site Name": "Langtang Padmarga", "District": "RASUWA", "Latitude": 28.21498, "Longitude": 85.51266 }, "geometry": { "type": "Point", "coordinates": [ 85.51266, 28.21498 ] } },
{ "type": "Feature", "properties": { "Site ID": "CDR465", "Site Name": "RAMCHE", "District": "RASUWA", "Latitude": 28.07745, "Longitude": 85.2438 }, "geometry": { "type": "Point", "coordinates": [ 85.2438, 28.07745 ] } },
{ "type": "Feature", "properties": { "Site ID": "CDR466", "Site Name": "Rasuwa Border", "District": "RASUWA", "Latitude": 28.24134, "Longitude": 85.36779 }, "geometry": { "type": "Point", "coordinates": [ 85.377627427618222, 28.268383552028304 ] } },
{ "type": "Feature", "properties": { "Site ID": "CDR467", "Site Name": "SARAMTHALI", "District": "RASUWA", "Latitude": 28.01933, "Longitude": 85.30012 }, "geometry": { "type": "Point", "coordinates": [ 85.30012, 28.01933 ] } },
{ "type": "Feature", "properties": { "Site ID": "CDR613", "Site Name": "CDR613_Dhading_Office", "District": "DHADING", "Latitude": 27.91111, "Longitude": 84.8891 }, "geometry": { "type": "Point", "coordinates": [ 84.8891, 27.91111 ] } },
{ "type": "Feature", "properties": { "Site ID": "CDR614", "Site Name": "CDR614_DhuncheArmyCampMicro", "District": "RASUWA", "Latitude": 28.111848, "Longitude": 85.294536 }, "geometry": { "type": "Point", "coordinates": [ 85.294536, 28.111848 ] } },
{ "type": "Feature", "properties": { "Site ID": "CDR640", "Site Name": "Khairang", "District": "DHADING", "Latitude": 27.71908, "Longitude": 84.90369 }, "geometry": { "type": "Point", "coordinates": [ 84.90369, 27.71908 ] } },
{ "type": "Feature", "properties": { "Site ID": "CDR678", "Site Name": "Goljung1", "District": "RASUWA", "Latitude": 28.157177, "Longitude": 85.28982 }, "geometry": { "type": "Point", "coordinates": [ 85.28982, 28.157177 ] } },
{ "type": "Feature", "properties": { "Site ID": "CDR679", "Site Name": "Chappthoke", "District": "NUWAKOT", "Latitude": 27.97763, "Longitude": 85.17468 }, "geometry": { "type": "Point", "coordinates": [ 85.17468, 27.97763 ] } },
{ "type": "Feature", "properties": { "Site ID": "CDR680", "Site Name": "Kalikasthan", "District": "RASUWA", "Latitude": 27.99833, "Longitude": 85.2067 }, "geometry": { "type": "Point", "coordinates": [ 85.2067, 27.99833 ] } },
{ "type": "Feature", "properties": { "Site ID": "CDR683", "Site Name": "Satyadevi", "District": "DHADING", "Latitude": 28.04444, "Longitude": 85.00008 }, "geometry": { "type": "Point", "coordinates": [ 85.00008, 28.04444 ] } },
{ "type": "Feature", "properties": { "Site ID": "CDR684", "Site Name": "Dhola", "District": "DHADING", "Latitude": 27.92843, "Longitude": 84.82451 }, "geometry": { "type": "Point", "coordinates": [ 84.82451, 27.92843 ] } },
{ "type": "Feature", "properties": { "Site ID": "CDR685", "Site Name": "Muralibhanjyang", "District": "DHADING", "Latitude": 27.91144, "Longitude": 84.8603 }, "geometry": { "type": "Point", "coordinates": [ 84.8603, 27.91144 ] } },
{ "type": "Feature", "properties": { "Site ID": "CDR688", "Site Name": "CDR688_Naubise(Kaflechaur)", "District": "DHADING", "Latitude": 27.708516, "Longitude": 85.175938 }, "geometry": { "type": "Point", "coordinates": [ 85.175938, 27.708516 ] } },
{ "type": "Feature", "properties": { "Site ID": "CDR691", "Site Name": "CDR691_Kakani_APF_Micro_BTS", "District": "NUWAKOT", "Latitude": 27.814167, "Longitude": 85.262222 }, "geometry": { "type": "Point", "coordinates": [ 85.262222, 27.814167 ] } },
{ "type": "Feature", "properties": { "Site ID": "CDR692", "Site Name": "CDR692_Galchhi Micro", "District": "DHADING", "Latitude": 27.801045, "Longitude": 84.995939 }, "geometry": { "type": "Point", "coordinates": [ 84.995939, 27.801045 ] } },
{ "type": "Feature", "properties": { "Site ID": "CDR695", "Site Name": "Talti(Rorang Benighat)", "District": "DHADING", "Latitude": 27.736631, "Longitude": 84.814243 }, "geometry": { "type": "Point", "coordinates": [ 84.814243, 27.736631 ] } },
{ "type": "Feature", "properties": { "Site ID": "CDR707", "Site Name": "JIBJIBE MICRO", "District": "RASUWA", "Latitude": 27.99204, "Longitude": 85.24557 }, "geometry": { "type": "Point", "coordinates": [ 85.24557, 27.99204 ] } },
{ "type": "Feature", "properties": { "Site ID": "CDR708", "Site Name": "CDR708_Bhalche_Kispang1", "District": "NUWAKOT", "Latitude": 28.02994, "Longitude": 85.10902 }, "geometry": { "type": "Point", "coordinates": [ 85.10902, 28.02994 ] } },
{ "type": "Feature", "properties": { "Site ID": "CDR714", "Site Name": "CDR714_Charghare Mulabari", "District": "NUWAKOT", "Latitude": 27.89517, "Longitude": 85.11028 }, "geometry": { "type": "Point", "coordinates": [ 85.11028, 27.89517 ] } },
{ "type": "Feature", "properties": { "Site ID": "CDR716", "Site Name": "CDR716_Chaturali", "District": "NUWAKOT", "Latitude": 27.79474, "Longitude": 85.21915 }, "geometry": { "type": "Point", "coordinates": [ 85.21915, 27.79474 ] } },
{ "type": "Feature", "properties": { "Site ID": "CDR721", "Site Name": "CDR721_Dhikure", "District": "NUWAKOT", "Latitude": 27.903784, "Longitude": 85.208388 }, "geometry": { "type": "Point", "coordinates": [ 85.208388, 27.903784 ] } },
{ "type": "Feature", "properties": { "Site ID": "CDR729", "Site Name": "CDR729_Gosainkunda", "District": "RASUWA", "Latitude": 28.086488, "Longitude": 85.405651 }, "geometry": { "type": "Point", "coordinates": [ 85.405651, 28.086488 ] } },
{ "type": "Feature", "properties": { "Site ID": "CDR737", "Site Name": "CDR737_Kabilas_Mothbhanjyang", "District": "NUWAKOT", "Latitude": 27.89361, "Longitude": 85.2708 }, "geometry": { "type": "Point", "coordinates": [ 85.2708, 27.89361 ] } },
{ "type": "Feature", "properties": { "Site ID": "CDR758", "Site Name": "CDR758_Maidane_Sikre", "District": "NUWAKOT", "Latitude": 27.8474, "Longitude": 85.392348 }, "geometry": { "type": "Point", "coordinates": [ 85.392348, 27.8474 ] } },
{ "type": "Feature", "properties": { "Site ID": "CDR773", "Site Name": "CDR773_Jharlang", "District": "DHADING", "Latitude": 28.10939, "Longitude": 85.02515 }, "geometry": { "type": "Point", "coordinates": [ 85.02515, 28.10939 ] } },
{ "type": "Feature", "properties": { "Site ID": "CDR779", "Site Name": "CDR779_Sunkhani_Dhading", "District": "DHADING", "Latitude": 27.950542, "Longitude": 84.845121 }, "geometry": { "type": "Point", "coordinates": [ 84.845121, 27.950542 ] } },
{ "type": "Feature", "properties": { "Site ID": "CDR780", "Site Name": "Pangsangdada", "District": "RASUWA", "Latitude": 28.18144, "Longitude": 85.4146 }, "geometry": { "type": "Point", "coordinates": [ 85.4146, 28.18144 ] } },
{ "type": "Feature", "properties": { "Site ID": "CDR782", "Site Name": "CDR782_Bidur Buspark", "District": "NUWAKOT", "Latitude": 27.90355, "Longitude": 85.14349 }, "geometry": { "type": "Point", "coordinates": [ 85.14349, 27.90355 ] } },
{ "type": "Feature", "properties": { "Site ID": "CDR804", "Site Name": "CDR804_Bhairavsthan", "District": "DHADING", "Latitude": 27.870733, "Longitude": 84.919745 }, "geometry": { "type": "Point", "coordinates": [ 84.919745, 27.870733 ] } },
{ "type": "Feature", "properties": { "Site ID": "CDR845", "Site Name": "CDR845_Lingjo(Ruby Valley)", "District": "DHADING", "Latitude": 28.2125, "Longitude": 85.1236 }, "geometry": { "type": "Point", "coordinates": [ 85.1236, 28.2125 ] } },
{ "type": "Feature", "properties": { "Site ID": "CDR846", "Site Name": "CDR846_Kyanjin Langtang_3G", "District": "RASUWA", "Latitude": 28.206279, "Longitude": 85.562614 }, "geometry": { "type": "Point", "coordinates": [ 85.562614, 28.206279 ] } },
{ "type": "Feature", "properties": { "Site ID": "CDR850", "Site Name": "CDR850_Belkot", "District": "NUWAKOT", "Latitude": 27.80946, "Longitude": 85.16537 }, "geometry": { "type": "Point", "coordinates": [ 85.16537, 27.80946 ] } },
{ "type": "Feature", "properties": { "Site ID": "CDR861", "Site Name": "CDR861_Chokalbhanjyang", "District": "DHADING", "Latitude": 27.7474, "Longitude": 84.9785 }, "geometry": { "type": "Point", "coordinates": [ 84.9785, 27.7474 ] } },
{ "type": "Feature", "properties": { "Site ID": "CDR863", "Site Name": "CDR863_Pipaltar_Majhitar", "District": "NUWAKOT", "Latitude": 27.87258, "Longitude": 85.14091 }, "geometry": { "type": "Point", "coordinates": [ 85.14091, 27.87258 ] } },
{ "type": "Feature", "properties": { "Site ID": "CDR869", "Site Name": "CDR869_Meghan-4", "District": "NUWAKOT", "Latitude": 28.0188, "Longitude": 85.0319 }, "geometry": { "type": "Point", "coordinates": [ 85.0319, 28.0188 ] } },
{ "type": "Feature", "properties": { "Site ID": "CDR922", "Site Name": "CDR922_Kutumsang", "District": "NUWAKOT", "Latitude": 27.926566, "Longitude": 85.486905 }, "geometry": { "type": "Point", "coordinates": [ 85.486905, 27.926566 ] } },
{ "type": "Feature", "properties": { "Site ID": "CDR931", "Site Name": "CDR931_Betini(Golfubhanjyang)", "District": "NUWAKOT", "Latitude": 27.897125, "Longitude": 85.478097 }, "geometry": { "type": "Point", "coordinates": [ 85.478097, 27.897125 ] } },
{ "type": "Feature", "properties": { "Site ID": "CDR938", "Site Name": "CDR938_Trishuli3A3B", "District": "RASUWA", "Latitude": 28.03966, "Longitude": 85.21639 }, "geometry": { "type": "Point", "coordinates": [ 85.21639, 28.03966 ] } },
{ "type": "Feature", "properties": { "Site ID": "CDR940", "Site Name": "Kewalpur ", "District": "DHADING", "Latitude": 27.76241, "Longitude": 85.10072 }, "geometry": { "type": "Point", "coordinates": [ 85.10072, 27.76241 ] } },
{ "type": "Feature", "properties": { "Site ID": "CDR957", "Site Name": "CDR957_Trishuli 3B", "District": "NUWAKOT", "Latitude": 27.995951, "Longitude": 85.183459 }, "geometry": { "type": "Point", "coordinates": [ 85.183459, 27.995951 ] } },
{ "type": "Feature", "properties": { "Site ID": "CDR959", "Site Name": "CDR959_Powerhousemicro", "District": "RASUWA", "Latitude": null, "Longitude": null }, "geometry": null },
{ "type": "Feature", "properties": { "Site ID": "CDR975", "Site Name": "CDR975_UPPER SYANJEN", "District": "RASUWA", "Latitude": 28.22119, "Longitude": 85.293166 }, "geometry": { "type": "Point", "coordinates": [ 85.293166, 28.22119 ] } },
{ "type": "Feature", "properties": { "Site ID": "CDR977", "Site Name": "CDR977_Pusuntar", "District": "NUWAKOT", "Latitude": 27.868006, "Longitude": 85.10863 }, "geometry": { "type": "Point", "coordinates": [ 85.10863, 27.868006 ] } },
{ "type": "Feature", "properties": { "Site ID": "KTM262", "Site Name": "KTM262_Raniban", "District": "DHADING", "Latitude": 27.678027, "Longitude": 85.483759 }, "geometry": { "type": "Point", "coordinates": [ 85.483759, 27.678027 ] } }
]
}
