{
"type": "FeatureCollection",
"name": "Bridge_along_flood_extent",
"crs": { "type": "name", "properties": { "name": "urn:ogc:def:crs:OGC:1.3:CRS84" } },
"features": [
{ "type": "Feature", "properties": { "Name": null, "Type": "bridge", "District": "CHITAWAN", "Municipality": "Ichchhyakamana", "Municipality_Type": "Gaunpalika", "Ward": 5, "Longitude": 84.5635321, "Latitude": 27.8544718, "Status": "Not Affected" }, "geometry": { "type": "Point", "coordinates": [ 84.5635321, 27.8544718 ] } },
{ "type": "Feature", "properties": { "Name": null, "Type": "bridge", "District": "DHADING", "Municipality": "Siddhalek", "Municipality_Type": "Gaunpalika", "Ward": 7, "Longitude": 84.9244371, "Latitude": 27.7975751, "Status": "Not Affected" }, "geometry": { "type": "Point", "coordinates": [ 84.9244371, 27.7975751 ] } },
{ "type": "Feature", "properties": { "Name": null, "Type": "bridge", "District": "NUWAKOT", "Municipality": "Tarkeshwar", "Municipality_Type": "Gaunpalika", "Ward": 4, "Longitude": 85.0250084, "Latitude": 27.8537229, "Status": "Not Affected" }, "geometry": { "type": "Point", "coordinates": [ 85.0250084, 27.8537229 ] } },
{ "type": "Feature", "properties": { "Name": null, "Type": "bridge", "District": "CHITAWAN", "Municipality": "Bharatpur", "Municipality_Type": "Mahanagarpalika", "Ward": 28, "Longitude": 84.1923582, "Latitude": 27.5784996, "Status": "Not Affected" }, "geometry": { "type": "Point", "coordinates": [ 84.1923582, 27.5784996 ] } },
{ "type": "Feature", "properties": { "Name": null, "Type": "bridge", "District": "NUWAKOT", "Municipality": "Bidur", "Municipality_Type": "Nagarpalika", "Ward": 9, "Longitude": 85.1584489, "Latitude": 27.9443716, "Status": "Not Affected" }, "geometry": { "type": "Point", "coordinates": [ 85.1584489, 27.9443716 ] } },
{ "type": "Feature", "properties": { "Name": null, "Type": "bridge", "District": "RASUWA", "Municipality": "Uttargaya", "Municipality_Type": "Gaunpalika", "Ward": 2, "Longitude": 85.2062626, "Latitude": 28.0529345, "Status": "Not Affected" }, "geometry": { "type": "Point", "coordinates": [ 85.2062626, 28.0529345 ] } },
{ "type": "Feature", "properties": { "Name": "devighat-Tadi bridge", "Type": "bridge", "District": "NUWAKOT", "Municipality": "Bidur", "Municipality_Type": "Nagarpalika", "Ward": 5, "Longitude": 85.1089803, "Latitude": 27.8583598, "Status": "Not Affected" }, "geometry": { "type": "Point", "coordinates": [ 85.1089803, 27.8583598 ] } },
{ "type": "Feature", "properties": { "Name": null, "Type": "bridge", "District": "NUWAKOT", "Municipality": "Bidur", "Municipality_Type": "Nagarpalika", "Ward": 3, "Longitude": 85.1084038, "Latitude": 27.8602598, "Status": "Not Affected" }, "geometry": { "type": "Point", "coordinates": [ 85.1084038, 27.8602598 ] } },
{ "type": "Feature", "properties": { "Name": "Suspension Bridge", "Type": "bridge", "District": "NUWAKOT", "Municipality": "Belkotgadhi", "Municipality_Type": "Nagarpalika", "Ward": 7, "Longitude": 85.0233807, "Latitude": 27.8352666, "Status": "Not Affected" }, "geometry": { "type": "Point", "coordinates": [ 85.0233807, 27.8352666 ] } },
{ "type": "Feature", "properties": { "Name": null, "Type": "bridge", "District": "NUWAKOT", "Municipality": "Tarkeshwar", "Municipality_Type": "Gaunpalika", "Ward": 4, "Longitude": 85.027262, "Latitude": 27.8481327, "Status": "Not Affected" }, "geometry": { "type": "Point", "coordinates": [ 85.027262, 27.8481327 ] } },
{ "type": "Feature", "properties": { "Name": "Prithvi Rajmarg", "Type": "bridge", "District": "DHADING", "Municipality": "Galchi", "Municipality_Type": "Gaunpalika", "Ward": 6, "Longitude": 84.9943362, "Latitude": 27.7975777, "Status": "Not Affected" }, "geometry": { "type": "Point", "coordinates": [ 84.9943362, 27.7975777 ] } },
{ "type": "Feature", "properties": { "Name": "Pasang Lhamu Highway", "Type": "bridge", "District": "NUWAKOT", "Municipality": "Belkotgadhi", "Municipality_Type": "Nagarpalika", "Ward": 8, "Longitude": 85.0812811, "Latitude": 27.8545515, "Status": "Not Affected" }, "geometry": { "type": "Point", "coordinates": [ 85.0812811, 27.8545515 ] } },
{ "type": "Feature", "properties": { "Name": null, "Type": "bridge", "District": "NUWAKOT", "Municipality": "Tarkeshwar", "Municipality_Type": "Gaunpalika", "Ward": 4, "Longitude": 85.042903, "Latitude": 27.8570619, "Status": "Not Affected" }, "geometry": { "type": "Point", "coordinates": [ 85.042903, 27.8570619 ] } },
{ "type": "Feature", "properties": { "Name": "Pasang Lhamu Highway", "Type": "bridge", "District": "NUWAKOT", "Municipality": "Belkotgadhi", "Municipality_Type": "Nagarpalika", "Ward": 7, "Longitude": 85.0667736, "Latitude": 27.8530557, "Status": "Not Affected" }, "geometry": { "type": "Point", "coordinates": [ 85.0667736, 27.8530557 ] } },
{ "type": "Feature", "properties": { "Name": null, "Type": "bridge", "District": "NUWAKOT", "Municipality": "Bidur", "Municipality_Type": "Nagarpalika", "Ward": 3, "Longitude": 85.0866597, "Latitude": 27.8572283, "Status": "Not Affected" }, "geometry": { "type": "Point", "coordinates": [ 85.0866597, 27.8572283 ] } },
{ "type": "Feature", "properties": { "Name": null, "Type": "bridge", "District": "NUWAKOT", "Municipality": "Belkotgadhi", "Municipality_Type": "Nagarpalika", "Ward": 5, "Longitude": 85.0161977, "Latitude": 27.8097536, "Status": "Not Affected" }, "geometry": { "type": "Point", "coordinates": [ 85.0161977, 27.8097536 ] } },
{ "type": "Feature", "properties": { "Name": "Suspension Bridge", "Type": "bridge", "District": "DHADING", "Municipality": "Galchi", "Municipality_Type": "Gaunpalika", "Ward": 1, "Longitude": 85.0216698, "Latitude": 27.8314623, "Status": "Not Affected" }, "geometry": { "type": "Point", "coordinates": [ 85.0216698, 27.8314623 ] } },
{ "type": "Feature", "properties": { "Name": null, "Type": "bridge", "District": "NUWAKOT", "Municipality": "Kispang", "Municipality_Type": "Gaunpalika", "Ward": 5, "Longitude": 85.1797873, "Latitude": 27.9821684, "Status": "Not Affected" }, "geometry": { "type": "Point", "coordinates": [ 85.1797873, 27.9821684 ] } },
{ "type": "Feature", "properties": { "Name": null, "Type": "bridge", "District": "NUWAKOT", "Municipality": "Bidur", "Municipality_Type": "Nagarpalika", "Ward": 7, "Longitude": 85.1638121, "Latitude": 27.9555995, "Status": "Not Affected" }, "geometry": { "type": "Point", "coordinates": [ 85.1638121, 27.9555995 ] } },
{ "type": "Feature", "properties": { "Name": null, "Type": "bridge", "District": "NUWAKOT", "Municipality": "Bidur", "Municipality_Type": "Nagarpalika", "Ward": 7, "Longitude": 85.1810743, "Latitude": 27.9789257, "Status": "Not Affected" }, "geometry": { "type": "Point", "coordinates": [ 85.1810743, 27.9789257 ] } },
{ "type": "Feature", "properties": { "Name": null, "Type": "bridge", "District": "NUWAKOT", "Municipality": "Bidur", "Municipality_Type": "Nagarpalika", "Ward": 9, "Longitude": 85.1586576, "Latitude": 27.9442378, "Status": "Not Affected" }, "geometry": { "type": "Point", "coordinates": [ 85.1586576, 27.9442378 ] } },
{ "type": "Feature", "properties": { "Name": null, "Type": "bridge", "District": "NUWAKOT", "Municipality": "Bidur", "Municipality_Type": "Nagarpalika", "Ward": 6, "Longitude": 85.1164683, "Latitude": 27.8701778, "Status": "Not Affected" }, "geometry": { "type": "Point", "coordinates": [ 85.1164683, 27.8701778 ] } },
{ "type": "Feature", "properties": { "Name": null, "Type": "bridge", "District": "NUWAKOT", "Municipality": "Bidur", "Municipality_Type": "Nagarpalika", "Ward": 5, "Longitude": 85.11696, "Latitude": 27.869664, "Status": "Not Affected" }, "geometry": { "type": "Point", "coordinates": [ 85.11696, 27.869664 ] } },
{ "type": "Feature", "properties": { "Name": null, "Type": "bridge", "District": "NUWAKOT", "Municipality": "Bidur", "Municipality_Type": "Nagarpalika", "Ward": 6, "Longitude": 85.1157473, "Latitude": 27.870932, "Status": "Not Affected" }, "geometry": { "type": "Point", "coordinates": [ 85.1157473, 27.870932 ] } },
{ "type": "Feature", "properties": { "Name": null, "Type": "bridge", "District": "NUWAKOT", "Municipality": "Bidur", "Municipality_Type": "Nagarpalika", "Ward": 10, "Longitude": 85.1850809, "Latitude": 27.9724338, "Status": "Not Affected" }, "geometry": { "type": "Point", "coordinates": [ 85.1850809, 27.9724338 ] } },
{ "type": "Feature", "properties": { "Name": null, "Type": "bridge", "District": "NUWAKOT", "Municipality": "Bidur", "Municipality_Type": "Nagarpalika", "Ward": 10, "Longitude": 85.1866043, "Latitude": 27.971151, "Status": "Not Affected" }, "geometry": { "type": "Point", "coordinates": [ 85.1866043, 27.971151 ] } },
{ "type": "Feature", "properties": { "Name": null, "Type": "bridge", "District": "RASUWA", "Municipality": "Parbati Kunda", "Municipality_Type": "Gaunpalika", "Ward": 2, "Longitude": 85.317883, "Latitude": 28.1473108, "Status": "Affected" }, "geometry": { "type": "Point", "coordinates": [ 85.317883, 28.1473108 ] } },
{ "type": "Feature", "properties": { "Name": null, "Type": "bridge", "District": "RASUWA", "Municipality": "Uttargaya", "Municipality_Type": "Gaunpalika", "Ward": 4, "Longitude": 85.1859457, "Latitude": 28.0044069, "Status": "Affected" }, "geometry": { "type": "Point", "coordinates": [ 85.1859457, 28.0044069 ] } },
{ "type": "Feature", "properties": { "Name": null, "Type": "bridge", "District": "RASUWA", "Municipality": "Gosaikunda", "Municipality_Type": "Gaunpalika", "Ward": 3, "Longitude": 85.3531018, "Latitude": 28.2005638, "Status": "Affected" }, "geometry": { "type": "Point", "coordinates": [ 85.3531018, 28.2005638 ] } },
{ "type": "Feature", "properties": { "Name": null, "Type": "bridge", "District": "CHITAWAN", "Municipality": "Bharatpur", "Municipality_Type": "Mahanagarpalika", "Ward": 17, "Longitude": 84.3226211, "Latitude": 27.6595484, "Status": "Not Affected" }, "geometry": { "type": "Point", "coordinates": [ 84.3226211, 27.6595484 ] } },
{ "type": "Feature", "properties": { "Name": null, "Type": "bridge", "District": "RASUWA", "Municipality": "Gosaikunda", "Municipality_Type": "Gaunpalika", "Ward": 3, "Longitude": 85.3545238, "Latitude": 28.2089424, "Status": "Affected" }, "geometry": { "type": "Point", "coordinates": [ 85.3545238, 28.2089424 ] } },
{ "type": "Feature", "properties": { "Name": null, "Type": "bridge", "District": "NUWAKOT", "Municipality": "Kispang", "Municipality_Type": "Gaunpalika", "Ward": 5, "Longitude": 85.1833768, "Latitude": 28.0090056, "Status": "Affected" }, "geometry": { "type": "Point", "coordinates": [ 85.1833768, 28.0090056 ] } },
{ "type": "Feature", "properties": { "Name": null, "Type": "bridge", "District": "RASUWA", "Municipality": "Gosaikunda", "Municipality_Type": "Gaunpalika", "Ward": 5, "Longitude": 85.342292, "Latitude": 28.16616604, "Status": "Affected" }, "geometry": { "type": "Point", "coordinates": [ 85.342292, 28.16616604 ] } },
{ "type": "Feature", "properties": { "Name": null, "Type": "bridge", "District": "RASUWA", "Municipality": "Gosaikunda", "Municipality_Type": "Gaunpalika", "Ward": 5, "Longitude": 85.3437759, "Latitude": 28.1635939, "Status": "Affected" }, "geometry": { "type": "Point", "coordinates": [ 85.3437759, 28.1635939 ] } },
{ "type": "Feature", "properties": { "Name": null, "Type": "bridge", "District": "NUWAKOT", "Municipality": "Bidur", "Municipality_Type": "Nagarpalika", "Ward": 10, "Longitude": 85.1642206, "Latitude": 27.9551986, "Status": "Not Affected" }, "geometry": { "type": "Point", "coordinates": [ 85.1642206, 27.9551986 ] } },
{ "type": "Feature", "properties": { "Name": null, "Type": "bridge", "District": "RASUWA", "Municipality": "Uttargaya", "Municipality_Type": "Gaunpalika", "Ward": 5, "Longitude": 85.18509477000001, "Latitude": 27.9951793, "Status": "Affected" }, "geometry": { "type": "Point", "coordinates": [ 85.18509477, 27.9951793 ] } },
{ "type": "Feature", "properties": { "Name": null, "Type": "bridge", "District": "DHADING", "Municipality": "Siddhalek", "Municipality_Type": "Gaunpalika", "Ward": 7, "Longitude": 84.9401615, "Latitude": 27.8073201, "Status": "Not Affected" }, "geometry": { "type": "Point", "coordinates": [ 84.9401615, 27.8073201 ] } },
{ "type": "Feature", "properties": { "Name": "Out of order", "Type": "bridge", "District": "RASUWA", "Municipality": "Gosaikunda", "Municipality_Type": "Gaunpalika", "Ward": 3, "Longitude": 85.3547724, "Latitude": 28.2105205, "Status": "Affected" }, "geometry": { "type": "Point", "coordinates": [ 85.3547724, 28.2105205 ] } },
{ "type": "Feature", "properties": { "Name": null, "Type": "bridge", "District": "RASUWA", "Municipality": "Gosaikunda", "Municipality_Type": "Gaunpalika", "Ward": 2, "Longitude": 85.3594165, "Latitude": 28.234269, "Status": "Affected" }, "geometry": { "type": "Point", "coordinates": [ 85.3594165, 28.234269 ] } },
{ "type": "Feature", "properties": { "Name": null, "Type": "bridge", "District": "CHITAWAN", "Municipality": "Bharatpur", "Municipality_Type": "Mahanagarpalika", "Ward": 28, "Longitude": 84.173324, "Latitude": 27.5708541, "Status": "Not Affected" }, "geometry": { "type": "Point", "coordinates": [ 84.173324, 27.5708541 ] } },
{ "type": "Feature", "properties": { "Name": null, "Type": "bridge", "District": "DHADING", "Municipality": "Siddhalek", "Municipality_Type": "Gaunpalika", "Ward": 4, "Longitude": 84.8092443, "Latitude": 27.8171065, "Status": "Not Affected" }, "geometry": { "type": "Point", "coordinates": [ 84.8092443, 27.8171065 ] } },
{ "type": "Feature", "properties": { "Name": null, "Type": "bridge", "District": "RASUWA", "Municipality": "Parbati Kunda", "Municipality_Type": "Gaunpalika", "Ward": 5, "Longitude": 85.3423559, "Latitude": 28.1818305, "Status": "Affected" }, "geometry": { "type": "Point", "coordinates": [ 85.3423559, 28.1818305 ] } },
{ "type": "Feature", "properties": { "Name": null, "Type": "bridge", "District": "RASUWA", "Municipality": "Uttargaya", "Municipality_Type": "Gaunpalika", "Ward": 1, "Longitude": 85.2146137, "Latitude": 28.0772918, "Status": "Affected" }, "geometry": { "type": "Point", "coordinates": [ 85.2146137, 28.0772918 ] } },
{ "type": "Feature", "properties": { "Name": "Trishuli Bridge", "Type": "bridge", "District": "TANAHU", "Municipality": "Anbukhaireni", "Municipality_Type": "Gaunpalika", "Ward": 4, "Longitude": 84.5568136, "Latitude": 27.8541149, "Status": "Not Affected" }, "geometry": { "type": "Point", "coordinates": [ 84.5568136, 27.8541149 ] } },
{ "type": "Feature", "properties": { "Name": "Chinsengi khola Bridge", "Type": "bridge", "District": "CHITAWAN", "Municipality": "Ichchhyakamana", "Municipality_Type": "Gaunpalika", "Ward": 5, "Longitude": 84.5590585, "Latitude": 27.8476063, "Status": "Not Affected" }, "geometry": { "type": "Point", "coordinates": [ 84.5590585, 27.8476063 ] } },
{ "type": "Feature", "properties": { "Name": "Tupche Aama ko pool", "Type": "bridge", "District": "NUWAKOT", "Municipality": "Bidur", "Municipality_Type": "Nagarpalika", "Ward": 7, "Longitude": 85.1732285, "Latitude": 27.9641981, "Status": "Not Affected" }, "geometry": { "type": "Point", "coordinates": [ 85.1732285, 27.9641981 ] } },
{ "type": "Feature", "properties": { "Name": "Suspension Bridge", "Type": "bridge", "District": "NUWAKOT", "Municipality": "Bidur", "Municipality_Type": "Nagarpalika", "Ward": 10, "Longitude": 85.1586835, "Latitude": 27.9390831, "Status": "Not Affected" }, "geometry": { "type": "Point", "coordinates": [ 85.1586835, 27.9390831 ] } },
{ "type": "Feature", "properties": { "Name": null, "Type": "bridge", "District": "NUWAKOT", "Municipality": "Bidur", "Municipality_Type": "Nagarpalika", "Ward": 7, "Longitude": 85.1636281, "Latitude": 27.9563409, "Status": "Not Affected" }, "geometry": { "type": "Point", "coordinates": [ 85.1636281, 27.9563409 ] } },
{ "type": "Feature", "properties": { "Name": null, "Type": "bridge", "District": "NUWAKOT", "Municipality": "Kispang", "Municipality_Type": "Gaunpalika", "Ward": 5, "Longitude": 85.1828014, "Latitude": 28.0192675, "Status": "Not Affected" }, "geometry": { "type": "Point", "coordinates": [ 85.1828014, 28.0192675 ] } },
{ "type": "Feature", "properties": { "Name": null, "Type": "bridge", "District": "TANAHU", "Municipality": "Anbukhaireni", "Municipality_Type": "Gaunpalika", "Ward": 5, "Longitude": 84.4649191, "Latitude": 27.8233888, "Status": "Not Affected" }, "geometry": { "type": "Point", "coordinates": [ 84.4649191, 27.8233888 ] } },
{ "type": "Feature", "properties": { "Name": "Narayanghat-Muglin Highway", "Type": "bridge", "District": "CHITAWAN", "Municipality": "Bharatpur", "Municipality_Type": "Mahanagarpalika", "Ward": 29, "Longitude": 84.4373679, "Latitude": 27.8142081, "Status": "Not Affected" }, "geometry": { "type": "Point", "coordinates": [ 84.4373679, 27.8142081 ] } },
{ "type": "Feature", "properties": { "Name": "Narayanghat-Muglin Highway", "Type": "bridge", "District": "CHITAWAN", "Municipality": "Bharatpur", "Municipality_Type": "Mahanagarpalika", "Ward": 29, "Longitude": 84.4434004, "Latitude": 27.8183461, "Status": "Not Affected" }, "geometry": { "type": "Point", "coordinates": [ 84.4434004, 27.8183461 ] } },
{ "type": "Feature", "properties": { "Name": null, "Type": "bridge", "District": "CHITAWAN", "Municipality": "Bharatpur", "Municipality_Type": "Mahanagarpalika", "Ward": 17, "Longitude": 84.3013069, "Latitude": 27.65132, "Status": "Not Affected" }, "geometry": { "type": "Point", "coordinates": [ 84.3013069, 27.65132 ] } },
{ "type": "Feature", "properties": { "Name": null, "Type": "bridge", "District": "CHITAWAN", "Municipality": "Bharatpur", "Municipality_Type": "Mahanagarpalika", "Ward": 2, "Longitude": 84.4328248, "Latitude": 27.6925087, "Status": "Not Affected" }, "geometry": { "type": "Point", "coordinates": [ 84.4328248, 27.6925087 ] } },
{ "type": "Feature", "properties": { "Name": "Prithvi Rajmarg", "Type": "bridge", "District": "DHADING", "Municipality": "Benighat Rorang", "Municipality_Type": "Gaunpalika", "Ward": 3, "Longitude": 84.8351833, "Latitude": 27.8073006, "Status": "Not Affected" }, "geometry": { "type": "Point", "coordinates": [ 84.8351833, 27.8073006 ] } },
{ "type": "Feature", "properties": { "Name": null, "Type": "bridge", "District": "CHITAWAN", "Municipality": "Bharatpur", "Municipality_Type": "Mahanagarpalika", "Ward": 17, "Longitude": 84.2952531, "Latitude": 27.6496286, "Status": "Not Affected" }, "geometry": { "type": "Point", "coordinates": [ 84.2952531, 27.6496286 ] } },
{ "type": "Feature", "properties": { "Name": null, "Type": "bridge", "District": "CHITAWAN", "Municipality": "Bharatpur", "Municipality_Type": "Mahanagarpalika", "Ward": 17, "Longitude": 84.3162309, "Latitude": 27.6606224, "Status": "Not Affected" }, "geometry": { "type": "Point", "coordinates": [ 84.3162309, 27.6606224 ] } },
{ "type": "Feature", "properties": { "Name": null, "Type": "bridge", "District": "CHITAWAN", "Municipality": "Bharatpur", "Municipality_Type": "Mahanagarpalika", "Ward": 26, "Longitude": 84.2337849, "Latitude": 27.604116, "Status": "Not Affected" }, "geometry": { "type": "Point", "coordinates": [ 84.2337849, 27.604116 ] } },
{ "type": "Feature", "properties": { "Name": null, "Type": "bridge", "District": "CHITAWAN", "Municipality": "Bharatpur", "Municipality_Type": "Mahanagarpalika", "Ward": 26, "Longitude": 84.2370729, "Latitude": 27.6034507, "Status": "Not Affected" }, "geometry": { "type": "Point", "coordinates": [ 84.2370729, 27.6034507 ] } },
{ "type": "Feature", "properties": { "Name": null, "Type": "bridge", "District": "CHITAWAN", "Municipality": "Bharatpur", "Municipality_Type": "Mahanagarpalika", "Ward": 3, "Longitude": 84.4075778, "Latitude": 27.6821379, "Status": "Not Affected" }, "geometry": { "type": "Point", "coordinates": [ 84.4075778, 27.6821379 ] } },
{ "type": "Feature", "properties": { "Name": null, "Type": "bridge", "District": "TANAHU", "Municipality": "Anbukhaireni", "Municipality_Type": "Gaunpalika", "Ward": 5, "Longitude": 84.5089239, "Latitude": 27.81705, "Status": "Not Affected" }, "geometry": { "type": "Point", "coordinates": [ 84.5089239, 27.81705 ] } },
{ "type": "Feature", "properties": { "Name": null, "Type": "bridge", "District": "CHITAWAN", "Municipality": "Bharatpur", "Municipality_Type": "Mahanagarpalika", "Ward": 29, "Longitude": 84.4437274, "Latitude": 27.8196107, "Status": "Not Affected" }, "geometry": { "type": "Point", "coordinates": [ 84.4437274, 27.8196107 ] } },
{ "type": "Feature", "properties": { "Name": null, "Type": "bridge", "District": "CHITAWAN", "Municipality": "Bharatpur", "Municipality_Type": "Mahanagarpalika", "Ward": 2, "Longitude": 84.4382342, "Latitude": 27.699444, "Status": "Not Affected" }, "geometry": { "type": "Point", "coordinates": [ 84.4382342, 27.699444 ] } },
{ "type": "Feature", "properties": { "Name": null, "Type": "bridge", "District": "CHITAWAN", "Municipality": "Bharatpur", "Municipality_Type": "Mahanagarpalika", "Ward": 2, "Longitude": 84.4382382, "Latitude": 27.7008143, "Status": "Not Affected" }, "geometry": { "type": "Point", "coordinates": [ 84.4382382, 27.7008143 ] } },
{ "type": "Feature", "properties": { "Name": null, "Type": "bridge", "District": "CHITAWAN", "Municipality": "Bharatpur", "Municipality_Type": "Mahanagarpalika", "Ward": 29, "Longitude": 84.464338, "Latitude": 27.7839912, "Status": "Not Affected" }, "geometry": { "type": "Point", "coordinates": [ 84.464338, 27.7839912 ] } },
{ "type": "Feature", "properties": { "Name": null, "Type": "bridge", "District": "CHITAWAN", "Municipality": "Bharatpur", "Municipality_Type": "Mahanagarpalika", "Ward": 29, "Longitude": 84.4319406, "Latitude": 27.8069931, "Status": "Not Affected" }, "geometry": { "type": "Point", "coordinates": [ 84.4319406, 27.8069931 ] } },
{ "type": "Feature", "properties": { "Name": "Khor", "Type": "bridge", "District": "CHITAWAN", "Municipality": "Bharatpur", "Municipality_Type": "Mahanagarpalika", "Ward": 29, "Longitude": 84.4409653, "Latitude": 27.7794966, "Status": "Not Affected" }, "geometry": { "type": "Point", "coordinates": [ 84.4409653, 27.7794966 ] } },
{ "type": "Feature", "properties": { "Name": null, "Type": "bridge", "District": "CHITAWAN", "Municipality": "Bharatpur", "Municipality_Type": "Mahanagarpalika", "Ward": 29, "Longitude": 84.466859, "Latitude": 27.7683777, "Status": "Not Affected" }, "geometry": { "type": "Point", "coordinates": [ 84.466859, 27.7683777 ] } },
{ "type": "Feature", "properties": { "Name": null, "Type": "bridge", "District": "CHITAWAN", "Municipality": "Bharatpur", "Municipality_Type": "Mahanagarpalika", "Ward": 3, "Longitude": 84.4109312, "Latitude": 27.6831219, "Status": "Not Affected" }, "geometry": { "type": "Point", "coordinates": [ 84.4109312, 27.6831219 ] } },
{ "type": "Feature", "properties": { "Name": "???????? ???", "Type": "bridge", "District": "CHITAWAN", "Municipality": "Bharatpur", "Municipality_Type": "Mahanagarpalika", "Ward": 29, "Longitude": 84.4534716, "Latitude": 27.7790207, "Status": "Not Affected" }, "geometry": { "type": "Point", "coordinates": [ 84.4534716, 27.7790207 ] } },
{ "type": "Feature", "properties": { "Name": null, "Type": "bridge", "District": "CHITAWAN", "Municipality": "Bharatpur", "Municipality_Type": "Mahanagarpalika", "Ward": 29, "Longitude": 84.448172, "Latitude": 27.779044, "Status": "Not Affected" }, "geometry": { "type": "Point", "coordinates": [ 84.448172, 27.779044 ] } },
{ "type": "Feature", "properties": { "Name": null, "Type": "bridge", "District": "GORKHA", "Municipality": "Sahid Lakhan", "Municipality_Type": "Gaunpalika", "Ward": 4, "Longitude": 84.6083777, "Latitude": 27.8715551, "Status": "Not Affected" }, "geometry": { "type": "Point", "coordinates": [ 84.6083777, 27.8715551 ] } },
{ "type": "Feature", "properties": { "Name": null, "Type": "bridge", "District": "GORKHA", "Municipality": "Sahid Lakhan", "Municipality_Type": "Gaunpalika", "Ward": 3, "Longitude": 84.5613472, "Latitude": 27.8588195, "Status": "Not Affected" }, "geometry": { "type": "Point", "coordinates": [ 84.5613472, 27.8588195 ] } },
{ "type": "Feature", "properties": { "Name": "Khatauti Khola Bridge", "Type": "bridge", "District": "DHADING", "Municipality": "Benighat Rorang", "Municipality_Type": "Gaunpalika", "Ward": 9, "Longitude": 84.7247775, "Latitude": 27.7979156, "Status": "Not Affected" }, "geometry": { "type": "Point", "coordinates": [ 84.7247775, 27.7979156 ] } },
{ "type": "Feature", "properties": { "Name": null, "Type": "bridge", "District": "DHADING", "Municipality": "Siddhalek", "Municipality_Type": "Gaunpalika", "Ward": 4, "Longitude": 84.8214911, "Latitude": 27.8110752, "Status": "Not Affected" }, "geometry": { "type": "Point", "coordinates": [ 84.8214911, 27.8110752 ] } },
{ "type": "Feature", "properties": { "Name": null, "Type": "bridge", "District": "GORKHA", "Municipality": "Gandaki", "Municipality_Type": "Gaunpalika", "Ward": 2, "Longitude": 84.65208046, "Latitude": 27.85306947, "Status": "Not Affected" }, "geometry": { "type": "Point", "coordinates": [ 84.65208046, 27.85306947 ] } },
{ "type": "Feature", "properties": { "Name": null, "Type": "bridge", "District": "CHITAWAN", "Municipality": "Ichchhyakamana", "Municipality_Type": "Gaunpalika", "Ward": 3, "Longitude": 84.6618651, "Latitude": 27.8435492, "Status": "Not Affected" }, "geometry": { "type": "Point", "coordinates": [ 84.6618651, 27.8435492 ] } },
{ "type": "Feature", "properties": { "Name": null, "Type": "bridge", "District": "GORKHA", "Municipality": "Gandaki", "Municipality_Type": "Gaunpalika", "Ward": 7, "Longitude": 84.7001823, "Latitude": 27.8086949, "Status": "Not Affected" }, "geometry": { "type": "Point", "coordinates": [ 84.7001823, 27.8086949 ] } },
{ "type": "Feature", "properties": { "Name": "Galaundi khola", "Type": "bridge", "District": "DHADING", "Municipality": "Gajuri", "Municipality_Type": "Gaunpalika", "Ward": 1, "Longitude": 84.8897068, "Latitude": 27.8073838, "Status": "Not Affected" }, "geometry": { "type": "Point", "coordinates": [ 84.8897068, 27.8073838 ] } },
{ "type": "Feature", "properties": { "Name": "Furke Khola Bridge", "Type": "bridge", "District": "DHADING", "Municipality": "Siddhalek", "Municipality_Type": "Gaunpalika", "Ward": 6, "Longitude": 84.8440799, "Latitude": 27.802528, "Status": "Not Affected" }, "geometry": { "type": "Point", "coordinates": [ 84.8440799, 27.802528 ] } },
{ "type": "Feature", "properties": { "Name": "Prithvi Rajmarga", "Type": "bridge", "District": "DHADING", "Municipality": "Benighat Rorang", "Municipality_Type": "Gaunpalika", "Ward": 3, "Longitude": 84.8004949, "Latitude": 27.8139288, "Status": "Not Affected" }, "geometry": { "type": "Point", "coordinates": [ 84.8004949, 27.8139288 ] } },
{ "type": "Feature", "properties": { "Name": "Mowa Khola Bridge", "Type": "bridge", "District": "CHITAWAN", "Municipality": "Ichchhyakamana", "Municipality_Type": "Gaunpalika", "Ward": 3, "Longitude": 84.6646981, "Latitude": 27.8254267, "Status": "Not Affected" }, "geometry": { "type": "Point", "coordinates": [ 84.6646981, 27.8254267 ] } },
{ "type": "Feature", "properties": { "Name": null, "Type": "bridge", "District": "CHITAWAN", "Municipality": "Ichchhyakamana", "Municipality_Type": "Gaunpalika", "Ward": 6, "Longitude": 84.5305842, "Latitude": 27.8200814, "Status": "Not Affected" }, "geometry": { "type": "Point", "coordinates": [ 84.5305842, 27.8200814 ] } },
{ "type": "Feature", "properties": { "Name": "Jalbire Bridge", "Type": "bridge", "District": "CHITAWAN", "Municipality": "Ichchhyakamana", "Municipality_Type": "Gaunpalika", "Ward": 6, "Longitude": 84.5214765, "Latitude": 27.8257729, "Status": "Not Affected" }, "geometry": { "type": "Point", "coordinates": [ 84.5214765, 27.8257729 ] } },
{ "type": "Feature", "properties": { "Name": "Gomati Bridge", "Type": "bridge", "District": "DHADING", "Municipality": "Benighat Rorang", "Municipality_Type": "Gaunpalika", "Ward": 5, "Longitude": 84.7879964, "Latitude": 27.8123105, "Status": "Not Affected" }, "geometry": { "type": "Point", "coordinates": [ 84.7879964, 27.8123105 ] } },
{ "type": "Feature", "properties": { "Name": null, "Type": "bridge", "District": "GORKHA", "Municipality": "Gandaki", "Municipality_Type": "Gaunpalika", "Ward": 8, "Longitude": 84.7732686, "Latitude": 27.8082304, "Status": "Not Affected" }, "geometry": { "type": "Point", "coordinates": [ 84.7732686, 27.8082304 ] } },
{ "type": "Feature", "properties": { "Name": "Prithvi Rajmarg", "Type": "bridge", "District": "DHADING", "Municipality": "Benighat Rorang", "Municipality_Type": "Gaunpalika", "Ward": 5, "Longitude": 84.7502418, "Latitude": 27.8029802, "Status": "Not Affected" }, "geometry": { "type": "Point", "coordinates": [ 84.7502418, 27.8029802 ] } },
{ "type": "Feature", "properties": { "Name": null, "Type": "bridge", "District": "NUWAKOT", "Municipality": "Bidur", "Municipality_Type": "Nagarpalika", "Ward": 9, "Longitude": 85.157114, "Latitude": 27.9428283, "Status": "Not Affected" }, "geometry": { "type": "Point", "coordinates": [ 85.157114, 27.9428283 ] } },
{ "type": "Feature", "properties": { "Name": null, "Type": "bridge", "District": "RASUWA", "Municipality": "Gosaikunda", "Municipality_Type": "Gaunpalika", "Ward": 2, "Longitude": 85.35858858, "Latitude": 28.23996412, "Status": "Affected" }, "geometry": { "type": "Point", "coordinates": [ 85.35858858, 28.23996412 ] } },
{ "type": "Feature", "properties": { "Name": null, "Type": "bridge", "District": "CHITAWAN", "Municipality": "Bharatpur", "Municipality_Type": "Mahanagarpalika", "Ward": 1, "Longitude": 84.4339604, "Latitude": 27.7039333, "Status": "Not Affected" }, "geometry": { "type": "Point", "coordinates": [ 84.4339604, 27.7039333 ] } },
{ "type": "Feature", "properties": { "Name": null, "Type": "bridge", "District": "NAWALPARASI_E", "Municipality": "Gaidakot", "Municipality_Type": "Nagarpalika", "Ward": 3, "Longitude": 84.4195132, "Latitude": 27.7374742, "Status": "Not Affected" }, "geometry": { "type": "Point", "coordinates": [ 84.4195132, 27.7374742 ] } },
{ "type": "Feature", "properties": { "Name": "Pasang Lhamu Highway", "Type": "bridge", "District": "NUWAKOT", "Municipality": "Belkotgadhi", "Municipality_Type": "Nagarpalika", "Ward": 7, "Longitude": 85.0567757, "Latitude": 27.853824, "Status": "Not Affected" }, "geometry": { "type": "Point", "coordinates": [ 85.0567757, 27.853824 ] } },
{ "type": "Feature", "properties": { "Name": null, "Type": "bridge", "District": "NUWAKOT", "Municipality": "Bidur", "Municipality_Type": "Nagarpalika", "Ward": 12, "Longitude": 85.1358953, "Latitude": 27.892215, "Status": "Not Affected" }, "geometry": { "type": "Point", "coordinates": [ 85.1358953, 27.892215 ] } },
{ "type": "Feature", "properties": { "Name": "Prithvi Rajmarg", "Type": "bridge", "District": "DHADING", "Municipality": "Galchi", "Municipality_Type": "Gaunpalika", "Ward": 6, "Longitude": 84.9835242, "Latitude": 27.800874, "Status": "Not Affected" }, "geometry": { "type": "Point", "coordinates": [ 84.9835242, 27.800874 ] } },
{ "type": "Feature", "properties": { "Name": null, "Type": "bridge", "District": "DHADING", "Municipality": "Galchi", "Municipality_Type": "Gaunpalika", "Ward": 1, "Longitude": 85.0013095, "Latitude": 27.8025753, "Status": "Not Affected" }, "geometry": { "type": "Point", "coordinates": [ 85.0013095, 27.8025753 ] } },
{ "type": "Feature", "properties": { "Name": null, "Type": "bridge", "District": "DHADING", "Municipality": "Galchi", "Municipality_Type": "Gaunpalika", "Ward": 8, "Longitude": 85.0011674, "Latitude": 27.8002921, "Status": "Not Affected" }, "geometry": { "type": "Point", "coordinates": [ 85.0011674, 27.8002921 ] } },
{ "type": "Feature", "properties": { "Name": "Pokhare khola", "Type": "bridge", "District": "DHADING", "Municipality": "Gajuri", "Municipality_Type": "Gaunpalika", "Ward": 5, "Longitude": 84.9166929, "Latitude": 27.7999214, "Status": "Not Affected" }, "geometry": { "type": "Point", "coordinates": [ 84.9166929, 27.7999214 ] } },
{ "type": "Feature", "properties": { "Name": "Belkhu Khola Bridge", "Type": "bridge", "District": "DHADING", "Municipality": "Gajuri", "Municipality_Type": "Gaunpalika", "Ward": 6, "Longitude": 84.9509589, "Latitude": 27.8134373, "Status": "Not Affected" }, "geometry": { "type": "Point", "coordinates": [ 84.9509589, 27.8134373 ] } },
{ "type": "Feature", "properties": { "Name": "Hugdi Khola Bridge", "Type": "bridge", "District": "DHADING", "Municipality": "Benighat Rorang", "Municipality_Type": "Gaunpalika", "Ward": 9, "Longitude": 84.6969993, "Latitude": 27.8071123, "Status": "Not Affected" }, "geometry": { "type": "Point", "coordinates": [ 84.6969993, 27.8071123 ] } },
{ "type": "Feature", "properties": { "Name": null, "Type": "bridge", "District": "GORKHA", "Municipality": "Sahid Lakhan", "Municipality_Type": "Gaunpalika", "Ward": 3, "Longitude": 84.5927256, "Latitude": 27.8782271, "Status": "Not Affected" }, "geometry": { "type": "Point", "coordinates": [ 84.5927256, 27.8782271 ] } },
{ "type": "Feature", "properties": { "Name": null, "Type": "bridge", "District": "CHITAWAN", "Municipality": "Bharatpur", "Municipality_Type": "Mahanagarpalika", "Ward": 2, "Longitude": 84.4384006, "Latitude": 27.7007277, "Status": "Not Affected" }, "geometry": { "type": "Point", "coordinates": [ 84.4384006, 27.7007277 ] } },
{ "type": "Feature", "properties": { "Name": null, "Type": "bridge", "District": "CHITAWAN", "Municipality": "Bharatpur", "Municipality_Type": "Mahanagarpalika", "Ward": 16, "Longitude": 84.3540774, "Latitude": 27.676552, "Status": "Not Affected" }, "geometry": { "type": "Point", "coordinates": [ 84.3540774, 27.676552 ] } },
{ "type": "Feature", "properties": { "Name": null, "Type": "bridge", "District": "CHITAWAN", "Municipality": "Bharatpur", "Municipality_Type": "Mahanagarpalika", "Ward": 26, "Longitude": 84.2310776, "Latitude": 27.6055786, "Status": "Not Affected" }, "geometry": { "type": "Point", "coordinates": [ 84.2310776, 27.6055786 ] } },
{ "type": "Feature", "properties": { "Name": null, "Type": "bridge", "District": "CHITAWAN", "Municipality": "Bharatpur", "Municipality_Type": "Mahanagarpalika", "Ward": 1, "Longitude": 84.4286276, "Latitude": 27.7410297, "Status": "Not Affected" }, "geometry": { "type": "Point", "coordinates": [ 84.4286276, 27.7410297 ] } },
{ "type": "Feature", "properties": { "Name": null, "Type": "bridge", "District": "CHITAWAN", "Municipality": "Bharatpur", "Municipality_Type": "Mahanagarpalika", "Ward": 17, "Longitude": 84.3143749, "Latitude": 27.6593051, "Status": "Not Affected" }, "geometry": { "type": "Point", "coordinates": [ 84.3143749, 27.6593051 ] } },
{ "type": "Feature", "properties": { "Name": null, "Type": "bridge", "District": "NUWAKOT", "Municipality": "Bidur", "Municipality_Type": "Nagarpalika", "Ward": 9, "Longitude": 85.1614311, "Latitude": 27.9482385, "Status": "Not Affected" }, "geometry": { "type": "Point", "coordinates": [ 85.1614311, 27.9482385 ] } },
{ "type": "Feature", "properties": { "Name": null, "Type": "bridge", "District": "CHITAWAN", "Municipality": "Bharatpur", "Municipality_Type": "Mahanagarpalika", "Ward": 29, "Longitude": 84.4508597, "Latitude": 27.7877634, "Status": "Not Affected" }, "geometry": { "type": "Point", "coordinates": [ 84.4508597, 27.7877634 ] } },
{ "type": "Feature", "properties": { "Name": "Pasang Lhamu Highway", "Type": "bridge", "District": "NUWAKOT", "Municipality": "Bidur", "Municipality_Type": "Nagarpalika", "Ward": 10, "Longitude": 85.1848611, "Latitude": 27.9705325, "Status": "Not Affected" }, "geometry": { "type": "Point", "coordinates": [ 85.1848611, 27.9705325 ] } },
{ "type": "Feature", "properties": { "Name": null, "Type": "bridge", "District": "GORKHA", "Municipality": "Gandaki", "Municipality_Type": "Gaunpalika", "Ward": 8, "Longitude": 84.7748938, "Latitude": 27.8208633, "Status": "Not Affected" }, "geometry": { "type": "Point", "coordinates": [ 84.7748938, 27.8208633 ] } },
{ "type": "Feature", "properties": { "Name": null, "Type": "bridge", "District": "CHITAWAN", "Municipality": "Chitawan National Park", "Municipality_Type": "National Park", "Ward": 99, "Longitude": 84.2970005, "Latitude": 27.6570618, "Status": "Not Affected" }, "geometry": { "type": "Point", "coordinates": [ 84.2970005, 27.6570618 ] } },
{ "type": "Feature", "properties": { "Name": null, "Type": "bridge", "District": "GORKHA", "Municipality": "Gandaki", "Municipality_Type": "Gaunpalika", "Ward": 7, "Longitude": 84.73678249, "Latitude": 27.80362633, "Status": "Not Affected" }, "geometry": { "type": "Point", "coordinates": [ 84.73678249, 27.80362633 ] } },
{ "type": "Feature", "properties": { "Name": null, "Type": "bridge", "District": "DHADING", "Municipality": "Siddhalek", "Municipality_Type": "Gaunpalika", "Ward": 6, "Longitude": 84.8364343, "Latitude": 27.8102246, "Status": "Not Affected" }, "geometry": { "type": "Point", "coordinates": [ 84.8364343, 27.8102246 ] } },
{ "type": "Feature", "properties": { "Name": null, "Type": "bridge", "District": "GORKHA", "Municipality": "Gandaki", "Municipality_Type": "Gaunpalika", "Ward": 8, "Longitude": 84.7772289, "Latitude": 27.8104869, "Status": "Not Affected" }, "geometry": { "type": "Point", "coordinates": [ 84.7772289, 27.8104869 ] } },
{ "type": "Feature", "properties": { "Name": null, "Type": "bridge", "District": "NUWAKOT", "Municipality": "Bidur", "Municipality_Type": "Nagarpalika", "Ward": 11, "Longitude": 85.1770176, "Latitude": 27.9405338, "Status": "Not Affected" }, "geometry": { "type": "Point", "coordinates": [ 85.1770176, 27.9405338 ] } },
{ "type": "Feature", "properties": { "Name": null, "Type": "bridge", "District": "CHITAWAN", "Municipality": "Bharatpur", "Municipality_Type": "Mahanagarpalika", "Ward": 3, "Longitude": 84.3973555, "Latitude": 27.6822038, "Status": "Not Affected" }, "geometry": { "type": "Point", "coordinates": [ 84.3973555, 27.6822038 ] } },
{ "type": "Feature", "properties": { "Name": null, "Type": "bridge", "District": "GORKHA", "Municipality": "Gandaki", "Municipality_Type": "Gaunpalika", "Ward": 7, "Longitude": 84.7150708, "Latitude": 27.8021443, "Status": "Not Affected" }, "geometry": { "type": "Point", "coordinates": [ 84.7150708, 27.8021443 ] } },
{ "type": "Feature", "properties": { "Name": null, "Type": "bridge", "District": "DHADING", "Municipality": "Siddhalek", "Municipality_Type": "Gaunpalika", "Ward": 7, "Longitude": 84.8801928, "Latitude": 27.8103748, "Status": "Not Affected" }, "geometry": { "type": "Point", "coordinates": [ 84.8801928, 27.8103748 ] } },
{ "type": "Feature", "properties": { "Name": null, "Type": "bridge", "District": "DHADING", "Municipality": "Siddhalek", "Municipality_Type": "Gaunpalika", "Ward": 6, "Longitude": 84.8720028, "Latitude": 27.8025448, "Status": "Not Affected" }, "geometry": { "type": "Point", "coordinates": [ 84.8720028, 27.8025448 ] } },
{ "type": "Feature", "properties": { "Name": null, "Type": "bridge", "District": "DHADING", "Municipality": "Siddhalek", "Municipality_Type": "Gaunpalika", "Ward": 4, "Longitude": 84.8396579, "Latitude": 27.8151347, "Status": "Not Affected" }, "geometry": { "type": "Point", "coordinates": [ 84.8396579, 27.8151347 ] } },
{ "type": "Feature", "properties": { "Name": null, "Type": "bridge", "District": "CHITAWAN", "Municipality": "Chitawan National Park", "Municipality_Type": "National Park", "Ward": 99, "Longitude": 84.3211092, "Latitude": 27.6747039, "Status": "Not Affected" }, "geometry": { "type": "Point", "coordinates": [ 84.3211092, 27.6747039 ] } },
{ "type": "Feature", "properties": { "Name": null, "Type": "bridge", "District": "CHITAWAN", "Municipality": "Bharatpur", "Municipality_Type": "Mahanagarpalika", "Ward": 18, "Longitude": 84.2735431, "Latitude": 27.6376913, "Status": "Not Affected" }, "geometry": { "type": "Point", "coordinates": [ 84.2735431, 27.6376913 ] } },
{ "type": "Feature", "properties": { "Name": null, "Type": "bridge", "District": "GORKHA", "Municipality": "Gandaki", "Municipality_Type": "Gaunpalika", "Ward": 1, "Longitude": 84.6382923, "Latitude": 27.8766583, "Status": "Not Affected" }, "geometry": { "type": "Point", "coordinates": [ 84.6382923, 27.8766583 ] } },
{ "type": "Feature", "properties": { "Name": null, "Type": "bridge", "District": "DHADING", "Municipality": "Gajuri", "Municipality_Type": "Gaunpalika", "Ward": 5, "Longitude": 84.9040762, "Latitude": 27.8062872, "Status": "Not Affected" }, "geometry": { "type": "Point", "coordinates": [ 84.9040762, 27.8062872 ] } },
{ "type": "Feature", "properties": { "Name": null, "Type": "bridge", "District": "CHITAWAN", "Municipality": "Bharatpur", "Municipality_Type": "Mahanagarpalika", "Ward": 29, "Longitude": 84.4652942, "Latitude": 27.7745849, "Status": "Not Affected" }, "geometry": { "type": "Point", "coordinates": [ 84.4652942, 27.7745849 ] } },
{ "type": "Feature", "properties": { "Name": null, "Type": "bridge", "District": "NUWAKOT", "Municipality": "Bidur", "Municipality_Type": "Nagarpalika", "Ward": 3, "Longitude": 85.0723384, "Latitude": 27.8549105, "Status": "Not Affected" }, "geometry": { "type": "Point", "coordinates": [ 85.0723384, 27.8549105 ] } },
{ "type": "Feature", "properties": { "Name": null, "Type": "bridge", "District": "NUWAKOT", "Municipality": "Tarkeshwar", "Municipality_Type": "Gaunpalika", "Ward": 4, "Longitude": 85.0569784, "Latitude": 27.8590789, "Status": "Not Affected" }, "geometry": { "type": "Point", "coordinates": [ 85.0569784, 27.8590789 ] } },
{ "type": "Feature", "properties": { "Name": null, "Type": "bridge", "District": "RASUWA", "Municipality": "Gosaikunda", "Municipality_Type": "Gaunpalika", "Ward": 5, "Longitude": 85.3401547, "Latitude": 28.1640037, "Status": "Affected" }, "geometry": { "type": "Point", "coordinates": [ 85.3401547, 28.1640037 ] } },
{ "type": "Feature", "properties": { "Name": null, "Type": "bridge", "District": "RASUWA", "Municipality": "Gosaikunda", "Municipality_Type": "Gaunpalika", "Ward": 2, "Longitude": 85.5253334, "Latitude": 28.3279556, "Status": "Not Affected" }, "geometry": { "type": "Point", "coordinates": [ 85.5253334, 28.3279556 ] } },
{ "type": "Feature", "properties": { "Name": null, "Type": "bridge", "District": "CHITAWAN", "Municipality": "Chitawan National Park", "Municipality_Type": "National Park", "Ward": 99, "Longitude": 84.3019732, "Latitude": 27.6607967, "Status": "Not Affected" }, "geometry": { "type": "Point", "coordinates": [ 84.3019732, 27.6607967 ] } },
{ "type": "Feature", "properties": { "Name": null, "Type": "bridge", "District": "CHITAWAN", "Municipality": "Bharatpur", "Municipality_Type": "Mahanagarpalika", "Ward": 18, "Longitude": 84.2745698, "Latitude": 27.6435348, "Status": "Not Affected" }, "geometry": { "type": "Point", "coordinates": [ 84.2745698, 27.6435348 ] } },
{ "type": "Feature", "properties": { "Name": null, "Type": "bridge", "District": "CHITAWAN", "Municipality": "Bharatpur", "Municipality_Type": "Mahanagarpalika", "Ward": 26, "Longitude": 84.2721366, "Latitude": 27.6365676, "Status": "Not Affected" }, "geometry": { "type": "Point", "coordinates": [ 84.2721366, 27.6365676 ] } },
{ "type": "Feature", "properties": { "Name": null, "Type": "bridge", "District": "CHITAWAN", "Municipality": "Bharatpur", "Municipality_Type": "Mahanagarpalika", "Ward": 18, "Longitude": 84.2802555, "Latitude": 27.6384935, "Status": "Not Affected" }, "geometry": { "type": "Point", "coordinates": [ 84.2802555, 27.6384935 ] } },
{ "type": "Feature", "properties": { "Name": null, "Type": "bridge", "District": "CHITAWAN", "Municipality": "Bharatpur", "Municipality_Type": "Mahanagarpalika", "Ward": 18, "Longitude": 84.2805241, "Latitude": 27.6381341, "Status": "Not Affected" }, "geometry": { "type": "Point", "coordinates": [ 84.2805241, 27.6381341 ] } },
{ "type": "Feature", "properties": { "Name": null, "Type": "bridge", "District": "NAWALPARASI_E", "Municipality": "Gaidakot", "Municipality_Type": "Nagarpalika", "Ward": 3, "Longitude": 84.41862603, "Latitude": 27.75447993, "Status": "Not Affected" }, "geometry": { "type": "Point", "coordinates": [ 84.41862603, 27.75447993 ] } },
{ "type": "Feature", "properties": { "Name": null, "Type": "bridge", "District": "CHITAWAN", "Municipality": "Bharatpur", "Municipality_Type": "Mahanagarpalika", "Ward": 2, "Longitude": 84.4363878, "Latitude": 27.6953575, "Status": "Not Affected" }, "geometry": { "type": "Point", "coordinates": [ 84.4363878, 27.6953575 ] } },
{ "type": "Feature", "properties": { "Name": null, "Type": "bridge", "District": "DHADING", "Municipality": "Galchi", "Municipality_Type": "Gaunpalika", "Ward": 1, "Longitude": 85.0126951, "Latitude": 27.8090263, "Status": "Not Affected" }, "geometry": { "type": "Point", "coordinates": [ 85.0126951, 27.8090263 ] } },
{ "type": "Feature", "properties": { "Name": null, "Type": "bridge", "District": "GORKHA", "Municipality": "Sahid Lakhan", "Municipality_Type": "Gaunpalika", "Ward": 4, "Longitude": 84.6323648, "Latitude": 27.8701471, "Status": "Not Affected" }, "geometry": { "type": "Point", "coordinates": [ 84.6323648, 27.8701471 ] } },
{ "type": "Feature", "properties": { "Name": null, "Type": "bridge", "District": "NUWAKOT", "Municipality": "Belkotgadhi", "Municipality_Type": "Nagarpalika", "Ward": 10, "Longitude": 85.1486894, "Latitude": 27.8743062, "Status": "Not Affected" }, "geometry": { "type": "Point", "coordinates": [ 85.1486894, 27.8743062 ] } },
{ "type": "Feature", "properties": { "Name": null, "Type": "bridge", "District": "GORKHA", "Municipality": "Gandaki", "Municipality_Type": "Gaunpalika", "Ward": 1, "Longitude": 84.6398465, "Latitude": 27.8607796, "Status": "Not Affected" }, "geometry": { "type": "Point", "coordinates": [ 84.6398465, 27.8607796 ] } },
{ "type": "Feature", "properties": { "Name": "Dumpe khola", "Type": "bridge", "District": "CHITAWAN", "Municipality": "Bharatpur", "Municipality_Type": "Mahanagarpalika", "Ward": 29, "Longitude": 84.4666645, "Latitude": 27.8190209, "Status": "Not Affected" }, "geometry": { "type": "Point", "coordinates": [ 84.4666645, 27.8190209 ] } },
{ "type": "Feature", "properties": { "Name": "Trishuli River Bridge", "Type": "bridge", "District": "NUWAKOT", "Municipality": "Bidur", "Municipality_Type": "Nagarpalika", "Ward": 4, "Longitude": 85.1390615, "Latitude": 27.909733, "Status": "Not Affected" }, "geometry": { "type": "Point", "coordinates": [ 85.1390615, 27.909733 ] } },
{ "type": "Feature", "properties": { "Name": "Falaakhu River Bridge", "Type": "bridge", "District": "RASUWA", "Municipality": "Uttargaya", "Municipality_Type": "Gaunpalika", "Ward": 5, "Longitude": 85.1858603, "Latitude": 27.9739625, "Status": "Not Affected" }, "geometry": { "type": "Point", "coordinates": [ 85.1858603, 27.9739625 ] } },
{ "type": "Feature", "properties": { "Name": null, "Type": "bridge", "District": "CHITAWAN", "Municipality": "Bharatpur", "Municipality_Type": "Mahanagarpalika", "Ward": 2, "Longitude": 84.4307508, "Latitude": 27.6906053, "Status": "Not Affected" }, "geometry": { "type": "Point", "coordinates": [ 84.4307508, 27.6906053 ] } },
{ "type": "Feature", "properties": { "Name": "Pasang Lhamu Highway", "Type": "bridge", "District": "NUWAKOT", "Municipality": "Bidur", "Municipality_Type": "Nagarpalika", "Ward": 1, "Longitude": 85.1548193, "Latitude": 27.9308323, "Status": "Not Affected" }, "geometry": { "type": "Point", "coordinates": [ 85.1548193, 27.9308323 ] } },
{ "type": "Feature", "properties": { "Name": null, "Type": "bridge", "District": "NUWAKOT", "Municipality": "Bidur", "Municipality_Type": "Nagarpalika", "Ward": 12, "Longitude": 85.133618, "Latitude": 27.9030071, "Status": "Not Affected" }, "geometry": { "type": "Point", "coordinates": [ 85.133618, 27.9030071 ] } },
{ "type": "Feature", "properties": { "Name": null, "Type": "bridge", "District": "DHADING", "Municipality": "Galchi", "Municipality_Type": "Gaunpalika", "Ward": 1, "Longitude": 84.9911463, "Latitude": 27.804725, "Status": "Not Affected" }, "geometry": { "type": "Point", "coordinates": [ 84.9911463, 27.804725 ] } },
{ "type": "Feature", "properties": { "Name": null, "Type": "bridge", "District": "DHADING", "Municipality": "Galchi", "Municipality_Type": "Gaunpalika", "Ward": 1, "Longitude": 84.9914895, "Latitude": 27.8038543, "Status": "Not Affected" }, "geometry": { "type": "Point", "coordinates": [ 84.9914895, 27.8038543 ] } },
{ "type": "Feature", "properties": { "Name": "Jalbire Bridge", "Type": "bridge", "District": "CHITAWAN", "Municipality": "Ichchhyakamana", "Municipality_Type": "Gaunpalika", "Ward": 6, "Longitude": 84.5227535, "Latitude": 27.8252454, "Status": "Not Affected" }, "geometry": { "type": "Point", "coordinates": [ 84.5227535, 27.8252454 ] } },
{ "type": "Feature", "properties": { "Name": "??????? ???", "Type": "bridge", "District": "CHITAWAN", "Municipality": "Bharatpur", "Municipality_Type": "Mahanagarpalika", "Ward": 29, "Longitude": 84.4831526, "Latitude": 27.8202076, "Status": "Not Affected" }, "geometry": { "type": "Point", "coordinates": [ 84.4831526, 27.8202076 ] } },
{ "type": "Feature", "properties": { "Name": null, "Type": "bridge", "District": "CHITAWAN", "Municipality": "Bharatpur", "Municipality_Type": "Mahanagarpalika", "Ward": 29, "Longitude": 84.4958834, "Latitude": 27.8192613, "Status": "Not Affected" }, "geometry": { "type": "Point", "coordinates": [ 84.4958834, 27.8192613 ] } },
{ "type": "Feature", "properties": { "Name": "?????? ???", "Type": "bridge", "District": "CHITAWAN", "Municipality": "Bharatpur", "Municipality_Type": "Mahanagarpalika", "Ward": 29, "Longitude": 84.4448184, "Latitude": 27.8204812, "Status": "Not Affected" }, "geometry": { "type": "Point", "coordinates": [ 84.4448184, 27.8204812 ] } },
{ "type": "Feature", "properties": { "Name": "Kali khola", "Type": "bridge", "District": "CHITAWAN", "Municipality": "Ichchhyakamana", "Municipality_Type": "Gaunpalika", "Ward": 6, "Longitude": 84.5531011, "Latitude": 27.8339375, "Status": "Not Affected" }, "geometry": { "type": "Point", "coordinates": [ 84.5531011, 27.8339375 ] } },
{ "type": "Feature", "properties": { "Name": "Tope khola", "Type": "bridge", "District": "CHITAWAN", "Municipality": "Ichchhyakamana", "Municipality_Type": "Gaunpalika", "Ward": 6, "Longitude": 84.5489811, "Latitude": 27.8311858, "Status": "Not Affected" }, "geometry": { "type": "Point", "coordinates": [ 84.5489811, 27.8311858 ] } },
{ "type": "Feature", "properties": { "Name": null, "Type": "bridge", "District": "CHITAWAN", "Municipality": "Ichchhyakamana", "Municipality_Type": "Gaunpalika", "Ward": 5, "Longitude": 84.55844817000001, "Latitude": 27.84297997, "Status": "Not Affected" }, "geometry": { "type": "Point", "coordinates": [ 84.55844817, 27.84297997 ] } },
{ "type": "Feature", "properties": { "Name": null, "Type": "bridge", "District": "CHITAWAN", "Municipality": "Ichchhyakamana", "Municipality_Type": "Gaunpalika", "Ward": 5, "Longitude": 84.5583342, "Latitude": 27.8505814, "Status": "Not Affected" }, "geometry": { "type": "Point", "coordinates": [ 84.5583342, 27.8505814 ] } },
{ "type": "Feature", "properties": { "Name": null, "Type": "bridge", "District": "RASUWA", "Municipality": "Uttargaya", "Municipality_Type": "Gaunpalika", "Ward": 2, "Longitude": 85.1939558, "Latitude": 28.0410049, "Status": "Not Affected" }, "geometry": { "type": "Point", "coordinates": [ 85.1939558, 28.0410049 ] } },
{ "type": "Feature", "properties": { "Name": "???????? ??????????", "Type": "bridge", "District": "CHITAWAN", "Municipality": "Bharatpur", "Municipality_Type": "Mahanagarpalika", "Ward": 1, "Longitude": 84.4202535, "Latitude": 27.6978406, "Status": "Not Affected" }, "geometry": { "type": "Point", "coordinates": [ 84.4202535, 27.6978406 ] } },
{ "type": "Feature", "properties": { "Name": null, "Type": "bridge", "District": "NUWAKOT", "Municipality": "Kispang", "Municipality_Type": "Gaunpalika", "Ward": 5, "Longitude": 85.1755723, "Latitude": 27.9828679, "Status": "Not Affected" }, "geometry": { "type": "Point", "coordinates": [ 85.1755723, 27.9828679 ] } },
{ "type": "Feature", "properties": { "Name": "trishuli bridge", "Type": "bridge", "District": "NUWAKOT", "Municipality": "Bidur", "Municipality_Type": "Nagarpalika", "Ward": 1, "Longitude": 85.14937, "Latitude": 27.9221046, "Status": "Not Affected" }, "geometry": { "type": "Point", "coordinates": [ 85.14937, 27.9221046 ] } },
{ "type": "Feature", "properties": { "Name": null, "Type": "bridge", "District": "CHITAWAN", "Municipality": "Bharatpur", "Municipality_Type": "Mahanagarpalika", "Ward": 3, "Longitude": 84.4192888, "Latitude": 27.6857654, "Status": "Not Affected" }, "geometry": { "type": "Point", "coordinates": [ 84.4192888, 27.6857654 ] } },
{ "type": "Feature", "properties": { "Name": "???????? ???", "Type": "bridge", "District": "CHITAWAN", "Municipality": "Bharatpur", "Municipality_Type": "Mahanagarpalika", "Ward": 16, "Longitude": 84.3168632, "Latitude": 27.6668856, "Status": "Not Affected" }, "geometry": { "type": "Point", "coordinates": [ 84.3168632, 27.6668856 ] } },
{ "type": "Feature", "properties": { "Name": "Dahki khola", "Type": "bridge", "District": "CHITAWAN", "Municipality": "Ichchhyakamana", "Municipality_Type": "Gaunpalika", "Ward": 3, "Longitude": 84.6338689, "Latitude": 27.8610843, "Status": "Not Affected" }, "geometry": { "type": "Point", "coordinates": [ 84.6338689, 27.8610843 ] } },
{ "type": "Feature", "properties": { "Name": "Nagdi khola", "Type": "bridge", "District": "CHITAWAN", "Municipality": "Ichchhyakamana", "Municipality_Type": "Gaunpalika", "Ward": 4, "Longitude": 84.5767263, "Latitude": 27.8632987, "Status": "Not Affected" }, "geometry": { "type": "Point", "coordinates": [ 84.5767263, 27.8632987 ] } },
{ "type": "Feature", "properties": { "Name": "Prithvi Rajmarg", "Type": "bridge", "District": "CHITAWAN", "Municipality": "Ichchhyakamana", "Municipality_Type": "Gaunpalika", "Ward": 4, "Longitude": 84.63072477, "Latitude": 27.86834549, "Status": "Not Affected" }, "geometry": { "type": "Point", "coordinates": [ 84.63072477, 27.86834549 ] } },
{ "type": "Feature", "properties": { "Name": "Soti khola", "Type": "bridge", "District": "DHADING", "Municipality": "Gajuri", "Municipality_Type": "Gaunpalika", "Ward": 1, "Longitude": 84.8723751, "Latitude": 27.8005611, "Status": "Not Affected" }, "geometry": { "type": "Point", "coordinates": [ 84.8723751, 27.8005611 ] } },
{ "type": "Feature", "properties": { "Name": null, "Type": "bridge", "District": "RASUWA", "Municipality": "Uttargaya", "Municipality_Type": "Gaunpalika", "Ward": 1, "Longitude": 85.2059208, "Latitude": 28.0746838, "Status": "Not Affected" }, "geometry": { "type": "Point", "coordinates": [ 85.2059208, 28.0746838 ] } },
{ "type": "Feature", "properties": { "Name": null, "Type": "bridge", "District": "RASUWA", "Municipality": "Gosaikunda", "Municipality_Type": "Gaunpalika", "Ward": 2, "Longitude": 85.3618006, "Latitude": 28.2264317, "Status": "Affected" }, "geometry": { "type": "Point", "coordinates": [ 85.3618006, 28.2264317 ] } },
{ "type": "Feature", "properties": { "Name": null, "Type": "bridge", "District": "RASUWA", "Municipality": "Parbati Kunda", "Municipality_Type": "Gaunpalika", "Ward": 5, "Longitude": 85.34308147, "Latitude": 28.18285986, "Status": "Affected" }, "geometry": { "type": "Point", "coordinates": [ 85.34308147, 28.18285986 ] } },
{ "type": "Feature", "properties": { "Name": null, "Type": "bridge", "District": "TANAHU", "Municipality": "Anbukhaireni", "Municipality_Type": "Gaunpalika", "Ward": 4, "Longitude": 84.5296736, "Latitude": 27.8332256, "Status": "Not Affected" }, "geometry": { "type": "Point", "coordinates": [ 84.5296736, 27.8332256 ] } },
{ "type": "Feature", "properties": { "Name": "Prithvi Rajmarg", "Type": "bridge", "District": "DHADING", "Municipality": "Galchi", "Municipality_Type": "Gaunpalika", "Ward": 4, "Longitude": 84.9683167, "Latitude": 27.806569, "Status": "Not Affected" }, "geometry": { "type": "Point", "coordinates": [ 84.9683167, 27.806569 ] } },
{ "type": "Feature", "properties": { "Name": "Khani khola", "Type": "bridge", "District": "CHITAWAN", "Municipality": "Bharatpur", "Municipality_Type": "Mahanagarpalika", "Ward": 29, "Longitude": 84.4316432, "Latitude": 27.8023545, "Status": "Not Affected" }, "geometry": { "type": "Point", "coordinates": [ 84.4316432, 27.8023545 ] } },
{ "type": "Feature", "properties": { "Name": null, "Type": "bridge", "District": "CHITAWAN", "Municipality": "Bharatpur", "Municipality_Type": "Mahanagarpalika", "Ward": 3, "Longitude": 84.396575, "Latitude": 27.6822758, "Status": "Not Affected" }, "geometry": { "type": "Point", "coordinates": [ 84.396575, 27.6822758 ] } },
{ "type": "Feature", "properties": { "Name": null, "Type": "bridge", "District": "RASUWA", "Municipality": "Gosaikunda", "Municipality_Type": "Gaunpalika", "Ward": 5, "Longitude": 85.3324711, "Latitude": 28.1576744, "Status": "Affected" }, "geometry": { "type": "Point", "coordinates": [ 85.3324711, 28.1576744 ] } },
{ "type": "Feature", "properties": { "Name": null, "Type": "bridge", "District": "CHITAWAN", "Municipality": "Bharatpur", "Municipality_Type": "Mahanagarpalika", "Ward": 29, "Longitude": 84.47003021, "Latitude": 27.76647477, "Status": "Not Affected" }, "geometry": { "type": "Point", "coordinates": [ 84.47003021, 27.76647477 ] } },
{ "type": "Feature", "properties": { "Name": null, "Type": "bridge", "District": "CHITAWAN", "Municipality": "Bharatpur", "Municipality_Type": "Mahanagarpalika", "Ward": 29, "Longitude": 84.47014177, "Latitude": 27.76672683, "Status": "Not Affected" }, "geometry": { "type": "Point", "coordinates": [ 84.47014177, 27.76672683 ] } },
{ "type": "Feature", "properties": { "Name": null, "Type": "bridge", "District": "CHITAWAN", "Municipality": "Bharatpur", "Municipality_Type": "Mahanagarpalika", "Ward": 29, "Longitude": 84.46412141, "Latitude": 27.7727286, "Status": "Not Affected" }, "geometry": { "type": "Point", "coordinates": [ 84.46412141, 27.7727286 ] } },
{ "type": "Feature", "properties": { "Name": null, "Type": "bridge", "District": "CHITAWAN", "Municipality": "Bharatpur", "Municipality_Type": "Mahanagarpalika", "Ward": 29, "Longitude": 84.44087668, "Latitude": 27.77934914, "Status": "Not Affected" }, "geometry": { "type": "Point", "coordinates": [ 84.44087668, 27.77934914 ] } },
{ "type": "Feature", "properties": { "Name": null, "Type": "bridge", "District": "CHITAWAN", "Municipality": "Bharatpur", "Municipality_Type": "Mahanagarpalika", "Ward": 29, "Longitude": 84.44482086, "Latitude": 27.82074234, "Status": "Not Affected" }, "geometry": { "type": "Point", "coordinates": [ 84.44482086, 27.82074234 ] } },
{ "type": "Feature", "properties": { "Name": null, "Type": "bridge", "District": "CHITAWAN", "Municipality": "Bharatpur", "Municipality_Type": "Mahanagarpalika", "Ward": 29, "Longitude": 84.4631053, "Latitude": 27.81773914, "Status": "Not Affected" }, "geometry": { "type": "Point", "coordinates": [ 84.4631053, 27.81773914 ] } },
{ "type": "Feature", "properties": { "Name": null, "Type": "bridge", "District": "CHITAWAN", "Municipality": "Bharatpur", "Municipality_Type": "Mahanagarpalika", "Ward": 29, "Longitude": 84.46660996, "Latitude": 27.81913023, "Status": "Not Affected" }, "geometry": { "type": "Point", "coordinates": [ 84.46660996, 27.81913023 ] } },
{ "type": "Feature", "properties": { "Name": null, "Type": "bridge", "District": "CHITAWAN", "Municipality": "Bharatpur", "Municipality_Type": "Mahanagarpalika", "Ward": 29, "Longitude": 84.49591396, "Latitude": 27.81938993, "Status": "Not Affected" }, "geometry": { "type": "Point", "coordinates": [ 84.49591396, 27.81938993 ] } },
{ "type": "Feature", "properties": { "Name": null, "Type": "bridge", "District": "CHITAWAN", "Municipality": "Ichchhyakamana", "Municipality_Type": "Gaunpalika", "Ward": 6, "Longitude": 84.54730821, "Latitude": 27.83071755, "Status": "Not Affected" }, "geometry": { "type": "Point", "coordinates": [ 84.54730821, 27.83071755 ] } },
{ "type": "Feature", "properties": { "Name": null, "Type": "bridge", "District": "CHITAWAN", "Municipality": "Ichchhyakamana", "Municipality_Type": "Gaunpalika", "Ward": 6, "Longitude": 84.54931127, "Latitude": 27.83139169, "Status": "Not Affected" }, "geometry": { "type": "Point", "coordinates": [ 84.54931127, 27.83139169 ] } },
{ "type": "Feature", "properties": { "Name": null, "Type": "bridge", "District": "TANAHU", "Municipality": "Anbukhaireni", "Municipality_Type": "Gaunpalika", "Ward": 4, "Longitude": 84.55664936, "Latitude": 27.85488545, "Status": "Not Affected" }, "geometry": { "type": "Point", "coordinates": [ 84.55664936, 27.85488545 ] } },
{ "type": "Feature", "properties": { "Name": null, "Type": "bridge", "District": "GORKHA", "Municipality": "Gandaki", "Municipality_Type": "Gaunpalika", "Ward": 6, "Longitude": 84.66276155, "Latitude": 27.84484255, "Status": "Not Affected" }, "geometry": { "type": "Point", "coordinates": [ 84.66276155, 27.84484255 ] } },
{ "type": "Feature", "properties": { "Name": null, "Type": "bridge", "District": "DHADING", "Municipality": "Benighat Rorang", "Municipality_Type": "Gaunpalika", "Ward": 8, "Longitude": 84.72792853, "Latitude": 27.79656201, "Status": "Not Affected" }, "geometry": { "type": "Point", "coordinates": [ 84.72792853, 27.79656201 ] } },
{ "type": "Feature", "properties": { "Name": null, "Type": "bridge", "District": "DHADING", "Municipality": "Siddhalek", "Municipality_Type": "Gaunpalika", "Ward": 7, "Longitude": 84.90149394, "Latitude": 27.80743238, "Status": "Not Affected" }, "geometry": { "type": "Point", "coordinates": [ 84.90149394, 27.80743238 ] } },
{ "type": "Feature", "properties": { "Name": null, "Type": "bridge", "District": "DHADING", "Municipality": "Gajuri", "Municipality_Type": "Gaunpalika", "Ward": 6, "Longitude": 84.94538157, "Latitude": 27.81138876, "Status": "Not Affected" }, "geometry": { "type": "Point", "coordinates": [ 84.94538157, 27.81138876 ] } },
{ "type": "Feature", "properties": { "Name": null, "Type": "bridge", "District": "DHADING", "Municipality": "Galchi", "Municipality_Type": "Gaunpalika", "Ward": 4, "Longitude": 84.95538027000001, "Latitude": 27.81602756, "Status": "Not Affected" }, "geometry": { "type": "Point", "coordinates": [ 84.95538027, 27.81602756 ] } },
{ "type": "Feature", "properties": { "Name": null, "Type": "bridge", "District": "DHADING", "Municipality": "Galchi", "Municipality_Type": "Gaunpalika", "Ward": 4, "Longitude": 84.96143641, "Latitude": 27.81583969, "Status": "Not Affected" }, "geometry": { "type": "Point", "coordinates": [ 84.96143641, 27.81583969 ] } },
{ "type": "Feature", "properties": { "Name": null, "Type": "bridge", "District": "DHADING", "Municipality": "Galchi", "Municipality_Type": "Gaunpalika", "Ward": 2, "Longitude": 84.96591772, "Latitude": 27.81220932, "Status": "Not Affected" }, "geometry": { "type": "Point", "coordinates": [ 84.96591772, 27.81220932 ] } },
{ "type": "Feature", "properties": { "Name": null, "Type": "bridge", "District": "DHADING", "Municipality": "Galchi", "Municipality_Type": "Gaunpalika", "Ward": 1, "Longitude": 84.97032721, "Latitude": 27.80738265, "Status": "Not Affected" }, "geometry": { "type": "Point", "coordinates": [ 84.97032721, 27.80738265 ] } },
{ "type": "Feature", "properties": { "Name": null, "Type": "bridge", "District": "DHADING", "Municipality": "Galchi", "Municipality_Type": "Gaunpalika", "Ward": 6, "Longitude": 84.97490246, "Latitude": 27.80077672, "Status": "Not Affected" }, "geometry": { "type": "Point", "coordinates": [ 84.97490246, 27.80077672 ] } },
{ "type": "Feature", "properties": { "Name": null, "Type": "bridge", "District": "DHADING", "Municipality": "Galchi", "Municipality_Type": "Gaunpalika", "Ward": 6, "Longitude": 84.97871517, "Latitude": 27.80078915, "Status": "Not Affected" }, "geometry": { "type": "Point", "coordinates": [ 84.97871517, 27.80078915 ] } },
{ "type": "Feature", "properties": { "Name": null, "Type": "bridge", "District": "DHADING", "Municipality": "Galchi", "Municipality_Type": "Gaunpalika", "Ward": 1, "Longitude": 85.00252528, "Latitude": 27.80298836, "Status": "Not Affected" }, "geometry": { "type": "Point", "coordinates": [ 85.00252528, 27.80298836 ] } },
{ "type": "Feature", "properties": { "Name": null, "Type": "bridge", "District": "NUWAKOT", "Municipality": "Belkotgadhi", "Municipality_Type": "Nagarpalika", "Ward": 5, "Longitude": 85.01489726, "Latitude": 27.80960812, "Status": "Not Affected" }, "geometry": { "type": "Point", "coordinates": [ 85.01489726, 27.80960812 ] } },
{ "type": "Feature", "properties": { "Name": null, "Type": "bridge", "District": "NUWAKOT", "Municipality": "Belkotgadhi", "Municipality_Type": "Nagarpalika", "Ward": 5, "Longitude": 85.0188039, "Latitude": 27.82217625, "Status": "Not Affected" }, "geometry": { "type": "Point", "coordinates": [ 85.0188039, 27.82217625 ] } },
{ "type": "Feature", "properties": { "Name": null, "Type": "bridge", "District": "DHADING", "Municipality": "Galchi", "Municipality_Type": "Gaunpalika", "Ward": 1, "Longitude": 85.02294263, "Latitude": 27.83228823, "Status": "Not Affected" }, "geometry": { "type": "Point", "coordinates": [ 85.02294263, 27.83228823 ] } },
{ "type": "Feature", "properties": { "Name": null, "Type": "bridge", "District": "NUWAKOT", "Municipality": "Belkotgadhi", "Municipality_Type": "Nagarpalika", "Ward": 7, "Longitude": 85.02445943, "Latitude": 27.83447639, "Status": "Not Affected" }, "geometry": { "type": "Point", "coordinates": [ 85.02445943, 27.83447639 ] } },
{ "type": "Feature", "properties": { "Name": null, "Type": "bridge", "District": "NUWAKOT", "Municipality": "Tarkeshwar", "Municipality_Type": "Gaunpalika", "Ward": 4, "Longitude": 85.04076291, "Latitude": 27.85653486, "Status": "Not Affected" }, "geometry": { "type": "Point", "coordinates": [ 85.04076291, 27.85653486 ] } },
{ "type": "Feature", "properties": { "Name": null, "Type": "bridge", "District": "NUWAKOT", "Municipality": "Tarkeshwar", "Municipality_Type": "Gaunpalika", "Ward": 4, "Longitude": 85.06268324, "Latitude": 27.86024259, "Status": "Not Affected" }, "geometry": { "type": "Point", "coordinates": [ 85.06268324, 27.86024259 ] } },
{ "type": "Feature", "properties": { "Name": null, "Type": "bridge", "District": "NUWAKOT", "Municipality": "Bidur", "Municipality_Type": "Nagarpalika", "Ward": 3, "Longitude": 85.0810782, "Latitude": 27.85741897, "Status": "Not Affected" }, "geometry": { "type": "Point", "coordinates": [ 85.0810782, 27.85741897 ] } },
{ "type": "Feature", "properties": { "Name": null, "Type": "bridge", "District": "NUWAKOT", "Municipality": "Belkotgadhi", "Municipality_Type": "Nagarpalika", "Ward": 8, "Longitude": 85.09835696, "Latitude": 27.85861804, "Status": "Not Affected" }, "geometry": { "type": "Point", "coordinates": [ 85.09835696, 27.85861804 ] } },
{ "type": "Feature", "properties": { "Name": null, "Type": "bridge", "District": "NAWALPARASI_E", "Municipality": "Gaidakot", "Municipality_Type": "Nagarpalika", "Ward": 3, "Longitude": 84.41803031000001, "Latitude": 27.73775048, "Status": "Not Affected" }, "geometry": { "type": "Point", "coordinates": [ 84.41803031, 27.73775048 ] } },
{ "type": "Feature", "properties": { "Name": null, "Type": "bridge", "District": "NAWALPARASI_E", "Municipality": "Gaidakot", "Municipality_Type": "Nagarpalika", "Ward": 3, "Longitude": 84.41951146, "Latitude": 27.75554244, "Status": "Not Affected" }, "geometry": { "type": "Point", "coordinates": [ 84.41951146, 27.75554244 ] } },
{ "type": "Feature", "properties": { "Name": null, "Type": "bridge", "District": "TANAHU", "Municipality": "Devghat", "Municipality_Type": "Gaunpalika", "Ward": 5, "Longitude": 84.44316686000001, "Latitude": 27.75158001, "Status": "Not Affected" }, "geometry": { "type": "Point", "coordinates": [ 84.44316686, 27.75158001 ] } },
{ "type": "Feature", "properties": { "Name": null, "Type": "bridge", "District": "TANAHU", "Municipality": "Anbukhaireni", "Municipality_Type": "Gaunpalika", "Ward": 5, "Longitude": 84.49854578, "Latitude": 27.82001036, "Status": "Not Affected" }, "geometry": { "type": "Point", "coordinates": [ 84.49854578, 27.82001036 ] } },
{ "type": "Feature", "properties": { "Name": null, "Type": "bridge", "District": "CHITAWAN", "Municipality": "Ichchhyakamana", "Municipality_Type": "Gaunpalika", "Ward": 6, "Longitude": 84.55261707, "Latitude": 27.8333889, "Status": "Not Affected" }, "geometry": { "type": "Point", "coordinates": [ 84.55261707, 27.8333889 ] } },
{ "type": "Feature", "properties": { "Name": null, "Type": "bridge", "District": "CHITAWAN", "Municipality": "Ichchhyakamana", "Municipality_Type": "Gaunpalika", "Ward": 5, "Longitude": 84.55841319, "Latitude": 27.84352461, "Status": "Not Affected" }, "geometry": { "type": "Point", "coordinates": [ 84.55841319, 27.84352461 ] } },
{ "type": "Feature", "properties": { "Name": null, "Type": "bridge", "District": "CHITAWAN", "Municipality": "Ichchhyakamana", "Municipality_Type": "Gaunpalika", "Ward": 5, "Longitude": 84.55850313000001, "Latitude": 27.85006273, "Status": "Not Affected" }, "geometry": { "type": "Point", "coordinates": [ 84.55850313, 27.85006273 ] } },
{ "type": "Feature", "properties": { "Name": null, "Type": "bridge", "District": "CHITAWAN", "Municipality": "Ichchhyakamana", "Municipality_Type": "Gaunpalika", "Ward": 4, "Longitude": 84.63014765, "Latitude": 27.86844792, "Status": "Not Affected" }, "geometry": { "type": "Point", "coordinates": [ 84.63014765, 27.86844792 ] } },
{ "type": "Feature", "properties": { "Name": null, "Type": "bridge", "District": "GORKHA", "Municipality": "Gandaki", "Municipality_Type": "Gaunpalika", "Ward": 1, "Longitude": 84.64108033, "Latitude": 27.85951015, "Status": "Not Affected" }, "geometry": { "type": "Point", "coordinates": [ 84.64108033, 27.85951015 ] } },
{ "type": "Feature", "properties": { "Name": null, "Type": "bridge", "District": "GORKHA", "Municipality": "Gandaki", "Municipality_Type": "Gaunpalika", "Ward": 1, "Longitude": 84.64214712, "Latitude": 27.86050699, "Status": "Not Affected" }, "geometry": { "type": "Point", "coordinates": [ 84.64214712, 27.86050699 ] } },
{ "type": "Feature", "properties": { "Name": null, "Type": "bridge", "District": "CHITAWAN", "Municipality": "Ichchhyakamana", "Municipality_Type": "Gaunpalika", "Ward": 3, "Longitude": 84.66494935, "Latitude": 27.8250982, "Status": "Not Affected" }, "geometry": { "type": "Point", "coordinates": [ 84.66494935, 27.8250982 ] } },
{ "type": "Feature", "properties": { "Name": null, "Type": "bridge", "District": "DHADING", "Municipality": "Benighat Rorang", "Municipality_Type": "Gaunpalika", "Ward": 10, "Longitude": 84.66932517, "Latitude": 27.8171023, "Status": "Not Affected" }, "geometry": { "type": "Point", "coordinates": [ 84.66932517, 27.8171023 ] } },
{ "type": "Feature", "properties": { "Name": null, "Type": "bridge", "District": "DHADING", "Municipality": "Benighat Rorang", "Municipality_Type": "Gaunpalika", "Ward": 10, "Longitude": 84.67684013, "Latitude": 27.81530351, "Status": "Not Affected" }, "geometry": { "type": "Point", "coordinates": [ 84.67684013, 27.81530351 ] } },
{ "type": "Feature", "properties": { "Name": null, "Type": "bridge", "District": "GORKHA", "Municipality": "Gandaki", "Municipality_Type": "Gaunpalika", "Ward": 6, "Longitude": 84.69079829, "Latitude": 27.81049423, "Status": "Not Affected" }, "geometry": { "type": "Point", "coordinates": [ 84.69079829, 27.81049423 ] } },
{ "type": "Feature", "properties": { "Name": null, "Type": "bridge", "District": "GORKHA", "Municipality": "Gandaki", "Municipality_Type": "Gaunpalika", "Ward": 8, "Longitude": 84.74999364, "Latitude": 27.80564498, "Status": "Not Affected" }, "geometry": { "type": "Point", "coordinates": [ 84.74999364, 27.80564498 ] } },
{ "type": "Feature", "properties": { "Name": null, "Type": "bridge", "District": "GORKHA", "Municipality": "Gandaki", "Municipality_Type": "Gaunpalika", "Ward": 8, "Longitude": 84.75519266000001, "Latitude": 27.80937498, "Status": "Not Affected" }, "geometry": { "type": "Point", "coordinates": [ 84.75519266, 27.80937498 ] } },
{ "type": "Feature", "properties": { "Name": null, "Type": "bridge", "District": "GORKHA", "Municipality": "Gandaki", "Municipality_Type": "Gaunpalika", "Ward": 8, "Longitude": 84.75615202, "Latitude": 27.81529102, "Status": "Not Affected" }, "geometry": { "type": "Point", "coordinates": [ 84.75615202, 27.81529102 ] } },
{ "type": "Feature", "properties": { "Name": null, "Type": "bridge", "District": "DHADING", "Municipality": "Benighat Rorang", "Municipality_Type": "Gaunpalika", "Ward": 5, "Longitude": 84.78827051, "Latitude": 27.81237797, "Status": "Not Affected" }, "geometry": { "type": "Point", "coordinates": [ 84.78827051, 27.81237797 ] } },
{ "type": "Feature", "properties": { "Name": null, "Type": "bridge", "District": "DHADING", "Municipality": "Benighat Rorang", "Municipality_Type": "Gaunpalika", "Ward": 3, "Longitude": 84.79459128000001, "Latitude": 27.81273273, "Status": "Not Affected" }, "geometry": { "type": "Point", "coordinates": [ 84.79459128, 27.81273273 ] } },
{ "type": "Feature", "properties": { "Name": null, "Type": "bridge", "District": "DHADING", "Municipality": "Gajuri", "Municipality_Type": "Gaunpalika", "Ward": 2, "Longitude": 84.853989, "Latitude": 27.80742378, "Status": "Not Affected" }, "geometry": { "type": "Point", "coordinates": [ 84.853989, 27.80742378 ] } },
{ "type": "Feature", "properties": { "Name": null, "Type": "bridge", "District": "DHADING", "Municipality": "Galchi", "Municipality_Type": "Gaunpalika", "Ward": 4, "Longitude": 84.96865221, "Latitude": 27.80647942, "Status": "Not Affected" }, "geometry": { "type": "Point", "coordinates": [ 84.96865221, 27.80647942 ] } },
{ "type": "Feature", "properties": { "Name": null, "Type": "bridge", "District": "NUWAKOT", "Municipality": "Bidur", "Municipality_Type": "Nagarpalika", "Ward": 1, "Longitude": 85.14791966, "Latitude": 27.92157109, "Status": "Not Affected" }, "geometry": { "type": "Point", "coordinates": [ 85.14791966, 27.92157109 ] } },
{ "type": "Feature", "properties": { "Name": null, "Type": "bridge", "District": "NUWAKOT", "Municipality": "Bidur", "Municipality_Type": "Nagarpalika", "Ward": 1, "Longitude": 85.15038551000001, "Latitude": 27.92779942, "Status": "Not Affected" }, "geometry": { "type": "Point", "coordinates": [ 85.15038551, 27.92779942 ] } },
{ "type": "Feature", "properties": { "Name": null, "Type": "bridge", "District": "NUWAKOT", "Municipality": "Bidur", "Municipality_Type": "Nagarpalika", "Ward": 10, "Longitude": 85.16376655000001, "Latitude": 27.94869543, "Status": "Not Affected" }, "geometry": { "type": "Point", "coordinates": [ 85.16376655, 27.94869543 ] } },
{ "type": "Feature", "properties": { "Name": null, "Type": "bridge", "District": "NUWAKOT", "Municipality": "Bidur", "Municipality_Type": "Nagarpalika", "Ward": 10, "Longitude": 85.1731003, "Latitude": 27.96301084, "Status": "Not Affected" }, "geometry": { "type": "Point", "coordinates": [ 85.1731003, 27.96301084 ] } },
{ "type": "Feature", "properties": { "Name": null, "Type": "bridge", "District": "RASUWA", "Municipality": "Kalika", "Municipality_Type": "Gaunpalika", "Ward": 1, "Longitude": 85.20632555, "Latitude": 28.06568209, "Status": "Not Affected" }, "geometry": { "type": "Point", "coordinates": [ 85.20632555, 28.06568209 ] } },
{ "type": "Feature", "properties": { "Name": null, "Type": "bridge", "District": "RASUWA", "Municipality": "Parbati Kunda", "Municipality_Type": "Gaunpalika", "Ward": 1, "Longitude": 85.27533933, "Latitude": 28.1080612, "Status": "Affected" }, "geometry": { "type": "Point", "coordinates": [ 85.27533933, 28.1080612 ] } },
{ "type": "Feature", "properties": { "Name": null, "Type": "bridge", "District": "RASUWA", "Municipality": "Parbati Kunda", "Municipality_Type": "Gaunpalika", "Ward": 1, "Longitude": 85.28118292000001, "Latitude": 28.11283801, "Status": "Affected" }, "geometry": { "type": "Point", "coordinates": [ 85.28118292, 28.11283801 ] } },
{ "type": "Feature", "properties": { "Name": null, "Type": "bridge", "District": "RASUWA", "Municipality": "Parbati Kunda", "Municipality_Type": "Gaunpalika", "Ward": 2, "Longitude": 85.28819322, "Latitude": 28.12043417, "Status": "Affected" }, "geometry": { "type": "Point", "coordinates": [ 85.28819322, 28.12043417 ] } },
{ "type": "Feature", "properties": { "Name": null, "Type": "bridge", "District": "RASUWA", "Municipality": "Gosaikunda", "Municipality_Type": "Gaunpalika", "Ward": 2, "Longitude": 85.37794062, "Latitude": 28.27127565, "Status": "Affected" }, "geometry": { "type": "Point", "coordinates": [ 85.37794062, 28.27127565 ] } },
{ "type": "Feature", "properties": { "Name": null, "Type": "bridge", "District": null, "Municipality": null, "Municipality_Type": null, "Ward": null, "Longitude": 85.37819795, "Latitude": 28.27862074, "Status": "Affected" }, "geometry": { "type": "Point", "coordinates": [ 85.37819795, 28.27862074 ] } },
{ "type": "Feature", "properties": { "Name": null, "Type": "bridge", "District": "RASUWA", "Municipality": "Parbati Kunda", "Municipality_Type": "Gaunpalika", "Ward": 5, "Longitude": 85.3432393, "Latitude": 28.182402, "Status": "Affected" }, "geometry": { "type": "Point", "coordinates": [ 85.3432393, 28.182402 ] } },
{ "type": "Feature", "properties": { "Name": null, "Type": "bridge", "District": "RASUWA", "Municipality": "Gosaikunda", "Municipality_Type": "Gaunpalika", "Ward": 1, "Longitude": 85.3580951, "Latitude": 28.240703, "Status": "Affected" }, "geometry": { "type": "Point", "coordinates": [ 85.3580951, 28.240703 ] } },
{ "type": "Feature", "properties": { "Name": null, "Type": "bridge", "District": "RASUWA", "Municipality": "Gosaikunda", "Municipality_Type": "Gaunpalika", "Ward": 1, "Longitude": 85.3642275, "Latitude": 28.2519329, "Status": "Affected" }, "geometry": { "type": "Point", "coordinates": [ 85.3642275, 28.2519329 ] } },
{ "type": "Feature", "properties": { "Name": null, "Type": "bridge", "District": "RASUWA", "Municipality": "Gosaikunda", "Municipality_Type": "Gaunpalika", "Ward": 1, "Longitude": 85.3651819, "Latitude": 28.2557625, "Status": "Affected" }, "geometry": { "type": "Point", "coordinates": [ 85.3651819, 28.2557625 ] } },
{ "type": "Feature", "properties": { "Name": null, "Type": "bridge", "District": "RASUWA", "Municipality": "Gosaikunda", "Municipality_Type": "Gaunpalika", "Ward": 2, "Longitude": 85.3758182, "Latitude": 28.2658136, "Status": "Affected" }, "geometry": { "type": "Point", "coordinates": [ 85.3758182, 28.2658136 ] } },
{ "type": "Feature", "properties": { "Name": null, "Type": "bridge", "District": "RASUWA", "Municipality": "Gosaikunda", "Municipality_Type": "Gaunpalika", "Ward": 2, "Longitude": 85.3782131, "Latitude": 28.2782687, "Status": "Affected" }, "geometry": { "type": "Point", "coordinates": [ 85.3782131, 28.2782687 ] } },
{ "type": "Feature", "properties": { "Name": null, "Type": "bridge", "District": null, "Municipality": null, "Municipality_Type": null, "Ward": null, "Longitude": 85.3716403, "Latitude": 28.2851769, "Status": "Affected" }, "geometry": { "type": "Point", "coordinates": [ 85.3716403, 28.2851769 ] } },
{ "type": "Feature", "properties": { "Name": "Trishuli River Old Bridge", "Type": "bridge", "District": "NUWAKOT", "Municipality": "Bidur", "Municipality_Type": "Nagarpalika", "Ward": 12, "Longitude": 85.1381525, "Latitude": 27.9091437, "Status": "Not Affected" }, "geometry": { "type": "Point", "coordinates": [ 85.1381525, 27.9091437 ] } },
{ "type": "Feature", "properties": { "Name": "Trishuli Naya Pul", "Type": "bridge", "District": "NUWAKOT", "Municipality": "Bidur", "Municipality_Type": "Nagarpalika", "Ward": 1, "Longitude": 85.1479673, "Latitude": 27.9212007, "Status": "Not Affected" }, "geometry": { "type": "Point", "coordinates": [ 85.1479673, 27.9212007 ] } },
{ "type": "Feature", "properties": { "Name": null, "Type": "bridge", "District": "NUWAKOT", "Municipality": "Bidur", "Municipality_Type": "Nagarpalika", "Ward": 1, "Longitude": 85.1499169, "Latitude": 27.9275904, "Status": "Not Affected" }, "geometry": { "type": "Point", "coordinates": [ 85.1499169, 27.9275904 ] } },
{ "type": "Feature", "properties": { "Name": null, "Type": "bridge", "District": "NUWAKOT", "Municipality": "Bidur", "Municipality_Type": "Nagarpalika", "Ward": 1, "Longitude": 85.1499169, "Latitude": 27.9275904, "Status": "Not Affected" }, "geometry": { "type": "Point", "coordinates": [ 85.1499169, 27.9275904 ] } },
{ "type": "Feature", "properties": { "Name": "Aqueduct (2 Barrel) crossing over Trishuli", "Type": "bridge", "District": "NUWAKOT", "Municipality": "Bidur", "Municipality_Type": "Nagarpalika", "Ward": 9, "Longitude": 85.1624539, "Latitude": 27.9484877, "Status": "Not Affected" }, "geometry": { "type": "Point", "coordinates": [ 85.1624539, 27.9484877 ] } },
{ "type": "Feature", "properties": { "Name": null, "Type": "bridge", "District": "NUWAKOT", "Municipality": "Bidur", "Municipality_Type": "Nagarpalika", "Ward": 7, "Longitude": 85.163849, "Latitude": 27.9557297, "Status": "Not Affected" }, "geometry": { "type": "Point", "coordinates": [ 85.163849, 27.9557297 ] } },
{ "type": "Feature", "properties": { "Name": null, "Type": "bridge", "District": "NUWAKOT", "Municipality": "Bidur", "Municipality_Type": "Nagarpalika", "Ward": 10, "Longitude": 85.1638597, "Latitude": 27.9488026, "Status": "Not Affected" }, "geometry": { "type": "Point", "coordinates": [ 85.1638597, 27.9488026 ] } },
{ "type": "Feature", "properties": { "Name": null, "Type": "bridge", "District": "NUWAKOT", "Municipality": "Bidur", "Municipality_Type": "Nagarpalika", "Ward": 7, "Longitude": 85.1665018, "Latitude": 27.958337, "Status": "Not Affected" }, "geometry": { "type": "Point", "coordinates": [ 85.1665018, 27.958337 ] } },
{ "type": "Feature", "properties": { "Name": null, "Type": "bridge", "District": "NUWAKOT", "Municipality": "Bidur", "Municipality_Type": "Nagarpalika", "Ward": 7, "Longitude": 85.1702496, "Latitude": 27.963347, "Status": "Not Affected" }, "geometry": { "type": "Point", "coordinates": [ 85.1702496, 27.963347 ] } },
{ "type": "Feature", "properties": { "Name": null, "Type": "bridge", "District": "RASUWA", "Municipality": "Kalika", "Municipality_Type": "Gaunpalika", "Ward": 1, "Longitude": 85.2064728, "Latitude": 28.0654111, "Status": "Not Affected" }, "geometry": { "type": "Point", "coordinates": [ 85.2064728, 28.0654111 ] } },
{ "type": "Feature", "properties": { "Name": null, "Type": "bridge", "District": "CHITAWAN", "Municipality": "Bharatpur", "Municipality_Type": "Mahanagarpalika", "Ward": 29, "Longitude": 84.4962995, "Latitude": 27.8131137, "Status": "Not Affected" }, "geometry": { "type": "Point", "coordinates": [ 84.4962995, 27.8131137 ] } },
{ "type": "Feature", "properties": { "Name": null, "Type": "bridge", "District": "CHITAWAN", "Municipality": "Ichchhyakamana", "Municipality_Type": "Gaunpalika", "Ward": 6, "Longitude": 84.4968128, "Latitude": 27.8195262, "Status": "Not Affected" }, "geometry": { "type": "Point", "coordinates": [ 84.4968128, 27.8195262 ] } },
{ "type": "Feature", "properties": { "Name": "??????? ???", "Type": "bridge", "District": "CHITAWAN", "Municipality": "Bharatpur", "Municipality_Type": "Mahanagarpalika", "Ward": 29, "Longitude": 84.4836696, "Latitude": 27.8199922, "Status": "Not Affected" }, "geometry": { "type": "Point", "coordinates": [ 84.4836696, 27.8199922 ] } },
{ "type": "Feature", "properties": { "Name": null, "Type": "bridge", "District": "CHITAWAN", "Municipality": "Bharatpur", "Municipality_Type": "Mahanagarpalika", "Ward": 29, "Longitude": 84.4801806, "Latitude": 27.8212344, "Status": "Not Affected" }, "geometry": { "type": "Point", "coordinates": [ 84.4801806, 27.8212344 ] } },
{ "type": "Feature", "properties": { "Name": "Bharatpur-Mugling Highway", "Type": "bridge", "District": "CHITAWAN", "Municipality": "Bharatpur", "Municipality_Type": "Mahanagarpalika", "Ward": 29, "Longitude": 84.4702065, "Latitude": 27.7661102, "Status": "Not Affected" }, "geometry": { "type": "Point", "coordinates": [ 84.4702065, 27.7661102 ] } },
{ "type": "Feature", "properties": { "Name": "Bharatpur-Mugling Highway", "Type": "bridge", "District": "CHITAWAN", "Municipality": "Bharatpur", "Municipality_Type": "Mahanagarpalika", "Ward": 29, "Longitude": 84.4703903, "Latitude": 27.7662769, "Status": "Not Affected" }, "geometry": { "type": "Point", "coordinates": [ 84.4703903, 27.7662769 ] } },
{ "type": "Feature", "properties": { "Name": null, "Type": "bridge", "District": "CHITAWAN", "Municipality": "Bharatpur", "Municipality_Type": "Mahanagarpalika", "Ward": 1, "Longitude": 84.4444777, "Latitude": 27.7506355, "Status": "Not Affected" }, "geometry": { "type": "Point", "coordinates": [ 84.4444777, 27.7506355 ] } },
{ "type": "Feature", "properties": { "Name": null, "Type": "bridge", "District": "TANAHU", "Municipality": "Devghat", "Municipality_Type": "Gaunpalika", "Ward": 5, "Longitude": 84.4502073, "Latitude": 27.7708661, "Status": "Not Affected" }, "geometry": { "type": "Point", "coordinates": [ 84.4502073, 27.7708661 ] } },
{ "type": "Feature", "properties": { "Name": "Khahare Bridge", "Type": "bridge", "District": "CHITAWAN", "Municipality": "Bharatpur", "Municipality_Type": "Mahanagarpalika", "Ward": 29, "Longitude": 84.4641398, "Latitude": 27.7727275, "Status": "Not Affected" }, "geometry": { "type": "Point", "coordinates": [ 84.4641398, 27.7727275 ] } },
{ "type": "Feature", "properties": { "Name": "Khahare Bridge", "Type": "bridge", "District": "CHITAWAN", "Municipality": "Bharatpur", "Municipality_Type": "Mahanagarpalika", "Ward": 29, "Longitude": 84.4646375, "Latitude": 27.7726099, "Status": "Not Affected" }, "geometry": { "type": "Point", "coordinates": [ 84.4646375, 27.7726099 ] } },
{ "type": "Feature", "properties": { "Name": "Khor", "Type": "bridge", "District": "CHITAWAN", "Municipality": "Bharatpur", "Municipality_Type": "Mahanagarpalika", "Ward": 29, "Longitude": 84.4414912, "Latitude": 27.7793629, "Status": "Not Affected" }, "geometry": { "type": "Point", "coordinates": [ 84.4414912, 27.7793629 ] } },
{ "type": "Feature", "properties": { "Name": "?????????? ???", "Type": "bridge", "District": "CHITAWAN", "Municipality": "Bharatpur", "Municipality_Type": "Mahanagarpalika", "Ward": 29, "Longitude": 84.4320804, "Latitude": 27.7986447, "Status": "Not Affected" }, "geometry": { "type": "Point", "coordinates": [ 84.4320804, 27.7986447 ] } },
{ "type": "Feature", "properties": { "Name": "?????????? ???", "Type": "bridge", "District": "CHITAWAN", "Municipality": "Bharatpur", "Municipality_Type": "Mahanagarpalika", "Ward": 29, "Longitude": 84.4317598, "Latitude": 27.7983805, "Status": "Not Affected" }, "geometry": { "type": "Point", "coordinates": [ 84.4317598, 27.7983805 ] } },
{ "type": "Feature", "properties": { "Name": "Khani khola", "Type": "bridge", "District": "CHITAWAN", "Municipality": "Bharatpur", "Municipality_Type": "Mahanagarpalika", "Ward": 29, "Longitude": 84.4317757, "Latitude": 27.8023619, "Status": "Not Affected" }, "geometry": { "type": "Point", "coordinates": [ 84.4317757, 27.8023619 ] } },
{ "type": "Feature", "properties": { "Name": "???? ???", "Type": "bridge", "District": "CHITAWAN", "Municipality": "Bharatpur", "Municipality_Type": "Mahanagarpalika", "Ward": 29, "Longitude": 84.4629684, "Latitude": 27.8176723, "Status": "Not Affected" }, "geometry": { "type": "Point", "coordinates": [ 84.4629684, 27.8176723 ] } },
{ "type": "Feature", "properties": { "Name": "Bharatpur-Mugling Highway", "Type": "bridge", "District": "CHITAWAN", "Municipality": "Bharatpur", "Municipality_Type": "Mahanagarpalika", "Ward": 29, "Longitude": 84.4566615, "Latitude": 27.8186497, "Status": "Not Affected" }, "geometry": { "type": "Point", "coordinates": [ 84.4566615, 27.8186497 ] } },
{ "type": "Feature", "properties": { "Name": "Dumpe khola", "Type": "bridge", "District": "CHITAWAN", "Municipality": "Bharatpur", "Municipality_Type": "Mahanagarpalika", "Ward": 29, "Longitude": 84.4663305, "Latitude": 27.8188665, "Status": "Not Affected" }, "geometry": { "type": "Point", "coordinates": [ 84.4663305, 27.8188665 ] } },
{ "type": "Feature", "properties": { "Name": null, "Type": "bridge", "District": "TANAHU", "Municipality": "Anbukhaireni", "Municipality_Type": "Gaunpalika", "Ward": 5, "Longitude": 84.4637585, "Latitude": 27.833377, "Status": "Not Affected" }, "geometry": { "type": "Point", "coordinates": [ 84.4637585, 27.833377 ] } },
{ "type": "Feature", "properties": { "Name": "Namsi khola", "Type": "bridge", "District": "CHITAWAN", "Municipality": "Ichchhyakamana", "Municipality_Type": "Gaunpalika", "Ward": 6, "Longitude": 84.5472799, "Latitude": 27.8308706, "Status": "Not Affected" }, "geometry": { "type": "Point", "coordinates": [ 84.5472799, 27.8308706 ] } },
{ "type": "Feature", "properties": { "Name": null, "Type": "bridge", "District": "GORKHA", "Municipality": "Gandaki", "Municipality_Type": "Gaunpalika", "Ward": 8, "Longitude": 84.7499973, "Latitude": 27.805641, "Status": "Not Affected" }, "geometry": { "type": "Point", "coordinates": [ 84.7499973, 27.805641 ] } },
{ "type": "Feature", "properties": { "Name": null, "Type": "bridge", "District": "DHADING", "Municipality": "Benighat Rorang", "Municipality_Type": "Gaunpalika", "Ward": 10, "Longitude": 84.6904922, "Latitude": 27.8092018, "Status": "Not Affected" }, "geometry": { "type": "Point", "coordinates": [ 84.6904922, 27.8092018 ] } },
{ "type": "Feature", "properties": { "Name": null, "Type": "bridge", "District": "DHADING", "Municipality": "Benighat Rorang", "Municipality_Type": "Gaunpalika", "Ward": 10, "Longitude": 84.6673777, "Latitude": 27.8218173, "Status": "Not Affected" }, "geometry": { "type": "Point", "coordinates": [ 84.6673777, 27.8218173 ] } },
{ "type": "Feature", "properties": { "Name": null, "Type": "bridge", "District": "CHITAWAN", "Municipality": "Ichchhyakamana", "Municipality_Type": "Gaunpalika", "Ward": 3, "Longitude": 84.6613127, "Latitude": 27.8443323, "Status": "Not Affected" }, "geometry": { "type": "Point", "coordinates": [ 84.6613127, 27.8443323 ] } },
{ "type": "Feature", "properties": { "Name": "Trishuli Bridge", "Type": "bridge", "District": "CHITAWAN", "Municipality": "Ichchhyakamana", "Municipality_Type": "Gaunpalika", "Ward": 5, "Longitude": 84.5579868, "Latitude": 27.8544946, "Status": "Not Affected" }, "geometry": { "type": "Point", "coordinates": [ 84.5579868, 27.8544946 ] } },
{ "type": "Feature", "properties": { "Name": null, "Type": "bridge", "District": "GORKHA", "Municipality": "Gandaki", "Municipality_Type": "Gaunpalika", "Ward": 1, "Longitude": 84.6408513, "Latitude": 27.8604389, "Status": "Not Affected" }, "geometry": { "type": "Point", "coordinates": [ 84.6408513, 27.8604389 ] } },
{ "type": "Feature", "properties": { "Name": null, "Type": "bridge", "District": "CHITAWAN", "Municipality": "Ichchhyakamana", "Municipality_Type": "Gaunpalika", "Ward": 3, "Longitude": 84.6442229, "Latitude": 27.8599148, "Status": "Not Affected" }, "geometry": { "type": "Point", "coordinates": [ 84.6442229, 27.8599148 ] } },
{ "type": "Feature", "properties": { "Name": null, "Type": "bridge", "District": "GORKHA", "Municipality": "Gandaki", "Municipality_Type": "Gaunpalika", "Ward": 1, "Longitude": 84.642224, "Latitude": 27.8599383, "Status": "Not Affected" }, "geometry": { "type": "Point", "coordinates": [ 84.642224, 27.8599383 ] } },
{ "type": "Feature", "properties": { "Name": null, "Type": "bridge", "District": "GORKHA", "Municipality": "Sahid Lakhan", "Municipality_Type": "Gaunpalika", "Ward": 4, "Longitude": 84.6352065, "Latitude": 27.8722878, "Status": "Not Affected" }, "geometry": { "type": "Point", "coordinates": [ 84.6352065, 27.8722878 ] } },
{ "type": "Feature", "properties": { "Name": null, "Type": "bridge", "District": "CHITAWAN", "Municipality": "Ichchhyakamana", "Municipality_Type": "Gaunpalika", "Ward": 4, "Longitude": 84.6147611, "Latitude": 27.8731093, "Status": "Not Affected" }, "geometry": { "type": "Point", "coordinates": [ 84.6147611, 27.8731093 ] } },
{ "type": "Feature", "properties": { "Name": null, "Type": "bridge", "District": "DHADING", "Municipality": "Gajuri", "Municipality_Type": "Gaunpalika", "Ward": 2, "Longitude": 84.8539769, "Latitude": 27.8074235, "Status": "Not Affected" }, "geometry": { "type": "Point", "coordinates": [ 84.8539769, 27.8074235 ] } },
{ "type": "Feature", "properties": { "Name": "Pokhare khola", "Type": "bridge", "District": "DHADING", "Municipality": "Gajuri", "Municipality_Type": "Gaunpalika", "Ward": 5, "Longitude": 84.916646, "Latitude": 27.800059, "Status": "Not Affected" }, "geometry": { "type": "Point", "coordinates": [ 84.916646, 27.800059 ] } },
{ "type": "Feature", "properties": { "Name": null, "Type": "bridge", "District": "DHADING", "Municipality": "Galchi", "Municipality_Type": "Gaunpalika", "Ward": 1, "Longitude": 84.9752489, "Latitude": 27.8021128, "Status": "Not Affected" }, "geometry": { "type": "Point", "coordinates": [ 84.9752489, 27.8021128 ] } },
{ "type": "Feature", "properties": { "Name": null, "Type": "bridge", "District": "DHADING", "Municipality": "Galchi", "Municipality_Type": "Gaunpalika", "Ward": 1, "Longitude": 84.9764496, "Latitude": 27.8031005, "Status": "Not Affected" }, "geometry": { "type": "Point", "coordinates": [ 84.9764496, 27.8031005 ] } },
{ "type": "Feature", "properties": { "Name": null, "Type": "bridge", "District": "DHADING", "Municipality": "Galchi", "Municipality_Type": "Gaunpalika", "Ward": 1, "Longitude": 84.9755662, "Latitude": 27.8053598, "Status": "Not Affected" }, "geometry": { "type": "Point", "coordinates": [ 84.9755662, 27.8053598 ] } },
{ "type": "Feature", "properties": { "Name": null, "Type": "bridge", "District": "DHADING", "Municipality": "Siddhalek", "Municipality_Type": "Gaunpalika", "Ward": 7, "Longitude": 84.9022567, "Latitude": 27.8063098, "Status": "Not Affected" }, "geometry": { "type": "Point", "coordinates": [ 84.9022567, 27.8063098 ] } },
{ "type": "Feature", "properties": { "Name": null, "Type": "bridge", "District": "DHADING", "Municipality": "Galchi", "Municipality_Type": "Gaunpalika", "Ward": 4, "Longitude": 84.9688706, "Latitude": 27.8072137, "Status": "Not Affected" }, "geometry": { "type": "Point", "coordinates": [ 84.9688706, 27.8072137 ] } },
{ "type": "Feature", "properties": { "Name": null, "Type": "bridge", "District": "DHADING", "Municipality": "Galchi", "Municipality_Type": "Gaunpalika", "Ward": 4, "Longitude": 84.9654803, "Latitude": 27.8111709, "Status": "Not Affected" }, "geometry": { "type": "Point", "coordinates": [ 84.9654803, 27.8111709 ] } },
{ "type": "Feature", "properties": { "Name": null, "Type": "bridge", "District": "DHADING", "Municipality": "Galchi", "Municipality_Type": "Gaunpalika", "Ward": 2, "Longitude": 84.9441567, "Latitude": 27.8121246, "Status": "Not Affected" }, "geometry": { "type": "Point", "coordinates": [ 84.9441567, 27.8121246 ] } },
{ "type": "Feature", "properties": { "Name": null, "Type": "bridge", "District": "DHADING", "Municipality": "Galchi", "Municipality_Type": "Gaunpalika", "Ward": 4, "Longitude": 84.9647013, "Latitude": 27.8116359, "Status": "Not Affected" }, "geometry": { "type": "Point", "coordinates": [ 84.9647013, 27.8116359 ] } },
{ "type": "Feature", "properties": { "Name": "Keurintar Hanging Bridge", "Type": "bridge", "District": "DHADING", "Municipality": "Galchi", "Municipality_Type": "Gaunpalika", "Ward": 4, "Longitude": 84.9613808, "Latitude": 27.8158267, "Status": "Not Affected" }, "geometry": { "type": "Point", "coordinates": [ 84.9613808, 27.8158267 ] } },
{ "type": "Feature", "properties": { "Name": null, "Type": "bridge", "District": "DHADING", "Municipality": "Galchi", "Municipality_Type": "Gaunpalika", "Ward": 2, "Longitude": 84.9545422, "Latitude": 27.8173437, "Status": "Not Affected" }, "geometry": { "type": "Point", "coordinates": [ 84.9545422, 27.8173437 ] } },
{ "type": "Feature", "properties": { "Name": null, "Type": "bridge", "District": "NUWAKOT", "Municipality": "Belkotgadhi", "Municipality_Type": "Nagarpalika", "Ward": 5, "Longitude": 85.0229754, "Latitude": 27.832286, "Status": "Not Affected" }, "geometry": { "type": "Point", "coordinates": [ 85.0229754, 27.832286 ] } },
{ "type": "Feature", "properties": { "Name": null, "Type": "bridge", "District": "RASUWA", "Municipality": "Uttargaya", "Municipality_Type": "Gaunpalika", "Ward": 1, "Longitude": 85.206325, "Latitude": 28.062578, "Status": "Not Affected" }, "geometry": { "type": "Point", "coordinates": [ 85.206325, 28.062578 ] } },
{ "type": "Feature", "properties": { "Name": null, "Type": "bridge", "District": "RASUWA", "Municipality": "Uttargaya", "Municipality_Type": "Gaunpalika", "Ward": 1, "Longitude": 85.206686, "Latitude": 28.062053, "Status": "Not Affected" }, "geometry": { "type": "Point", "coordinates": [ 85.206686, 28.062053 ] } },
{ "type": "Feature", "properties": { "Name": null, "Type": "bridge", "District": "RASUWA", "Municipality": "Uttargaya", "Municipality_Type": "Gaunpalika", "Ward": 5, "Longitude": 85.185811, "Latitude": 27.974339, "Status": "Not Affected" }, "geometry": { "type": "Point", "coordinates": [ 85.185811, 27.974339 ] } },
{ "type": "Feature", "properties": { "Name": null, "Type": "bridge", "District": "NUWAKOT", "Municipality": "Bidur", "Municipality_Type": "Nagarpalika", "Ward": 5, "Longitude": 85.109075, "Latitude": 27.858575, "Status": "Not Affected" }, "geometry": { "type": "Point", "coordinates": [ 85.109075, 27.858575 ] } },
{ "type": "Feature", "properties": { "Name": null, "Type": "bridge", "District": "NUWAKOT", "Municipality": "Belkotgadhi", "Municipality_Type": "Nagarpalika", "Ward": 5, "Longitude": 85.016211, "Latitude": 27.810111, "Status": "Not Affected" }, "geometry": { "type": "Point", "coordinates": [ 85.016211, 27.810111 ] } },
{ "type": "Feature", "properties": { "Name": null, "Type": "bridge", "District": null, "Municipality": null, "Municipality_Type": null, "Ward": null, "Longitude": null, "Latitude": null, "Status": "Not Affected" }, "geometry": null },
{ "type": "Feature", "properties": { "Name": null, "Type": "bridge", "District": null, "Municipality": null, "Municipality_Type": null, "Ward": null, "Longitude": null, "Latitude": null, "Status": "Not Affected" }, "geometry": null }
]
}
