{
"type": "FeatureCollection",
"name": "medical",
"crs": { "type": "name", "properties": { "name": "urn:ogc:def:crs:OGC:1.3:CRS84" } },
"features": [
{ "type": "Feature", "properties": { "SN": 1, "Name": "Gerkhu Health Post", "Type": "Health Post", "Area Name": "Gerkhu, Nuwakot", "Lat": 27.95248928, "Long": 85.1806865, "remarks": null }, "geometry": { "type": "Point", "coordinates": [ 85.1806865, 27.95248928 ] } },
{ "type": "Feature", "properties": { "SN": 2, "Name": "Kalika Health Post", "Type": "Health Post", "Area Name": "Kalikasthan, Rasuwa", "Lat": null, "Long": null, "remarks": "no exact location" }, "geometry": null },
{ "type": "Feature", "properties": { "SN": 3, "Name": "Rasuwa Hospital", "Type": "District Hospital", "Area Name": "Dhunche, Rasuwa", "Lat": 28.11071134, "Long": 85.29634514, "remarks": null }, "geometry": { "type": "Point", "coordinates": [ 85.29634514, 28.11071134 ] } },
{ "type": "Feature", "properties": { "SN": 4, "Name": "Syabrubesi Health Post", "Type": "Community Health Center", "Area Name": "Syabrubesi, Rasuwa", "Lat": null, "Long": null, "remarks": "no exact location" }, "geometry": null },
{ "type": "Feature", "properties": { "SN": 5, "Name": "Dhichem Primary Health Centre", "Type": "Community Health Center", "Area Name": "Dhunche, Rasuwa", "Lat": null, "Long": null, "remarks": "no exact location" }, "geometry": null },
{ "type": "Feature", "properties": { "SN": 6, "Name": "Langtang Medical Hall", "Type": "Pharmacy", "Area Name": "Dhunche, Rasuwa", "Lat": 28.11247353, "Long": 85.29670226, "remarks": null }, "geometry": { "type": "Point", "coordinates": [ 85.29670226, 28.11247353 ] } },
{ "type": "Feature", "properties": { "SN": 7, "Name": "Rasuwa Medical Hall", "Type": "Pharmacy", "Area Name": "Dhunche, Rasuwa", "Lat": 28.11254311, "Long": 85.2962966, "remarks": null }, "geometry": { "type": "Point", "coordinates": [ 85.2962966, 28.11254311 ] } },
{ "type": "Feature", "properties": { "SN": 8, "Name": "Dhunche Pharmacy", "Type": "Pharmacy", "Area Name": "Dhunche, Rasuwa", "Lat": 28.11159403, "Long": 85.29796379, "remarks": null }, "geometry": { "type": "Point", "coordinates": [ 85.29796379, 28.11159403 ] } },
{ "type": "Feature", "properties": { "SN": 9, "Name": "Sapkota Medical Hall", "Type": "Pharmacy", "Area Name": "Battar, Bidur", "Lat": 27.89772426, "Long": 85.14656519, "remarks": null }, "geometry": { "type": "Point", "coordinates": [ 85.14656519, 27.89772426 ] } },
{ "type": "Feature", "properties": { "SN": 10, "Name": "Samman Medical", "Type": "Pharmacy", "Area Name": "Battar, Bidur", "Lat": 27.89654019, "Long": 85.14541044000001, "remarks": null }, "geometry": { "type": "Point", "coordinates": [ 85.14541044, 27.89654019 ] } },
{ "type": "Feature", "properties": { "SN": 11, "Name": "Life Care Medicine Suppliers Pvt LTD", "Type": "Medical supply store", "Area Name": "Bidur-2", "Lat": 27.8970682, "Long": 85.14666407, "remarks": null }, "geometry": { "type": "Point", "coordinates": [ 85.14666407, 27.8970682 ] } },
{ "type": "Feature", "properties": { "SN": 12, "Name": "Nuwakot health post", "Type": "Health Post", "Area Name": "Bidur", "Lat": 27.89229943, "Long": 85.14048174, "remarks": null }, "geometry": { "type": "Point", "coordinates": [ 85.14048174, 27.89229943 ] } },
{ "type": "Feature", "properties": { "SN": 13, "Name": "Sagar veterinary medical", "Type": "Veterinary pharmacy", "Area Name": "Battar Bazar, Bidur", "Lat": 27.89695441, "Long": 85.14668553, "remarks": null }, "geometry": { "type": "Point", "coordinates": [ 85.14668553, 27.89695441 ] } },
{ "type": "Feature", "properties": { "SN": 14, "Name": "Trishuli Hospital (त्रिशुली अस्पताल)", "Type": "District Hospital (Major Center)", "Area Name": "Bidur-9, Nuwakot", "Lat": 27.92468277, "Long": 85.14077005, "remarks": null }, "geometry": { "type": "Point", "coordinates": [ 85.14077005, 27.92468277 ] } },
{ "type": "Feature", "properties": { "SN": 15, "Name": "Sahari Health Post", "Type": "Health Post", "Area Name": "Majhitar", "Lat": 27.87838193, "Long": 85.1434177, "remarks": null }, "geometry": { "type": "Point", "coordinates": [ 85.1434177, 27.87838193 ] } },
{ "type": "Feature", "properties": { "SN": 16, "Name": "Jana Sewa Medical Hall", "Type": "Pharmacy", "Area Name": "Kurintar / Kuringhat", "Lat": 27.86807431, "Long": 84.63197111, "remarks": null }, "geometry": { "type": "Point", "coordinates": [ 84.63197111, 27.86807431 ] } },
{ "type": "Feature", "properties": { "SN": 17, "Name": "APF Trauma Care Centre", "Type": "Medical Center", "Area Name": "Kurintar / Kuringhat", "Lat": 27.86856765, "Long": 84.62620377, "remarks": null }, "geometry": { "type": "Point", "coordinates": [ 84.62620377, 27.86856765 ] } },
{ "type": "Feature", "properties": { "SN": 18, "Name": "Niraj Dental", "Type": "Dental clinic", "Area Name": "Kurintar", "Lat": 27.87187096, "Long": 84.62267808, "remarks": null }, "geometry": { "type": "Point", "coordinates": [ 84.62267808, 27.87187096 ] } },
{ "type": "Feature", "properties": { "SN": 19, "Name": "Ayurveda and Alternative Hospital", "Type": "Hospital", "Area Name": "Nuwakot", "Lat": 27.86676753, "Long": 85.11910692, "remarks": null }, "geometry": { "type": "Point", "coordinates": [ 85.11910692, 27.86676753 ] } },
{ "type": "Feature", "properties": { "SN": 20, "Name": "Bidur CHU", "Type": "Community health center", "Area Name": "Bidur 3", "Lat": 27.86272171, "Long": 85.08721826, "remarks": null }, "geometry": { "type": "Point", "coordinates": [ 85.08721826, 27.86272171 ] } },
{ "type": "Feature", "properties": { "SN": 21, "Name": "R.K. Vet Ferma & Poultry Supplier", "Type": "Emergency veterinarian service", "Area Name": "Kurintar / Kuringhat", "Lat": 27.85904072, "Long": 84.64241751, "remarks": null }, "geometry": { "type": "Point", "coordinates": [ 84.64241751, 27.85904072 ] } },
{ "type": "Feature", "properties": { "SN": 22, "Name": "नागरिक आरोग्य सेवा केन्द्र, इच्छाकामना, चुम्लिङ्गटार (Nagarika Arogya Sewa Kendra)", "Type": "Medical Center", "Area Name": "Kurintar / Kuringhat", "Lat": 27.85801769, "Long": 84.64798585, "remarks": null }, "geometry": { "type": "Point", "coordinates": [ 84.64798585, 27.85801769 ] } },
{ "type": "Feature", "properties": { "SN": 23, "Name": "Swechchha Pharmacy", "Type": "Pharmacy", "Area Name": "Mugling", "Lat": 27.85782256, "Long": 84.56325808, "remarks": null }, "geometry": { "type": "Point", "coordinates": [ 84.56325808, 27.85782256 ] } },
{ "type": "Feature", "properties": { "SN": 24, "Name": "Purnima medical hall", "Type": "Pharmacy", "Area Name": "Budhasinga Ghat", "Lat": 27.85422163, "Long": 85.06495652, "remarks": null }, "geometry": { "type": "Point", "coordinates": [ 85.06495652, 27.85422163 ] } },
{ "type": "Feature", "properties": { "SN": 25, "Name": "Bhimeshwor Medical Center", "Type": "Hospital", "Area Name": "Budhasinga Ghat", "Lat": 27.85435351, "Long": 85.06300924, "remarks": null }, "geometry": { "type": "Point", "coordinates": [ 85.06300924, 27.85435351 ] } },
{ "type": "Feature", "properties": { "SN": 26, "Name": "Nuwakot Health Care Pvt. Ltd.", "Type": "Clinic?", "Area Name": "Budhasinga Ghat", "Lat": 27.85492265, "Long": 85.05980132000001, "remarks": null }, "geometry": { "type": "Point", "coordinates": [ 85.05980132, 27.85492265 ] } },
{ "type": "Feature", "properties": { "SN": 27, "Name": "Phisling Medical Hall", "Type": "Pharmacy", "Area Name": "Phisling", "Lat": 27.84401399, "Long": 84.66150945, "remarks": null }, "geometry": { "type": "Point", "coordinates": [ 84.66150945, 27.84401399 ] } },
{ "type": "Feature", "properties": { "SN": 28, "Name": "Phisling Medical Hall and Pharmacy", "Type": "Medical Center", "Area Name": "Ichhakamana, Phisling", "Lat": 27.84381787, "Long": 84.66147323, "remarks": null }, "geometry": { "type": "Point", "coordinates": [ 84.66147323, 27.84381787 ] } },
{ "type": "Feature", "properties": { "SN": 29, "Name": "Belkotgadhi Health Post", "Type": "Health Post", "Area Name": "Belkotgadhi, Nuwakot", "Lat": 27.8759336, "Long": 85.15911295, "remarks": null }, "geometry": { "type": "Point", "coordinates": [ 85.15911295, 27.8759336 ] } },
{ "type": "Feature", "properties": { "SN": 30, "Name": "Baireni Health Post", "Type": "Community health center", "Area Name": "Baireni", "Lat": 27.80108842, "Long": 84.98838084, "remarks": null }, "geometry": { "type": "Point", "coordinates": [ 84.98838084, 27.80108842 ] } },
{ "type": "Feature", "properties": { "SN": 31, "Name": "Baireni Hospital", "Type": "Hospital", "Area Name": "Baireni", "Lat": 27.80130607, "Long": 84.98785517, "remarks": null }, "geometry": { "type": "Point", "coordinates": [ 84.98785517, 27.80130607 ] } },
{ "type": "Feature", "properties": { "SN": 32, "Name": "Gajuri Aurvedic Centre", "Type": "Public medical center", "Area Name": "Gajuri", "Lat": 27.80514192, "Long": 84.88224165, "remarks": null }, "geometry": { "type": "Point", "coordinates": [ 84.88224165, 27.80514192 ] } },
{ "type": "Feature", "properties": { "SN": 33, "Name": "आधारभूत स्वास्थ्य केन्द्र आदमटार", "Type": "Community health center", "Area Name": "Adamtar", "Lat": 27.80971215, "Long": 84.93588658, "remarks": null }, "geometry": { "type": "Point", "coordinates": [ 84.93588658, 27.80971215 ] } },
{ "type": "Feature", "properties": { "SN": 34, "Name": "Primary Health Centre I प्राथमिक स्वास्थ्य केन्द्र", "Type": "Primary Healthcare", "Area Name": "Kumpur", "Lat": 27.80671424, "Long": 84.87991482, "remarks": null }, "geometry": { "type": "Point", "coordinates": [ 84.87991482, 27.80671424 ] } },
{ "type": "Feature", "properties": { "SN": 35, "Name": "Sundar pharmacy", "Type": "Pharmacy", "Area Name": "Gajuri", "Lat": 27.80619112, "Long": 84.87995608, "remarks": null }, "geometry": { "type": "Point", "coordinates": [ 84.87995608, 27.80619112 ] } },
{ "type": "Feature", "properties": { "SN": 36, "Name": "Pratibha Medical Hall", "Type": "Medical Center", "Area Name": "Gajuri", "Lat": 27.80474682, "Long": 84.87882008, "remarks": null }, "geometry": { "type": "Point", "coordinates": [ 84.87882008, 27.80474682 ] } },
{ "type": "Feature", "properties": { "SN": 37, "Name": "Adarsha pharmacy", "Type": "Medical Center", "Area Name": "Gajuri", "Lat": 27.80629554, "Long": 84.87988354, "remarks": null }, "geometry": { "type": "Point", "coordinates": [ 84.87988354, 27.80629554 ] } },
{ "type": "Feature", "properties": { "SN": 38, "Name": "Gajuri Health Post", "Type": "Community health center", "Area Name": "Gajuri", "Lat": 27.80643701, "Long": 84.88007706, "remarks": null }, "geometry": { "type": "Point", "coordinates": [ 84.88007706, 27.80643701 ] } },
{ "type": "Feature", "properties": { "SN": 39, "Name": "Gajuri Hospital", "Type": "Hospital", "Area Name": "Gajuri", "Lat": 27.80517957, "Long": 84.87939659, "remarks": null }, "geometry": { "type": "Point", "coordinates": [ 84.87939659, 27.80517957 ] } },
{ "type": "Feature", "properties": { "SN": 40, "Name": "भद्रकाली मेडिकल हल (Bhadrakali Medical Hall)", "Type": "Medical Center", "Area Name": "Malekhu", "Lat": 27.80688932, "Long": 84.83571787, "remarks": null }, "geometry": { "type": "Point", "coordinates": [ 84.83571787, 27.80688932 ] } },
{ "type": "Feature", "properties": { "SN": 41, "Name": "Benighat Health Post", "Type": "Community health center", "Area Name": "Benighat", "Lat": 27.80983399, "Long": 84.77981533000001, "remarks": null }, "geometry": { "type": "Point", "coordinates": [ 84.77981533, 27.80983399 ] } },
{ "type": "Feature", "properties": { "SN": 42, "Name": "Sugandha Pharmacy", "Type": "Pharmacy", "Area Name": "Charaundi", "Lat": 27.80533176, "Long": 84.75447943, "remarks": null }, "geometry": { "type": "Point", "coordinates": [ 84.75447943, 27.80533176 ] } },
{ "type": "Feature", "properties": { "SN": 43, "Name": "Charundi health post", "Type": "Community health center", "Area Name": "Charaundi", "Lat": 27.80350784, "Long": 84.7494417, "remarks": null }, "geometry": { "type": "Point", "coordinates": [ 84.7494417, 27.80350784 ] } },
{ "type": "Feature", "properties": { "SN": 44, "Name": "Jogimara Health Post", "Type": "Community health center", "Area Name": "Jogimara", "Lat": 27.80658274, "Long": 84.69956805, "remarks": null }, "geometry": { "type": "Point", "coordinates": [ 84.69956805, 27.80658274 ] } },
{ "type": "Feature", "properties": { "SN": 45, "Name": "Bihani clinic and pharmacy Pvt LTD", "Type": "Medical clinic", "Area Name": "Majhimtar", "Lat": 27.80488503, "Long": 84.70567254, "remarks": null }, "geometry": { "type": "Point", "coordinates": [ 84.70567254, 27.80488503 ] } },
{ "type": "Feature", "properties": { "SN": 46, "Name": "आधारभुत स्वास्थ्य सेवा केन्द्र घ्याल्चोक", "Type": "Community health center", "Area Name": "Ghyalchok", "Lat": 27.80737309, "Long": 84.72688105, "remarks": null }, "geometry": { "type": "Point", "coordinates": [ 84.72688105, 27.80737309 ] } }
]
}
