{
"type": "FeatureCollection",
"name": "Detachment_zone",
"crs": { "type": "name", "properties": { "name": "urn:ogc:def:crs:OGC:1.3:CRS84" } },
"features": [
{ "type": "Feature", "properties": { "SiteID": 0, "SensorDate": "2026-09-26", "SensorID": 57, "Confidence": 0, "FieldValid": 0, "Settlement": null, "Notes": null, "Main_Damag": 0, "Grouped_Da": 0, "StaffID": 219, "EventCode": "FL20260826NPL", "Area_m2": 1956820.0, "Area_ha": 195.682, "ImageID_Nu": 0, "Shape_Leng": 0.05265939973, "Shape_Area": 0.00018004402 }, "geometry": { "type": "MultiPolygon", "coordinates": [ [ [ [ 85.528843514000073, 28.285396885000068 ], [ 85.527317039000081, 28.28534518500004 ], [ 85.526025406000031, 28.284931580000091 ], [ 85.524851195000053, 28.28441457200006 ], [ 85.524405559000058, 28.283890696000071 ], [ 85.52336785500006, 28.283065690000058 ], [ 85.522230619000084, 28.282932058000085 ], [ 85.521334402000036, 28.282986320000077 ], [ 85.51939111300004, 28.282191411000042 ], [ 85.518633512000065, 28.28320675000009 ], [ 85.516295704000072, 28.283399245000055 ], [ 85.514283295000041, 28.283639056000084 ], [ 85.512342960000069, 28.284820525000043 ], [ 85.510878081000044, 28.286430888000041 ], [ 85.511974208000083, 28.287473411000065 ], [ 85.512991662000047, 28.288343767000072 ], [ 85.513989741000046, 28.289377742000056 ], [ 85.514811689000055, 28.290670197000054 ], [ 85.515182364000054, 28.292336343000045 ], [ 85.515591178000079, 28.293709077000074 ], [ 85.51674913800008, 28.294392377000065 ], [ 85.518334323000033, 28.295219510000038 ], [ 85.520223676000057, 28.295762023000066 ], [ 85.521651141000063, 28.295747715000061 ], [ 85.523164182000073, 28.295797507000088 ], [ 85.524914885000044, 28.295466160000046 ], [ 85.526681180000082, 28.29484771500006 ], [ 85.528359739000052, 28.294171283000082 ], [ 85.52951835600004, 28.293421975000058 ], [ 85.529777246000037, 28.291549056000065 ], [ 85.529932149000047, 28.289657410000075 ], [ 85.529811909000045, 28.286576641000067 ], [ 85.529241054000067, 28.286010422000061 ], [ 85.528843514000073, 28.285396885000068 ] ] ] ] } }
]
}
