{
"type": "FeatureCollection",
"name": "landlide",
"crs": { "type": "name", "properties": { "name": "urn:ogc:def:crs:OGC::CRS84h" } },
"features": [
{ "type": "Feature", "properties": { "id": 1, "Name": "Landslide" }, "geometry": { "type": "MultiPolygon", "coordinates": [ [ [ [ 85.477158904907185, 28.333075828791333 ], [ 85.477612336284196, 28.332887027187763 ], [ 85.477965306817225, 28.332839229260227 ], [ 85.478310131876384, 28.332781871718804 ], [ 85.478486617142892, 28.332753192936487 ], [ 85.479092097364941, 28.332552441243521 ], [ 85.481585969938621, 28.332643257532585 ], [ 85.482910967016423, 28.332708979798593 ], [ 85.48292454280616, 28.33153911738583 ], [ 85.482593293536723, 28.330941634167868 ], [ 85.481553388043281, 28.330219869960672 ], [ 85.480994065506366, 28.329641499078054 ], [ 85.480320706335675, 28.329431181613074 ], [ 85.478596581039824, 28.329894835471887 ], [ 85.478113282925406, 28.330223454894362 ], [ 85.477621839337147, 28.330789872895544 ], [ 85.477177911012902, 28.331535532496531 ], [ 85.477035365220729, 28.332360053848589 ], [ 85.477158904907185, 28.333075828791333 ] ] ] ] } }
]
}
